username,name,state,city,address,postalCode,telephone,lastLicenseNumber,lastLicenseValidityDate,nationalCode,registerNumber,manager,socialNetworkAccess,mobile
u14007235167,سهیل میرزا حسین کاشانی و شرکاء,تهران,تهران,خیابان گاندی جنوبی، خیابان بیست و سوم، پلاک 85، طبقه همکف,1517943117,57767000,376688,1400/10/30,14007235167,519242,يوسف ميرزاحسين كاشاني,,
u14008062458,عباس غلامعلی زاده و شرکاء,آذربایجان غربی,ارومیه,ارومیه -دانشکده - کوچه سی و هشتم - بلوار شهید آیت الله بهشتی - پلاک 4 - ساختمان تجاری دانشکده - طبقه همکف,5715918316,4433476071,268132,1400/08/01,14008062458,17719,,,
u14008768059,آرش نجاریان و شرکا,یزد,یزد,يزد، خيابان آيت‌اله کاشاني، کوچه 37 قريشي، پلاک 1185، طبقه همکف,8915633455,,410594,1400/12/01,14008768059,18831,آرش نجاريان,,
u14006583993,آرمان چراغعلی و شرکا,تهران,تهران,میدان فردوسی، مرکز تجارت جهانی، طبقه همکف، واحد 20,1145683693,9122113155,111270,1400/11/01,14006583993,505991,اميرحسين چراغعلي,,
u14003423459,آزاده شعبانپور و شرکاء,مازندران,بابل,خ امام خميني ،پاساژ گلچوبيان ،جنب بانک ملي مازيار,4713786518,3269545-0111,73468,1401/03/10,14003423459,6953,آزاده شعبان پور,,
u10103641242,آشتیانی و شرکا,تهران,تهران,خيابان ولي عصر ، روبروي تالار قصر يخ خیابان دهم گاندي ، کوچه دهم ، پلاک 1,1965645113,88887588,222276,1400/07/13,10103641242,323519,محمدحسن آشتياني عراقي,,
u10420230048,آگاه وشرکا,خوزستان,آبادان,خيابان امام‌خميني ، روبروي مبل‌عدالت ، پلاک 334,6316815484,6153242481,91083,1399/04/10,10420230048,3282,,,
u14005556978,ابراهیم حسن زاد و شرکا ارس,آذربایجان شرقی,منطقه آزاد ارس,جلفا، مرکز نورردوز,5446134156,4142086262,56876,1402/02/25,14005556978,5613,اصغر عبدي,,
u14005831059,ابراهیم زاده و دوخائی و شرکاء,تهران,تهران,محله عباس آباد، خیابان اندیشه، خیابان شهید دکتر بهشتی، طبقه همکف، پلاک 42,1569833811,2188443322,98/205950,1400/06/10,14005831059,491623,محمد دوخائي,,
u10220194171,ابراهیم قدرت و شریک,آذربایجان غربی,ارومیه,محله امام،‌خیابان کشتگر، خیابان خیام جنوبی، پلاک 71,5713614766,4432248606,282270,1399/10/01,10220194171,14195,ابراهيم قدرت,,
u14005840734,ابراهیم قربانی و بیات شرکاء,تهران,تهران,خیابان زرتشت غربی - مجتمع تجاری کیان - طبقه اول- واحد F19,1415784513,2188991600,191343,1402/06/05,14005840734,491819,شهاب ابراهيم قرباني,,
u10980252070,ابراهیم‌پورگجوتی و شرکا,آذربایجان غربی,بازرگان,خيابان امام ، جنب درب گمرک بازرگان ، نبش پاساژ جعفرپور,5867148653,4623376985,287526,1400/09/13,10980252070,772,احمد ابراهيم پورگجوتي,,
u10200266420,ابراهیمی و شرکاء,آذربایجان شرقی,تبریز,آذربايجان شرقي، تبريز، وليعصر جنوبي، خيابان باختر، بلوار 29 بهمن، پلاک 0، طبقه همکف، تلفن: 9-5265001-041,5167653766,413132,333383,1399/11/14,10200266420,21081,يوسف ابراهيمي,,
u14005814280,ابوالحسن جلالی و شرکاء,قم,قم,خيابان ارم - گذر خان - پلاک 5,3715796357,2537848980,98/408787,1399/03/26,14005814280,14150,انسيه ملامحمدي,,
u10861001528,ابوالفضل احمدی وشرکا,قم,قم,خيابان طالقاني، بين سه راه بازار و چهاراه بازار، پلاک 98، طبقه همکف,3714713183,,317756,1400/10/07,10861001528,5378,ابوالفضل احمدي,,
u14008659973,ابوالفضل علیمردانی و شرکا,قم,قم,استان قم، شهر قم، محله بازار، کوچه انقلاب 4، خیابان انقلاب، پلاک 32، طبقه همکف، کد پستی:3713765846,3713765846,2537719932,421669,1400/11/01,14008659973,16818,طيبه معلمي قهساره,,
u14007255073,ابوالقاسم حسنی و شرکاء,تهران,تهران,شهرک راه آهن - خیابان 45 متری کاج - بلوار امیرکبیر - پلاک 0 - برج تجاری اداری مالمون 1 - 10B - طبقه همکف,1494911676,2122767340,211853,1399/06/20,14007255073,519661,,,
u14005714208,ابوبکر قره قول و شرکاء,گلستان,بندرترکمن,بندر ترکمن خیابان جمهوري اسلامي- مابين جمهوري اسلامي 7 و 9 - پلاک 409,4891716673,1734424521,123371,1402/04/16,14005714208,1294,ابوبكر قره قول,,
u14005108228,احسان آذر و شرکا,تهران,تهران,تهران، میدان بهارستان خیابان ملت، پلاک142,1143936515,22435667,51812,1400/11/01,14005108228,476160,محمدعلي عصري,,
u14005613010,احسان آذرنکو و شرکاء قشم,هرمزگان,قشم,بازار خليج فارس – بلوار وليعصر – كوچه خليج فارس – لاين يكم – طبقه همكف – واحد 17,7951916713,7635244427,39108,1400/11/01,14005613010,5384,احسان آذرنكو,,
u14007263684,احسان صادق پور ملک میان و شرکاء,گلستان,گرگان,گلستان-گرگان-خیابان ولیعصر-نبش عدالت 23- پاساژ ایرانشهر طبقه همکف,4917747983,32324453,427257,1398/12/28,14007263684,12335,احسان صادق پورملك ميان,,
u14007671114,احسان عباسی و شرکاء,بوشهر,بوشهر,استان بوشهر - شهرستان بوشهر - بخش مرکزی - شهر بوشهر - محله کوتی - کوچه لیان 11 - خیابان لیان غربی - پلاک 193 - طبقه همکف - کدپستی:7513643959,7513643959,7733329470,220521,1399/06/27,14007671114,12152,احسان عباسي,,
u14005604186,احمد افشار و شریک,اصفهان,اصفهان,اصفهان خ سعادت آباد چهارراه شیخ صدوق صرافی افشار,8163933771,,414524,1398/12/20,14005604186,55643,احمد افشار,,
u10300022558,احمد اله دادی و شرکاء,ایلام,مهران,بخش مركزي - دهستان محسن آب - روستا پايانه مرزي مهران-جاده اصلي-خيابان (پايانه مرزي مهران )-پلاك 0-طبقه اول- غرفه 28,6991118055,8433825412,340655,1399/11/21,10300022558,322,,,
u10862030321,احمد امیری وشرکا کیش,هرمزگان,کیش,بازار ونوس ، ط اول ، پلاک 372(ثبتی 315),7941763873,7644424138,187240,1399/07/09,10862030321,8204,فرزانه محمدي,,
u14005731335,احمد پیمان فر و شرکا,هرمزگان,بندرعباس,بندرعباس، خیابان امام موسی صدرجنوبی، مجتمع شهرداری,7917799455,7632249684,136927,1402/04/26,14005731335,16538,احمد پیمان فر,,
u10320804220,احمد سرکندی و شریک,تهران,تهران,خيابان قائم مقام ، نرسيده به مطهري، پلاک 105,1589673134,2610528-30,334471,1399/11/15,10320804220,427477,احمد سرکندی,,
u10980242140,احمد سلطانی و شرکاء,تهران,تهران,تهران،‌میدان فردوسی، خیابان شهید سروش الدین تقوی، خیابان فردوسی،‌پلاک 479،‌ساختمان مرکز تجارت جهانی فردوسی، طبقه همکف، واحد 53,1145683754,66341930-2,253246,1402/07/22,10980242140,532127,احمد آقاياري,,
u10320861020,احمد سینائی پور و شرکاء,تهران,تهران,خیابان شریعتی ، دو راهی قلهک ، کوی امیرپا برجا ، بلوار شهرزاد،اول خیابان هدایت، پلاک 3,1254785489,2122783520,30939,1401/02/09,10320861020,436805,احمد سينائي پورفرد,,
u10320864591,احمد صریحی و شرکاء,تهران,تهران,خیابان فردوسی ، مرکز تجارت جهانی فردوسی ، طبقه همکف ، پلاک 48,1145683780,2163570000,172331,1400/06/01,10320864591,437375,احمد صريحي,,
u14007253164,احمد لقمانی و شرکاء,مازندران,ساری,ساری، پیام نور، خیابان فرهنگ، کوچه فرهنگ13،فدک 4,4818864737,1133268585,142600,1400/04/30,14007253164,14562,سرور تقوي,,
u14005859794,احمد نمک شناس و شرکا,قم,قم,خیابان انقلاب ، جنب کوچه دو ، پلاک 30,3713765847,2537719932,98/209322,1399/06/10,14005859794,14185,مليحه كياني زاد,,
u10861766280,اختر و نیک ‌روا و شرکاء,کردستان,مریوان,مرز باشماق، خیابان بگ زاده، خیابان مرز، پلاک 141 ، طبقه همکف. موبایل: 09181742547,6674134542,,63074,1401/03/02,10861766280,824,محمدصادق اختر,,
u14007539081,ادریس محمدی و شرکاء,تهران,شمیرانات - تجریش,شهرستان شمیرانات - بخش مرکزی - شهر تجریش - الهیه - خیابان مریم غربی - بلوار آفریقا - پلاک 4 - پاساژ مدرن الهیه - طبقه اول - واحد 33,1964918560,2122057000,48568,1399/05/21,14007539081,525329,سيده ليلا ابراهيمي,,
u14008561497,ارسلان اردکانی فرد و شرکاء,خراسان رضوی,مشهد,محله آب و برق - بلوار گلشن(هفت تیر 8 - هنرستان 9) - بلوار هفت تیر- پلاک 115 - برج آرمیتاژ - طبقه منفی یک,9178773127,,379273,1400/11/01,14008561497,69291,,,
u14006191441,ارسلان نوذری نژاد و شرکاء,تهران,تهران,بلوار آفریقا - بلوار گلشهر - مرکز خرید گلشهر، پلاک 8، طبقه همکف، واحد 8,1915663441,22042346,81827,1400/11/01,14006191441,498787,حميدرضا نوزري نژاد,,
u10800112725,اسد‌پور و صادقی‌لاری,هرمزگان,بندرعباس,بلوار امام خميني، روبروي بازار روز، پاساژ احمدي، مغازه سوم سمت چپ,7914614386,7632252043,333614,1399/05/31,10800112725,8503,محمد هادي صادقي لاري,,
u10104028188,اسفندیاری ، مقدادی و شریک,تهران,تهران,خ وليعصر تقاطع طالقاني مجتمع نورتهران طبقه همکف سوم پلاک100و 101,1416794313,88226070,272514,1399/09/24,10104028188,356772,,,
u14007813720,اسماعیل ابراهیمی فرد و شرکاء,آذربایجان غربی,پیرانشهر,محله 15 خرداد، خیابان آزادی شرقی، بلوار شهید بهشتی، طبقه همکف,5781855636,,380231,1399/10/25,14007813720,860,محمد سليماني,,
u14007865188,اسماعیل صفرزاده و شرکاء,تهران,تهران,محله نادری - کوچه نوبهار - خیابان جمهوری اسلامی - پلاک 494 - پاساژ آرمان - طبقه همکف - واحد 20,1135856736,66701206,316880,1399/09/10,14007865188,532043,,,
u10220167717,اسماعیل مدرس مطلق و شرکاء,آذربایجان غربی,ارومیه,بلوار باهنر، بلوار فرهنگيانع جنب بانک رفاه کارگران، پلاک 104,5716753757,4413831812,352377,1398/12/28,10220167717,11721,عبداله مدرس مطلق,,
u14006094205,اسماعیل ناصری مجرد و شرکاء,فارس,شیراز,بلوار ستارخان-مجتمع تجاری بهاران. جنب بانک صادرات,7184737170,7136273018,460179,1400/11/01,14006094205,44750,اسماعيل ناصري مجرد,,
u14008655678,اسماعیل کوشاسی و شرکاء,تهران,تهران,تهران، بلوار میرداماد، میدان مادر، پلاک 34، طبقه اول,1546934513,2122226457,98/281573,1400/08/20,14008655678,547990,محمود كوشاسي,,
u10861882773,اسمعیل موغلی و شرکا,فارس,لارستان - لار,شهر جدید، ابتدای خیابان معلم ، نبش مجتمع تجاری تین و زیتون ، جنب بانک مسکن,7431719659,3338820-50,182389,1400/06/08,10861882773,730,,,
u10103388081,اسکندر رمضانی و شرکا,تهران,تهران,استان تهران ، شهر تهران ، خيابان فردوسي شمالی ، نبش کوشک ، پلاک 429 کد پستی : 1145615611,1145615611,2166340194,311167,1399/10/27,10103388081,302248,ناهيد قدياني,,
u14007675819,اصغر گرانمایه و شرکاء,تهران,تهران,بخش مرکزی- شهر تهران- محله زعفرانیه- خیابان شهید رضا علی حسینی- خیابان شهید اعجازی(آصف)-پلاک 39-طبقه همکف,1988893453,2188103039,148974,1400/05/01,14007675819,527740,امير موسوي زاده قلعه جوق,,
u14007750845,اصلانی وشرکاء,زنجان,زنجان,استان زنجان، بخش مرکزی، دباغها، خیابان امام موسی صدر (صدر جهان)، خیابان امام خمینی، پلاک 155، مجتمع تجاری تفریحی نور، طبقه همکف، واحد 121,4516651778,,98/410637,1399/07/17,14007750845,12165,بهزاد اصلاني,,
u10861981861,افراخته و شرکاء,سیستان و بلوچستان,منطقه آزاد چابهار,مجتمع تجاري صدف ، طبقه اول ، پلاک 563,9971766831,5435314500,208792,1400/07/03,10861981861,955,عليرضا افراخته,,
u10103312980,افشاری نیکو و شرکا,تهران,تهران,خ آفریقا ، مرکز خرید الهیه ،پلاک 77,1911794971,26213122,287125,1400/09/13,10103312980,295123,رخندبانو عليزاده قمصري,,
u10320817095,افشین بهرمند و شریک,تهران,تهران,خيابان ستارخان، فلکه دوم صادقيه، برج گلديس، واحد 55,1451796397,2144288541,24325,1399/10/27,10320817095,428853,افشين بهرمند,,
u14007688187,المیرا ضرغامی و شرکاء,تهران,تهران,تهران - ولنجک - خیابان ولنجک - خیابان چهاردهم - پلاک 7 - پاساژ توچال - طبقه 1 - واحد 22,1985739393,2122172596,333280,1399/09/21,14007688187,527980,,,
u14007790687,الناز قلی پور ورکی و شرکاء,تهران,تهران,پونک شمالی، بزرگراه شهید آیت اله اشرفی اصفهانی، میدان پونک، پلاک صفر، مجتمع تجاری بوستان، پلاک ثبتی492 آبیA298، طبقه اول،‌ واحد 492,1476896549,2144493588,299682,1399/08/27,14007790687,530330,الناز قلي پوروركي,,
u14008068259,الهه جدیدی و شرکاء,کرمان,انار,استان کرمان ،شهرستان انار ،بخش انار، محله بالا ،خیابان امام خمینی، کوچه بوستان 18 ،پلاک صفر، طبقه همکف,7741914715,3434189001,147904,1400/05/02,14008068259,229,الهه جديدي داودآبادي,,
u14005586889,الهی و شرکاء,تهران,تهران,استان تهران ، شهر تهران ، زعفرانيه - خيابان مقدس اردبيلي - ميدان الف - مجتمع تجاري پالاديوم - پلاک 130,1986765748,22661250,215747,1399/06/20,14005586889,486563,عرفان الهي,,
u10380385857,الیاسی وشرکاء,خراسان رضوی,مشهد,بلوار سجاد، جنب بانک ملی ایران، نبش شمالی ساختمان البرز,9187816763,5137653919,24006,1401/02/02,10380385857,23120,احمدرضا الياسي,,
u14008438212,امان گل آزمون و شرکاء,گلستان,گنبدکاووس,میدان انقلاب، خیابان حافظ شمالی، خیابان مطهری، پلاک 397، پاساژ نادر آخوندزاده و شرکاء 33، طبقه همکف 09111794002,4971717514,1733227521,98/222364,1400/07/01,14008438212,7253,امان گل آزمون,,
u10860994903,امجدی و شرکا,قم,قم,خيابان ارم ، روبروي حرم ، روبروي در اتابکي، پلاک 276,3715796167,2537833148,374667,1400/11/23,10860994903,4701,ياسر امجدي,,
u14003280465,امراله شهابی و شرکا,بوشهر,بوشهر,خ حافظ- ميدان انقلاب- روبروي بانک تجارت- پلاک 73,7561736317,-7734652,153309,1401/05/19,14003280465,2046,امرالله شهابي,,
u14005919393,امید سعیدزمان و شرکاء,تهران,تهران,تهران - خیابان جمهوری اسلامی- نرسیده به چهارراه استانبول- پاساژ گلشن- پلاک 3,1135936918,2166769020,224488,1399/07/01,14005919393,493455,حمید دوستی,,
u10320848241,امید شاهواری و شرکا,تهران,تهران,خيابان ولی عصر(عج)روبروی دو راهی یوسف آباد پلاک1935,1595633145,2188890102,66958,1401/03/06,10320848241,434565,اميد شاهواري,,
u14008581895,امید فرجی و شرکا,آذربایجان غربی,ارومیه,خیابان امام نرسیده به میدان ولایت فقیه پلاک 24.2,5713653976,4432771251,276385,1400/08/01,14008581895,18122,اميد فرجي,,
u14006565340,امیدرحیمی مجذوب و شریک,تهران,تهران,تهران، ميدان فردوسي، خيابان پارس، خيابان انقلاب اسلامي، پلاک 802، طبقه همکف,1131963418,2166758255,99808,1400/11/01,14006565340,505575,اميد رحيمي مجذوب,,
u14007360352,امیر اکبریان‌ ملک کلائی و شرکاء,خراسان رضوی,مشهد,مشهد، خیابان امام خمینی، امام خمینی32، پلاک530، طبقه همکف,9136877689,5138119000,37005,1399/02/10,14007360352,63623,امير اكبريان ملك كلائي,,
u14005587136,امیر خادمان و شرکا,تهران,تهران,خيابان وليعصر-تقاطع طالقاني-مجتمع تجاري اداري نور تهران-طبقه همکف سوم-واحد 8083,1416794446,88227500,214387,1402/06/22,14005587136,486570,سپيده رفيعيان,,
u14007338380,امیر محمد بهرمند و شرکا,تهران,تهران,شهرک قدس خیابان سیمای ایران خیایبان شهید فرحزادی پلاک 0 مجتمع پارک خرید قدس (لیدوما) مرکز خرید قدس طبقه همکف واحد 4,1467686904,2186090710,405733,1398/12/14,14007338380,521351,آتوسا يعقوب آذري,,
u10320133763,امیر نجومی و فرزاد کشاورز,تهران,تهران,شهرک غرب - فاز یک- خیابان ایران زمین -مجتمع تجاری گلستان -طبقه همکف -واحد 163- کد پستی 1465813188,1465813188,2189280000,94/325404,1399/11/08,10320133763,360408,امير نجومي,,
u10320342512,امیر کیان پیشه و شرکاء,تهران,تهران,خیابان ولیعصر ،روبروی پارک ساعی، جنب پمپ بنزین ،ساختمان سپهر، پلاک 7، همکف,1433894134,,236930,1400/07/27,10320342512,385099,امير كيان پيشه,,
u14008548874,امیر یحیی جان نثاری و شرکا,تهران,تهران,استان تهران ، شهر تهران، محله ميدان فردوسي ، خيابان شهيد سروش الدين تقوي ، خيابان فردوسي ، پلاك 479 ، ساختمان مركز تجارت جهاني فردوسي ، طبقه همكف ، واحد 32,1145683699,,224569,1400/07/01,14008548874,545788,اميريحيي جان نثاري,,
u10320249088,امیرجمالی شاه بلاغی و شرکاء,تهران,تهران,بلوار میرداماد، تقاطع آفریقا، زیر پل میرداماد، ضلع شمالغربی، پلاک299، واحد2، کد پستی 1969633754,1969633754,2188202122,313827,1400/09/10,10320249088,376323,امير جمالي شاه بلاغي,,
u14008099726,امیرحسین توکل و شرکاء,مازندران,آمل,شهر آمل، محله اسپه کلا، بلوار آیت اله طالقانی، پلاک 96، طبقه همکف,4615739757,1144222227,140035,1400/04/29,14008099726,7777,اميرحسين توكل,,
u14005664622,امیرعلی بهبهانی و شرکاء,تهران,شمیرانات - تجریش,تهران - فرمانيه شرقي - مرکز خريد بام سنتر - پلاک 9 - واحد 9,1954664698,26148441,58190,1400/11/01,14005664622,488285,اميرعلي بهبهاني,,
u14006612210,امیرعلی خلیل آبادی و شرکاء,تهران,تهران,خیابان فردوسی، بالاتر از چهارراه کوشک، نبش کوچه تمدن، مجتمع تمدن، طبقه منفي يک، پلاک 2,1131944516,2166744689,158498,1399/05/10,14006612210,506586,سيدشهاب صفوي,,
u10320275356,امین اسدبیگی و شرکاء,تهران,تهران,اختیاریه، خیابان بهارستان دوم، خیابان پاسداران، پلاک 498 طبقه همکف,1958633515,,228200,1400/05/23,10320275356,377465,امين اسدبيگي,,
u14000274950,امین پاریا وشرکا,البرز,کرج,45متري گلشهر ، خيابان انوشيروان، پلاک13,3137633336,2633522967,63037,1401/03/02,14000274950,16747,زهرا ابدالي,,
u14007380030,امین تمجیدی و شرکاء,تهران,تهران,شهرک قدس- خیابان شهید حسن سیف - خیابان شهید محمد مهدی فرحزادی - پلاک 3 - مجتمع کامپیوتر شهرک غرب - طبقه همکف - واحد 20,1466813939,2188374060,46204,1399/02/18,14007380030,522158,,,
u10103930913,انور‌الدین شهیدی وشرکا,تهران,تهران,تهران - میدان فردوسی- ضلع جنوب غربی - پلاک25,113196378,66725900-66730106,284215,1400/09/07,10103930913,342505,انورالدين شهيدي,,
u10500078640,انورالسادات شهنوازی تاج و شرکا,سیستان و بلوچستان,زاهدان,جهارراه رسولي، پاساژ ايران، طبقه همکف ، پلاک 4830,9815845596,3224724-3224725,412910,1400/12/22,10500078640,4445,انورالسادات شهنوازي تاج,,
u14007121960,اکبر ارشدی و شرکاء,تهران,تهران,تهران، انقلاب اسلامی، خیابان انقلاب اسلامی، خیابان شهید استاد نجات الهی.پلاک43، طبقه همکف,1599915313,,402632,1400/10/20,14007121960,516752,اكبر ارشدي,,
u10860470664,اکبری و زمانی,آذربایجان شرقی,جلفا,آذربایجان شرقی، منطقه آزاد ارس، فلکه عاشورا، خیابان امام صادق، خیابان مطهری، طبقه همکف و کدپستی 5441647919,5441647919,,228210,1401/03/24,10860470664,235,نصرت اكبري,,
u14007309830,ایرج ابراهیمی و شرکاء,آذربایجان غربی,ارومیه,شیره پز خانه،‌ خیابان مطهری، کوچه افشاریان، پلاک 28، طبقه همکف,5718695451,,27862,1399/02/03,14007309830,17157,پرويز ابراهيمي,,
u14007517990,ایرج جعفری آزادو شرکاء,آذربایجان شرقی,تبریز,بازار کوچه بازار کفاشان خیابان شهید مدنی اول پلاک سیزده پاساژ امیرنو طبقه همکف,5134833738,4135237737,116584,1399/04/11,14007517990,46471,ايرج جعفري آزاد,,
u10860120639,ایزدی پور و شرکاء,هرمزگان,بندرجاسک,خیابان امام، میدان شهیدمصطفی خمینی، نرسیده به بانک صادرات، پلاک25,7979136195,9171654033,269934,1400/08/24,10860120639,93,ميرميلاد ايزدي پور,,
u14006123480,ایمان ادراکی و شرکاء,اصفهان,اصفهان,خیابان حکیم نظامی، نرسیده به خیابان خاقانی، پلاک 301,8175797363,3136250550,415833,1400/11/01,14006123480,56859,ايمان ادراكي,,
u14005798246,ایوب سلام زاده سلماسی و شرکاء,تهران,تهران,تهران، فلکه اول صادقيه، خيابان ستارخان، روبروي بانک سامان، پلاک 703,1451663483,88933148,236164,1402/07/09,14005798246,490940,ايوب سلام زاده سلماسي,,
u14006083062,بابک اردوخانی و شرکاء,تهران,تهران,میدان فردوسی ، ابتدای خیابان سپهبد قرنی ، بازار فرش عباسی ، پلاک 13,1581613178,,76170,1399/03/08,14006083062,496715,بابك اردوخاني,,
u14006006282,بابک بختیاری فرد و شرکاء,تهران,تهران,تهران،ميدان شوش، خيابان صابونيان، پاساژ شهرداري، طبقه مثبت يک، پلاک 9,1186678765,2155188672,149060,1403/05/05,14006006282,495262,عزيزاله ميرزائي كلي,,
u14008268441,بابک جهان آرا و شرکاء,تهران,تهران,استان تهران - شهر تهران - شهرک قدس -درختی - خیابان گلبرگ دوم غربی - خیابان بهارستان - پلاک 11 - طبقه همکف,1468833115,,213173,1400/06/01,14008268441,539908,بابك جهان آرا,,
u14005446865,بابک راکعی و شرکاء,آذربایجان شرقی,بناب,شهر بناب، باهنر، كوچه الهيه1 ، خيابان باهنر ، پاساژ الغدير ، طبقه زير زمين,5551931994,4137722918,332878,1402/09/21,14005446865,1567,بابك راكعي,,
u10320542251,بابک رحیمیان و شرکا,تهران,تهران,خيابان وزرا (خالد اسلامبولي)، نبش کوچه يکم، برج تجاري ستاره، پلاک 9، واحد 18,1513633337,,221504,1400/07/13,10320542251,402887,بابك رحيميان,,
u14005508409,باقی گوهری و شرکا,کردستان,بانه,بلوار شهداء، پاساژ اعتماد، طبقه همکف، پلاک 35-34,1400550840,8734236563,27839,1402/02/03,14005508409,744,,,
u14005925979,باقی مجیدی و شرکاء,کردستان,بانه,بانه، بلوار آزادی، جنب بانک کشاورزی,6691917583,8734224666,241265,1402/07/12,14005925979,760,حميد شباني,,
u10861504309,بختیاران و شرکاء,هرمزگان,قشم,مجتمع تجاري پرديس ، طبقه همکف ، واحد 6,7951633379,,70484,1400/03/05,10861504309,888,,,
u14000204939,برادران چراغی وشرکا,گلستان,گنبدکاووس,استان گلستان، گنبد کاووس، میدان انقلاب، خیابان طالقانی شرقی، پلاک1229، طبقه همکف,4971714111,2229733,211387,1401/07/06,14000204939,3221,محمدعلي چراغي,,
u10980265916,برادران حسنوی و شرکا,آذربایجان غربی,پیرانشهر,بازارچه مرزي تمرچين ، غرفه شماره 17,1111111111,4226530,315427,1400/10/06,10980265916,450,,,
u10104035137,برادران رحیمی ندوشن وشرکا,تهران,تهران,تهران ، محله داوودیه ، میدان مادر، بلوارمیرداماد ، پلاک 50 ، مجتمع تجاری مریم ، طبقه همکف ، واحد 10،,1546933955,2126405667,352170,1400/10/10,10104035137,358246,ليلا قاسمي,,
u14007575962,بهبود بختیاری و شرکاء,گیلان,رشت,گلسار - بلوار دیلمان - بلوار گلسار - ساختمان ره پیک - طبقه همکف,4165813748,1333761381,220393,1399/06/27,14007575962,21132,سيدمظفر ميربرگ كار,,
u14006202997,بهراد سیدزارع و شرکاء,تهران,شمیرانات - تجریش,تهران، لواسان، بلوار امام خمینی(ره)، مجتمع تجاری اسکای سنتر، جنب دادگستری، طبقه اول، واحد14,3341683115,2126570532,135351,1399/09/01,14006202997,499056,بهراد سيدزارع,,
u10103551426,بهرام محسنی و شرکا,تهران,تهران,خيابان جمهوري اسلامي ، بعد از چهارراه جمالزاده ، پلاک 1193,1313817511,66907002-6,325037,1400/10/13,10103551426,315422,اشكان محسني,,
u10320315486,بهروز قهرمانی و شرکاء,تهران,تهران,امانیه، خیابان خرسند، خیابان ولیعصر، پلاک 2755، مجتمع اداری گلستان، ورودی A، طبقه اول، واحد 1,1966713114,26211687-8,4748,1399/01/17,10320315486,380463,هادي قهرماني,,
u10680049837,بهروزشفیعی و شرکا,اصفهان,اصفهان,خ توحيد مياني ،نبش کوچه بهار,8173843451,3136271010,307351,1402/09/03,10680049837,41277,,,
u14007480835,بهزاد خانی و شرکاء,تهران,تهران,تهران، میدان فردوسی، کوچه تمدن، خیابان فردوسی، مجتمع تجاری و اداری تمدن، طبقه زیرزمین، واحد16,1131944511,,425709,1398/12/27,14007480835,524279,بهزاد خاني,,
u14005466163,بهزاد درخشان و شرکاء,تهران,شهریار,ابتداي خيابان ولي عصر،پاساژ زرين،طبقه زرين،پلاک 7,3351611156,2165265090,81916,1402/03/12,14005466163,5184,بهزاد درخشان,,
u10103688549,بهزاد زرین قلم و شرکا,تهران,تهران,ضلع شمال شرقي ميدان کاج ، پاساژ ابريشم طبقه همکف پلاک26,1998614148,22365836,233381,1400/07/25,10103688549,329148,بهزاد زرين قلم,,
u14006422129,بهمن رستمی نیری و شرکا,تهران,تهران,بازار بزرگ عباس آباد، کوچه حمام چال، پاساژ ملت، پلاک 79، طبقه اول,1163786345,2155891005,76160,1400/11/01,14006422129,502563,بهمن رستمي نيري,,
u10861346670,بهمن سیدعلیزاده و شرکاء(منطقه آزاد ارس),آذربایجان شرقی,جلفا,بخش مرکزی، شهر جلفا، امام خمینی، کوچه بازار مشترک، خیابان ولایت فقیه، پاساژ امیر، طبقه همکف,5441651451,,66969,1401/03/06,10861346670,268,بهمن سيدعلي زاده,,
u14005724084,بهمن مهین عبداله زاده و شرکا,تهران,تهران,خيابان ولي‌عصر(عج)، بالاتر از میدان ونک، خیابان دفينه، خیابان شهید علیرضا دامن افشار، پلاک 49، مجتمع اداری آبشار، طبقه اول، واحد 1,1969765153,57934,224260,1402/07/01,14005724084,489321,بهمن مهين عبداله زاده,,
u10861949730,بهمن نوبخت وشركاء منطقه آزادچابهار,سیستان و بلوچستان,منطقه آزاد چابهار,مجتمع تجاري پرديس ، طبقه همکف ، واحد 81,9971765734,55598101-55598116,374616,1400/11/23,10861949730,1469,صفر محمدي,,
u14007996043,بهنام صفروند و شرکاء,تهران,تهران,خيابان خالد اسلامبولي، پلاک 139، طبقه اول، واحد 1,1513933314,2188708577,375923,1399/10/22,14007996043,534903,,,
u10420231091,بیانی و شرکا,خوزستان,آبادان,استان خوزستان - شهرستان آبادان - بخش مركزي - شهر آبادان-اميري-خيابان فرعي 5-خيابان امام خميني-پلاك 287-طبقه اول,6316833473,6153222478,119335,1400/04/19,10420231091,3351,عبدالحسين بياني,,
u10720234671,بیت لفطه و شرکاء,تهران,تهران,خيابان پاسداران، ابتداي خيابان دولت، بعد از بانک ملي، پاساژ تجاری پرمهر، طبقه همکف، واحد35,1945883711,22553401-4,402172,1400/12/14,10720234671,394073,,,
u10420230924,بیرقی وشرکا,خوزستان,آبادان,خيابان شهرداري ، پلاک 197,6316856891,6153223080,341961,1399/11/21,10420230924,3334,,,
u10610077249,بینا و شرکاء,کردستان,سنندج,خيابان امام خميني (ره) ، پاساژ سنه ، پلاک 7,6614613696,8733164525,327674,1400/10/15,10610077249,4073,,,
u14006281118,پدرام پیروزان و شرکا,تهران,دماوند,شهرستان دماوند-خیابن فرهنگ-روبری سنگ پل-,3971848735,76329301-5,23366,1400/11/01,14006281118,1535,پدرام پيروزان,,
u10860407980,پرگر و شرکا,هرمزگان,بستک,خيابان قدس، روبري مسجد ابوالفتح خان,7961955957,7643221818,199352,1400/06/23,10860407980,190,,,
u10103482560,پرنظر و شرکاء,تهران,تهران,ميدان فردوسي، ضلع جنوب شرقي ميدان، پلاک 790 قدیم 2 جدید,1145693136,66748936-7,387888,1400/05/24,10103482560,311844,محسن پرنظر,,
u14006249934,پروانه آرمات و شرکا,تهران,تهران,تهران- بلوار میرداماد، جنب مسجدالغدیر، پلاک 139، مرکز تجاری پاسارگاد، طبقه همکف، ضلع شرقی ورودی، پلاک12,1911618854,26645001,192725,1400/06/01,14006249934,500014,رضا هرمزي,,
u10980165850,پرویز کاری و شرکا,اردبیل,بیله سوار,اردبيل، بيله سوار، شهید عباسقلی نژاد، خیابان گمرک، کوچه بازارچه مرزی، طبقه همکف,5671977111,4528223365,393155,1402/11/04,10980165850,460,پرويز كاري باباشكند,,
u10530501228,پریسا سادون و شرکا,فارس,شیراز,عفيف آباد، مجتمع تجاري حافظ، پلاک 27,7183753881,36483030,137487,1401/05/07,10530501228,37647,,,
u14007492700,پریشان مصرکانلو و شرکاء,تهران,تهران,میرداماد، میدان نجم آبادی، خیابان شمس تبریزی شمالی، پلاک 14، طبقه اول، واحد یک,1919644156,2122261992,55424,1399/02/24,14007492700,524517,مهرداد شيخكانلوي ميلان,,
u10200265073,پورافشاری و شرکا,آذربایجان شرقی,تبریز,خيابان شهيدمدني ، پاساژ اميرنو ، پلاک 9,5134833676,4115259985,182400,1400/06/08,10200265073,20941,مهدي پورافشاري خواجه,,
u10860160485,پورحاجی حداد وشرکا,یزد,یزد,خيابان آيت اله کاشاني ، مقابل آتشکده ، پلاک11,8916786831,3516287100,122373,1401/04/25,10860160485,7269,کمال پور حاجي حداد,,
u10103107102,پورزرندی وشرکا,تهران,تهران,خيابان کارگر شمالي، نرسيده به پمب بنزين، جنب داروخانه معاصر، پلاک 1659,1414643116,88968433,233383,1400/07/25,10103107102,265414,حامد محمدپورزرندي,,
u14007928613,پوریا کریمی و شرکاء,تهران,تهران,میرداماد، خیابان کجور، بلوار میرداماد، پلاک 237، ساختمان سبز، طبقه سوم، واحد شماره پانزده,1918955171,2122900029,305737,1399/09/01,14007928613,533474,محمود ابراهيمي تودرواري,,
u14007106153,پویانجفی نژاد ناصر وشرکا,تهران,تهران,تهران - چهار راه استامبول - خیابان فردوسی - خیابان جمهوری اسلامی - پلاک 412 - ساختمان گالری گلشن - طبقه همکف,1135937345,,13451,1399/01/22,14007106153,516364,عليرضا نجفي نژادناصر,,
u10104044962,پیام سلیمانی و شریک,تهران,تهران,استان تهران - شهر تهران - محله یوسف آباد - کوچه پله سوم - خیابان ولیعصر - پلاک 2224- برج سرو ساعی - طبقه همکف - واحد 9 - کدپستی :1433894546 کدپستی:1433884573,1433894546,,229197,1400/06/08,10104044962,360040,پيام سليماني قلعه,,
u10980229113,پیش بین و شرکا,آذربایجان غربی,نقده,آذربایجان غربی، نقده، اسماعیل آباد، کوچه شهید کریم بایستی، خیابان رسالت، پلاک 1، طبقه همکف,5761964665,4435624247,407558,1399/12/01,10980229113,1003,فتاح پيش بين,,
u14008771344,تاج الدین ارم و شرکاء,تهران,تهران,تهران محله جهاد، میدان جهاد، بزرگراه شهید گمنام، پلاک 20، مجتمع تجاری پرنیان طبقه زیرزمین، واحد شماره 17 13209987,1431654633,,98/379340,1400/10/20,14008771344,550282,تاج الدين ارم,,
u10103925626,تحیری و شرکا,تهران,تهران,خيابان وليعصر، بلوار ميرداماد، جنب موزه دفينه، نبش بازار بزرگ ميرداماد، پلاک 2,1969773511,42928,1,1398/12/17,10103925626,341695,احسان تحيري,,
u14008794137,تضامنی حمیدرضا فراهانی و شرکا,تهران,تهران,تهران، محله قیطریه، کوچه تابان، بلوار شهید سیدعلی اندرزگو، پلاک 71 ، طبقه همکف,1938735415,2122200856,365738,1400/10/10,14008794137,550714,ناصر كسرايي,,
u10720132580,تیموریان و شرکا,گیلان,آستارا,خيابان امام‌خميني ، روبروي بانک صادرات مرکزي,4391847746,1344810831,87413,1401/03/24,10720132580,1290,محمدعلي تيموريان,,
u10980137859,ثروت‌خواه و شرکاء,آذربایجان غربی,خوی,قنادی بازار، پایین تر از بانک ملی بازار,5813868472,,374878,1400/11/23,10980137859,1503,هادي ثروت خواه,,
u10760361927,جاهد و شرکا,مازندران,ساری,بلوار طالقاني-خيابان شهابي-نبش اولين کوچه سمت راست,4818749416,1133110944,325388,1399/11/08,10760361927,8799,فهيمه بابازاده,,
u10630141956,جاودانی و شرکا,کرمان,کرمان,خيابان کاظمي ، خيابان قدس ، خيابان اصلي، روبروي بانک ملي شعبه قدس,5839481319,3432235961,9511,1402/01/20,10630141956,8255,ناهيد جاوداني,,
u14007000147,جاوید طاهری و شرکاء,تهران,تهران,تهران بازار عباس آباد کوچه شهید مهدوی ، ساختمان کویتیهای 3، طبقه اول پلاک 14,1164665355,2155893531,98/346752,1399/11/01,14007000147,513832,محمدمهدي نوائي لواساني,,
u10861590986,جعفر زرگریان لار وشرکا,فارس,لارستان - لار,گراش، خ امام خميني نرسيده به حسينيه اعظم ، جنب پاساژ حسين بن علي ، پلاک 1,7441953735,7152450566,127021,1400/04/24,10861590986,947,جعفر زرگريان لار,,
u10861953418,جعفر صادق یاسنی و شرکاء,آذربایجان شرقی,منطقه آزاد ارس,فلکه عاشورا ، خيابان ولايت فقيه پاساژ صبا پلاک 9,5441656498,4142023931,97934,1401/04/03,10861953418,361,جعفرصادق ياسني,,
u14005772159,جعفر کاکی و شرکاء,ایلام,مهران,شهرستان مهران، بازارچه مرزی مهران، غرفه 38,6997197577,8433826305,228751,1402/07/04,14005772159,670,وحيد الماسي زاده,,
u10200259224,جعفری آزاد وشرکا,آذربایجان شرقی,تبریز,خيابان دارائي ، پاساژ امير نو، پلاک 4,5134833686,5238495,169479,1400/06/30,10200259224,20348,,,
u10380510834,جلائیان سامانی و شرکا,خراسان رضوی,مشهد,امام خميني ، بين امام خميني 24و26 پلاک 482,9137843444,5138545000,102824,1399/03/03,10380510834,35626,خليل جلائيان ساماني,,
u14005700803,جلال رحیمی تبار و شرکا,تهران,تهران,خیابان ولی عصر، نبش میرداماد، مجتمع اسکان، طبقه همکف، واحد 7,1969613318,88654949,167794,1399/09/01,14005700803,488988,جلال رحيمي تبار,,
u14008155792,جلال شمشیری و شرکاء,همدان,همدان,استان همدان - شهرهمدان - میدان امامزاده عبداله - بلوار علویان میدان امامزاده عبداله - پلاک 0 - مجتمع بانک رهنی - بلوک 8 شرقی - طبقه همکف,6518664535,,98/384575,1400/11/01,14008155792,13618,جلال شمشيري,,
u10500061882,جلال شهنوازی تاج وشرکا,سیستان و بلوچستان,زاهدان,خيابان آزادي، جنب بانک ملي مرکزي، روبروي شهرداري، پاساژ براسان، پلاک 89,9813687889,5413214513,32007,1401/02/09,10500061882,2752,جلال شهنوازي تاج,,
u14003407886,جلال قدرت سردره و شرکا,آذربایجان غربی,اشنویه,استان آذربایجان غربی، شهرستان اشنویه، خیابان امام(ره)، جنب بانک کشاورزي شعبه اشنويه,5771816956,,315754,1400/10/06,14003407886,385,جلال قدرت سردره,,
u10380486552,جلال‌نژاد و شرکا,خراسان رضوی,مشهد,زيبا شهر، بلوار معلم، بین معلم 3 و چهار راه آزادشهر، پلاک177,9188615555,5136043771,81735,1402/03/12,10380486552,33498,محسن جلال نژادخراساني,,
u14007335562,جلیس نیک بخت و شرکاء,تهران,تهران,تهران -میدان فردوسی - خیابان شهید سروش الدین تقوی - خیابان فردوسی - پلاک 479 - ساختمان مرکز تجارت جهانی فردوسی - طبقه همکف - واحد 49 - کدپستی : 1145683781,1145683781,2188793205,145570,1399/05/02,14007335562,521263,جليس نيك بخت,,
u14008496197,جلیل دهداری و شرکاء,فارس,شیراز,شهر شیراز، محله زند، خیابان اهلی، خیابان انوری، طبقه همکف,7135943687,,98/227360,1400/07/01,14008496197,50830,طاهره غلامي,,
u14007469380,جلیل فایض پورو شرکاء,آذربایجان شرقی,تبریز,تبریز، ولیعصر، کوچه 6 متری تعاون، خیابان رازی، پلاک 35، طبقه چهارم، واحد A، کدپستی 5157678780,5157678780,4133272348,104904,1399/04/03,14007469380,46384,كريم فايض پور,,
u10530486660,جلیل میرزائی و شرکاء,فارس,شیراز,بلوار معالي آباد- بعد از آفتاب فارس - جنب بانک مسکن,7187778144,7116249967,245992,1400/08/12,10530486660,36318,جليل (متوفی) ميرزائي (متوفی : 13980517),,
u14006727405,جمال ذوقی و شرکاء,تهران,تهران,فاطمي - خيابان باباطاهر - خيابان دکتر سيد حسين فاطمي - پلاک 281 - ساختمان مرکز خريد لاله - طبقه همکف,1414618568,88962520,197856,1400/06/01,14006727405,508782,جمال ذوقي,,
u10860183829,جنتی و شرکاء,مازندران,تنکابن,ميدان شهید شيرودي، ابتداي خیابان شيخ فضل‌اله‌ نوري، روبروي کلانتري 11 ، پلاک173,4681987549,,342959,1400/10/28,10860183829,2090,نرگس كرمصلحي,,
u14003161344,جهانگیر تیموری و شرکا,کرمانشاه,قصرشیرین,بازارچه مرزي پرويزخان،,6787146711,,30956,1401/02/09,14003161344,641,,,
u10260467559,جهانمرد وشرکا,اصفهان,اصفهان,خيابان حکيم نظامي ، چهارراه حکيم نظامي ، بطرف پل فلزي پلاک 243,8173613141,6200160,55049,1400/08/12,10260467559,26005,منيژه پرهيزي,,
u14007784589,جواد پوردارا و شرکاء,تهران,تهران,تهران - میرداماد - خیابان نساء - بلوار میرداماد - پلاک 139 - مجتمع پاسارگاد - طبقه همکف - واحد 6,1911618858,2122900690,241268,1399/07/12,14007784589,530194,كوثر بيات,,
u10760217372,جوادی و شرکا,مازندران,نوشهر,استان مازندران ، شهرستان نوشهر ، بخش مركزي ، شهر نوشهر، فردوسي ، خيابان بوعلي سينا ، خيابان سعدي ، پلاك 0 ، طبقه همكف,4651886383,,420425,1400/12/26,10760217372,1787,آناهیتا جوادی,,
u10240081990,جوادی و شرکا,اردبیل,اردبیل,خيابان شيخ صفي ، روبروي هتل سبلان ، جنب بقعه شيخ صفي,5614613611,4533234090,342943,1400/10/28,10240081990,5208,ناصر جوادي,,
u10103666208,حاتمی و شرکا,تهران,تهران,بين فلکه اول و دوم صادقيه ، جنب مسجد امام جعفر صادق، پلاک 1182,1451793451,214875,24534,1400/01/31,10103666208,328527,فرشاد حاتمي,,
u10103305103,حاجی ابول لو وشرکا,تهران,تهران,خيابان ولیعصر ابتدای توانیر پلاک 2490,1434864683,218501,157578,1399/06/16,10103305103,294037,حميدرضا حاجي ابول لو,,
u14006448503,حامد آخوندی و شرکاء,یزد,یزد,بلوار باهنر، روبروي خيابان آذر يزدي، جنب شرکت سپنتا,8916669382,3537282320,84015,1400/11/01,14006448503,16636,حامد آخوندي,,
u14007147017,حامد ادیب و شرکاء,زنجان,زنجان,محله بازار بالا، کوچه شهیدان حبیبی، خیابان امام خمینی،‌ پلاک 72، پاساژ آیینه، طبقه همکف,4517643537,2433334997,93098,1399/03/23,14007147017,11846,حامد اديب,,
u14007288713,حامد بردول وشرکاء,فارس,شیراز,استان فارس - شهر شیراز - ارگ کریمخانی - بلوار کریمخان زند - خیابان سعدی - پاساژ ایران ماشین - طبقه همکف,7136636779,7132237248,57027,1399/02/25,14007288713,47737,حميد بردول,,
u14006326831,حامد ضرابی و شرکاء,تهران,تهران,تهران، شهرآرا، کوچه مکتب الصادق، خیابان ستارخان، پلاک325، طبقه همکف,1443773456,2154413000,36964,1400/11/01,14006326831,501240,محسن كريمي,,
u14007173074,حجة الله شیخ الاسلامی و شرکا (صرافی عطا),تهران,تهران,تهران، بلوار میرداماد، مجتمع تجاری رز میرداماد، طبقه همکف، واحد18,1919993483,2122924231,421471,1399/12/10,14007173074,517809,حجةالله شيخ الاسلامي,,
u14006026930,حجت سلیمانی و شرکا,خراسان رضوی,مشهد,مشهد ، بلوار سجاد ، خیابان بزرگمهر جنوبی ، بزرگمهر جنوبی 22 ، پلاک 5,9186993665,5137039,447430,1400/11/01,14006026930,58901,حجت سليماني,,
u14006800839,حسام الدین حسینی و شرکا,فارس,شیراز,شیراز- چهار راه زند- ابتدای خ سعدی- روبروی خ حافظ- پ10,7135817498,7132242180,189355,1399/09/01,14006800839,46499,سيدعبدالرئوف حسيني,,
u14008519546,حسن اخوان و شرکاء,سمنان,گرمسار,خیابان شهید محمد منتظری، میدان شهداء، پلاک صفر، ساختمان ابریشم، طبقه همکف، واحد 14,3581751334,2334243517,319995,1400/09/10,14008519546,3153,حسن اخوان,,
u10260455816,حسن باطنی وشرکا,اصفهان,اصفهان,خيابان استانداري ، چهارراه سعدي، پلاک 239,8146813538,3132223616,19979,1402/01/28,10260455816,24798,حسن باطني,,
u10320357448,حسن باقرزاده و شرکا,تهران,تهران,خيابان آذربايجان، تقاطع رودکي، پلاک 695,1345736819,2166121017,104521,1401/04/11,10320357448,386098,ياشار باقرزاده تبريزي,,
u10320277985,حسن سکان و شرکاء,تهران,تهران,خيابان جمهوري ، پاساژ پروانه ، پلاک215,1144644634,2133917091,372118,1399/12/15,10320277985,378143,حسن سکان,,
u14005623452,حسن شکرچیان و شرکا,تهران,تهران,بازار بزرگ تهران ، سبزه میدان ، بازار طلا ، زیرزمین ، پلاک 106/3,1161783358,2155598115,98/10134,1400/11/01,14005623452,487375,فريدون اخلاقي فرد,,
u14005614030,حسن نام آور و شرکاء,تهران,تهران,تهران، منطقه 19، شهرستان شمیرانات، شهر تجریش، محله پسیان، خیابان شهید اعجازی (آصف)، خیابان شهید سرلشگر فلاحی، پلاک12.2، طبقه همکف,1987974506,2166722300,207964,1402/06/18,14005614030,487197,حسن نام آور,,
u14007605860,حسن کیهان شکوه و شرکاء,همدان,همدان,بوعلی، خیابان طالقانی، خیابان بوعلی، پلاک 536 طبقه همکف,6515693318,8138254557,220203,1399/06/27,14007605860,13346,حسن كيهان شكوه,,
u14006077587,حسین پناهیده و شرکا,اصفهان,کاشان,آران و بيدگل-ميدان امام حسن (ع)-جنب بانک تجارت,8741158686,3154736670,142942,1399/09/01,14006077587,1503,صفا بخارائي,,
u14007865325,حسین حاجی حسینلو و شرکاء,تهران,تهران,محله ایرانشهر - خیابان انقلاب اسلامی - خیابان ایرانشهر - خیابان ایرانشهر - پلاک 59 - طبقه اول - واحد2,1581634413,2188540772,316787,1399/09/10,14007865325,532045,,,
u14006083102,حسین رحمانی و شرکاء,تهران,تهران,ميدان بهارستان، خيابان مصطفي خميني ، خيابان اميرکبير شرقي،بين سه راه امين حضور و چهارراه سرچشمه، پاساژ خليج فارس، طبقه 1‏-، واحد 146,1118656515,33546124,51010,1400/11/01,14006083102,496717,حسین رحمانی,,
u14006727779,حسین شریف نیا و علیرضا پورشیرازی و شرکا,خراسان رضوی,مشهد,مشهد، ده دی، بلوار امام خمینی 24 (آخوند خراسانی 9)، خیابان امام خمینی ، پلاک 438، طبقه همکف.,9136963178,,323976,1399/11/01,14006727779,61298,عليرضا پورشيرازي,,
u14006864426,حسین صدیق افشار و شرکا,تهران,تهران,تهران، حسین‌آباد، میدان دوم حسین‌آباد، خیابان شهید مصطفی‌وفامنش، پلاک53، طبقه6، واحد 23,1668838806,22316394,273174,1399/10/01,14006864426,511430,زيبا آلهويردي زاده قره درق,,
u10103660504,حسین فرخ نیا و شرکا,تهران,تهران,خيابان نوفل لوشاتو ، خيابان رازي ، پلاک 20,1133637517,2166404774,248509,1400/08/08,10103660504,327627,حسين فرخ نيا,,
u10320312601,حسین محرمی و شرکاء,تهران,تهران,یوسف آباد ،بعد از چهار راه فتحی شقاقی ،پلاک33، کد پستی 1433633781,1433633781,2188552477,139120,1399/05/31,10320312601,382900,حميدرضا نيك نهاد,,
u14006192685,حسین محمدیان مقدم,اصفهان,کاشان,خيابان ميرعماد، نبش پاساژعطايي، پلاک 58,8713786988,3155447144,269697,1399/10/01,14006192685,6077,حسين محمديان مقدم,,
u14007825973,حسین مهدی و شرکاء,تهران,تهران,تهران، شهر تهران، محله ونک،‌خیابان دفینه، بلوار میرداماد،‌پلاک 452، ساختمان بازار بزرگ میرداماد، طبقه همکف، واحد 32,1969773189,2188874179,252548,1399/07/21,14007825973,531164,محمدعلي غفوري وايقان,,
u14007179371,حسین موسوی دزفولی و شرکاء قشم,هرمزگان,منطقه آزاد قشم,بلوار جزایر ناز، مجتمع تجاری سیتی سنتر2، پلاک1852، طبقه اول,7951119991,7635211571,98/407105,1399/12/01,14007179371,6054,,,
u14005721233,حسین کمالی و شرکاء,خراسان رضوی,مشهد,شهر مشهد، ده دي ، ميدان ده دي ، خيابان امام خميني ، پلاك 604 ، طبقه همكف,9136853111,,88732,1399/01/26,14005721233,57721,حسين كمالي,,
u10102765854,حسینی و شرکا,تهران,تهران,بلوار ميرداماد ، ميدان محسني ، مجتمع تجاري میرداماد، واحد3,1913683114,2122266366,383316,1399/03/05,10102765854,235648,,,
u10380066771,حسینی و شرکاء تایباد,خراسان رضوی,تایباد,پايانه مرزي (گمرک) دوغارون,9594144361,,232211,1401/07/25,10380066771,472,قدیر داودیان,,
u10862063119,حشمتی وشرکا منطقه آزاد چابهار,سیستان و بلوچستان,منطقه آزاد چابهار,مجتمع صالحيار ، پلاک 419,9971769659,4444456,116561,1400/04/14,10862063119,1044,,,
u10860363934,حضرتی و شرکا,آذربایجان شرقی,منطقه آزاد ارس,جلفا، محدوده نوردوز، مجتمع اريکه، طبقه همکف، واحد 1,5446134138,3093520,339550,1400/04/06,10860363934,347,ولي حضرتي,,
u10590016651,حمایتیان و شرکاء,قم,قم,قم، ميدان رسالت، خيابان بسيج، کوچه 4، پلاک1 آدرس مکاتباتی: بلوار امین-بین کوچه 1 و 3- پلاک 99,3715815353,2532935060,283740,1400/09/07,10590016651,9904,عمار حمايتيان,,
u10102866490,حمید ابراهیمی داریانی و شرکاء,تهران,تهران,ولیعصر، خیابان شهید سرلشگر غلامعباس سلطانی، خیابان ولیعصر، پلاک 2609، برج سایه، طبقه همکف، واحد شماره 12,1967713566,2122010059,182677,1400/06/09,10102866490,246011,حميد ابراهيمي دارياني,,
u10320108220,حمید اردلان وشرکا,بوشهر,بوشهر,بخش مركزي شهر بوشهر، محله بازار، خيابان شهدا، خيابان شهيد نواب صفوي، طبقه همكف، واحد 403,7513858841,7733342240,189641,1399/09/01,10320108220,5057,حميد اردلان,,
u10102893356,حمید اکرمی وشریک,تهران,تهران,بين فلکه اول و دوم صادقيه ، خيابان ستارخان ، نبش پاساژ پرنيان ، واحد 1,1451795465,2144268050,16811,1399/01/27,10102893356,248824,حميد اكرمي,,
u14007190919,حمید سلیمانی و شرکاء منطقه آزاد چابهار,سیستان و بلوچستان,منطقه آزاد چابهار,چابهار منطقه آزاد - مجتمع صدف - واحد شماره 544 - کدپستی:9971766985,9971766985,5435313167,98/419888,1399/04/16,14007190919,3145,حميد سليماني,,
u14005553110,حمید طاهری و شرکا,تهران,تهران,خیابان فردوسی ، نبش منوچهری ، پلاک 202,1145834673,33531500-4,30837,1402/02/05,14005553110,485920,حميد طاهري,,
u14007545220,حمید محمدی و شرکاء,تهران,شمیرانات - تجریش,داودیه، خیابان بیست و یکم ،خیابان دکتر علی شریعتی ، پلاك 1225 ، طبقه همکف,1948813358,22843480,241447,1399/07/14,14007545220,525457,حميد محمدي,,
u10320868713,حمید میرلشکری و شرکاء,تهران,تهران,تهران، خیابان دولت، بین بلوار کاوه و چهار راه قنات، روبروي پمب بنزين، پلاک 310,1943683669,22595960,38736,1401/02/13,10320868713,438669,فريده صمدي زاد,,
u14006161400,حمید نباتچیان و شرکاء,تهران,تهران,میدان آرژانتین ، خیابان بیهقی ، روبروی فروشگاه شهروند، پلاک 26 ، واحد 18,1514835744,2188735508,50328,1400/11/01,14006161400,498079,حميد نباتچيان,,
u10104048840,حمیدرسولی زاده ئی وشرکا,تهران,تهران,خيابان خيام ، روبروي درب شرقي پارک شهر ، ک شهيد روحي ، بن بست سپه، پ1، طبقه همکف,1114839844,33946968-70,98319,1401/04/03,10104048840,354771,حميد رسولي زاده ئي,,
u10103530561,حمیدرضا رمضانی و شرکا,تهران,تهران,خيابان فردوسي شمالي ، بالاتر از خيابان کوشک ، پلاک 441,1145683166,2166723968,18604,1401/01/28,10103530561,315923,حميدرضا رمضاني,,
u14005630703,حمیدرضا کرامتی و شرکاء,گیلان,رشت,محله شریعتی، خیابان تختی، خیابان دکتر شریعتی، پلاک 401، طبقه همکف,4134656886,33254816-17,442950,1400/11/01,14005630703,19626,حميدرضا كرامتي,,
u14008013228,حمیدرضا یعقوبی و شرکاء,تهران,تهران,تهران -ابتدای خیابان مطهری - جنب هتل بزرگ تهران - خیابان منصور- پلاک 49 كدپستي :١٦١٣٦١٣٨٥٣,1595747116,2188723908,122563,1400/04/15,14008013228,0,,,
u14006157930,حمیده اکرمی و شریک,تهران,تهران,سعادت اباد- میدان کاج- نبش مجتمع کسری، طبقه همکف، پلاک 6,1998613151,,18856,1400/11/01,14006157930,498046,حميده اكرمي,,
u10980205260,حیدر سراجی و شرکا,بوشهر,گناوه,بوشهر-بندر گناوه-خیابان بسیج-نبش چهار راه بسیج-رو به روی پاساژ بایستی-,7531855793,7733125327,37002,1400/11/01,10980205260,1043,حيدر سراجي,,
u10260678450,حیدر شریفی رنانی و شریک,اصفهان,اصفهان,سی و سه پل ابتدای چهار باغ بالا ، ساختمان تجاری اداری کوثر ، فاز يک ،طبقه اول ،واحد 314,8173696961,3136204597,221511,1400/07/13,10260678450,49484,,,
u14006623156,حیدر مدرسی و شرکا,تهران,تهران,شهید بهشتی، خیابان شهید حسین میرزائی زینالی، پلاک121، ساختمان کیهان، طبقه چهارم، واحد9,1577717531,88526280-3,122547,1400/04/15,14006623156,506779,حيدر مدرسي,,
u10820059616,خاوری وشرکاء,همدان,همدان,محله زرگرها، خيابان باباطاهر، کوچه زرگرها، پلاک 82، طبقه همکف,6517697559,8132518909,86211,1400/03/19,10820059616,5920,حسين بخش خاوري,,
u10800097320,خضری و شرکا,هرمزگان,بندرعباس,خيابان شهيد عراقي زاده ، مجتمع تجاري سپهر ، پلاک 13,7916763859,2220778,18420,1400/01/25,10800097320,6948,عباس خضري پورقرائي,,
u14008061442,خلیل سکان دستگیری و شرکاء منطقه آزاد ماکو,آذربایجان غربی,بازرگان,آذربایجان غربی-شهرستان ماکو-بخش بازرگان -شهر بازرگان-محله امام-خیابان امام- خیابان شهید جواد قنبری -پلاک 1609-ساختمان بوستان-پلاک 22- طبقه پنجم-واحد 2,5867147617,,211221,1400/06/20,14008061442,3891,مسلم همت پور,,
u10380427142,خواجه و شرکاء,خراسان رضوی,مشهد,خ امام خميني -بين امام خميني 22و24-مقابل بازار جنب هتل پرديس-جنب موسسه مالي مهر - پلاك 430,9136963345,,418347,1400/12/25,10380427142,1038042714,غلامرضا خواجه,,
u10200360552,خیابانی پوروشرکا,آذربایجان شرقی,تبریز,خیابان دارایی‏، بازار امیرنو، تیمچه امیرنو، پلاک20‏,5134833698,4113324166,297467,1400/09/21,10200360552,27939,,,
u14003180060,خیراله جلیل زاده و شرکا,آذربایجان غربی,سلماس,خيابان امام خ فردوسي روبروی تالار چهل ستون پاساز رضايي طبقه همکف پلاک 12,5881947695,5247969-0443,402700,1400/12/14,14003180060,1042,خيرالله جليل زاده,,
u14007387567,داریوش علیزاده خوشاکو و شرکاء,تهران,تهران,تهران، منطقه 19، محله سعادت آباد، خیابان ششم، خیابان سعادت آباد، پلاک 145، ساختمان امیر کبیر، طبقه همکف,1998617654,2126764097,173315,1399/05/21,14007387567,522310,محمد حارث سيدان,,
u10861332312,داریوش قدرتی زاده و شرکا,آذربایجان غربی,سلماس,خ سوره‌اي نرسيده به ميدان شهيد ابراهيم ، پلاک 98,5881656377,,21818,1401/01/30,10861332312,795,,,
u10861573538,دانش وشرکا کیش,هرمزگان,کیش,استان هرمزگان، جزیره کیش، برج مالي آنا، طبقه ششم، شماره 73,7941757368,7644480523,422277,1399/03/20,10861573538,7526,عبدالحميد دانش,,
u14005836978,داود جلالی و شرکاء,تهران,تهران,محله یوسف آباد، خیابان شهید مصطفی برزگر رودکن(15)، خیابان سید جمال الدین اسد آبادی، پلاک 153، طبقه همکف,1433683174,2188712153,246860,1402/07/17,14005836978,491704,فرهاد جلالي,,
u10380378684,داود حسینی ابریشمی و شرکاء,خراسان رضوی,مشهد,خیابان امام خمینی24، محله ده دی (آخوند خراسانی 9)، پلاک 386، طبقه همکف,9136963557,,227435,1402/07/17,10380378684,22388,مريم حسيني ابريشمي,,
u14006067048,داود مولاوردی زاده و شرکاء,تهران,تهران,حسینیه ارشاد، کوچه دشتستان پنجم، خیابان پاسداران، پلاک 52.003 - ساختمان تندیس2 - طبقه اول، واحد1,1947817954,2174336,322090,1402/09/13,14006067048,496434,مهدي شيرواني,,
u10103657470,دهقان، برزگر و شرکاء,تهران,تهران,شهرک غرب، خيابان ايران زمين ، مجتمع تجاري ايران زمين ، طبقه همکف، پلاک 15,1465613637,88576072-3,248456,1400/08/08,10103657470,323949,,,
u14005451850,رامین چلانی و شرکا,آذربایجان شرقی,تبریز,بازار،سراي امير،حياط امير،پلاک 80,5134838551,4135262016,315674,1401/10/05,14005451850,41424,رامين چلاني,,
u14005520740,رامین خیامی اسکوئی و شرکاء,آذربایجان شرقی,تبریز,آذربايجان شرقي، تبريز، بخش مرکزي، شهر تبريز، محله امام خميني (ره)، کوچه سهند، خيابان امام خميني (ره)، پلاک 0، طبقه همکف,5163974864,4133250000,329827,1402/02/17,14005520740,41620,رامين خيامي اسكوئي,,
u14005688021,رامین صدیقی و شرکاء,تهران,تهران,تهران، خیابان جمهوری، پاساژ پروانه، طبقه همکف، پلاک287,1144644598,33950266,308576,1402/09/05,14005688021,488752,رامين صديقي,,
u14006154655,ربیعی کندریان و شرکاء,تهران,تهران,خیابان فردوسی شمالی ، مرکز تجارت جهانی فردوسی ، پلاک 475,1145683733,2188412260,201462,1399/09/01,14006154655,497959,سارا ربيعي كندريان,,
u10103713437,رجائی و شرکا,تهران,تهران,ميدان ونک خيابان ونک برج آينه ونک طبقه همکف، پلاک19,1991953945,88879459 -,57130,1401/02/28,10103713437,333870,فرهاد رجائي,,
u10320872634,رحمان جهانگیری و شرکا,تهران,تهران,بازار بزرگ ـ بازار عباس اباد ک علی ابادی پاساژ قائم طبقه همکف پ 145,1163795135,,307334,1402/09/03,10320872634,439439,,,
u10102394490,رحمانیان و شرکا,تهران,تهران,خيابان شهيد مطهري، ضلع شمال شرقي چهارراه ميرزاي شيرازي، پلاک 211، واحد 1,1586713119,2188552950,221504,1400/07/13,10102394490,197601,عبدالكريم رحمانيان كوشككي,,
u14008473390,رحمن باقری نسب و شرکا,تهران,تهران,خیابان جمهوری اسلامی رو به رو سفارت انگلیس پلاک 460,1135935634,,275867,1408/08/10,14008473390,544201,,,
u10320383792,رحمن نوری و شرکا,تهران,تهران,تهران-چهارراه اسلامبول-خيابان فردوسي-خيابان منوچهري-پلاك 210-طبقه همكف-,1145834667,33904092,221524,1400/07/13,10320383792,388668,يوسف نوري,,
u14007851614,رحیم طالع و شرکاء منطقه آزاد ماکو,آذربایجان غربی,بازرگان,شهرستان ماکو - شهر بازرگان - خیابان امام (ره) - خیابان شهید قنبری - پلاک 1702 - طبقه همکف - واحد 3,5867148854,4434373984,333288,1399/09/21,14007851614,3811,حمید طالع,,
u10103752230,رستمی احمدکندی و شرکا,تهران,تهران,خيابان مطهري، بعد از خيابان جم، تقاطع مدرس، پلاک 270 (258 قديم)، طبقه همکف,1588774186,88492492-4,293235,1400/09/17,10103752230,333193,بهرام رستمي احمدكندي,,
u10220174888,رسول حاتمی صادق و شرکا,آذربایجان غربی,ارومیه,خيابان امام خيابان طرزي، پلاک 2/1 کد پستي 5713617981,5713617981,4432227000,148451,1401/05/16,10220174888,12414,رسول حاتمي صادق,,
u14005622563,رسول فلکی و شرکاء,تهران,تهران,تهران ، خ قائم مقام فراهاني، کوچه دوم ، پلاک 22، واحد5,1583221322,2188516953,109820,1400/11/01,14005622563,487363,,,
u14005866670,رضا انصاری لاری و شرکاء,هرمزگان,بندرعباس,بندرعباس_خیابان امام خمینی (ره)_میدان 17 شهریور _روبروی اداره پست مرکزی_ هتل بزرگ اتیلار _طبقه اول_ لابی هتل,7914613811,7632211466,289358,1402/08/20,14005866670,16686,رضا انصاري لاري,,
u14007749230,رضا حاجی زاده و شرکاء منطقه آزاد ماکو,آذربایجان غربی,منطقه آزاد ماکو,شهر بازرگان - خیابان امام (ره) - خیابان شهید قنبری - پلاک 1729 - طبقه همکف,5867148943,4434377869,241298,1399/07/14,14007749230,3784,شيرزاد حاجي زاده,,
u10100434748,رضا حکمت آرا و شرکا,البرز,کرج,شهر كرج محله گلشهر بلوار شهيد حميد شمس ( 45 متري گلشهر) خيابان نهر پلاك 76 ساختمان بهاره طبقه همكف,3137813145,2613526716,346405,1400/11/02,10100434748,10853,,,
u14005586173,رضا ذاکری جزه و شریک منطقه آزاد چابهار,سیستان و بلوچستان,منطقه آزاد چابهار,مجتمع تجاری ابریشم، طبقه همکف، واحد شماره 703,9971764919,5435314599,453446,1400/11/01,14005586173,2481,محمد كاظمي,,
u14007809735,رضا سنائی اردکانی و شریک,یزد,یزد,یزد - شهرستان یزد - شهر یزد - محله ملا فرج الله - کوچه 16 شهید فتوحی(حنا) - خیابان دهم فروردین - پلاک 218 - طبقه همکف,8913875631,3538240809,251680,1399/07/21,14007809735,17856,اكرم سالمي,,
u14003282053,رضا سکان دستگیری و شرکا,آذربایجان غربی,بازرگان,خيابان امام خميني - خ شهيد جواد قنبري - پشت بانک ملت - نبش خ شهيد فهميده - مجتمع تجاري اسماعيل زاده - طبقه اول - واحد 22,1431654633,4434373352,334477,1399/11/15,14003282053,905,محرم اديب نيا,,
u14007194513,رضا صادقی‌اظهر و شرکاء,تهران,تهران,چیذر، خیابان منصوریان، خیابان شهید خلبان منصور وطن پور شمالی، پلاک 2، طبقه همکف,1937863335,2128111130,98/370899,1400/10/20,14007194513,518337,رضا صادقي اظهر,,
u14007783949,رضا فتوحی و شرکاء,تهران,تهران,استان تهران - شهر تهران - محله جهاد - خیابان شهید فرهاد رزم آرا - خیابان سید جمال الدین اسد آبادی - پلاک 114 - طبقه همکف,1431795458,2188048472,376844,1400/10/20,14007783949,530184,رضا فتوحي,,
u10100427288,رضا فردوس حسین آبادی وشرکا,البرز,کرج,رجائي شهر ، خيابان چهارم شرقي ، بين سوم و چهارم ، پلاک 94 ساختمان همسفر ، طبقه همکف .,3146993355,26144797797,324667,1400/10/13,10100427288,10598,,,
u10860256273,رضا قلی زاده و شرکاء,آذربایجان غربی,سلماس,سلماس، میدان شهید ابراهیمی، خیابان شهید سوره ای، میدان شهید ابراهیمی، پلاک 26، طبقه همکف,5881656177,4435241295,122384,1401/10/14,10860256273,758,رضا قليزاده,,
u10102767573,رضوی خسروشاهی و شرکاء,تهران,تهران,خیابان شهید بهشتی، خیابان شهید فرشاد ایازی (نهم)، خیابان شهید عبدالمجید صابونچی، پلاک 91، طبقه همکف,1533773111,,330824,1398/12/08,10102767573,235821,سيدنويد رضوي خسروشاهي,,
u14003186844,رمضان بیرامی وشرکا,آذربایجان شرقی,جلفا - هادی شهر,سيه رود- فلکه حکيم نباتي - پلاک 258,5445113111,,415508,1400/12/23,14003186844,536,رمضان بيرامي,,
u14000261213,روح اله اسماعیل زاده و شرکاء,بوشهر,دیلم - بندر دیلم,خيابان پاسداران - نرسیده به دفتر اسناد رسمی 13 دیلم,7536143159,7733241591,260995,1399/09/14,14000261213,494,روح الله اسماعيل زاده,,
u14005702011,روح اله جان نثار و شرکا,خراسان رضوی,مشهد,استان خراسان رضوی، مشهد، محله احمد آباد، خیابان عدالت، خیابان احمد آباد، پلاک 150.3، طبقه همکف,9176663137,5138442277,98/420350,1402/04/24,14005702011,57650,روح اله جان نثار,,
u14006697151,روح اله مجتهدی و شرکاء تهران,تهران,تهران,ونک، خيابان شهيد محمد باقر کوليوند، بن بست ونکي، پلاک 11، طبقه زيرزمين,1993835490,2188613106,156202,1400/05/01,14006697151,508142,روح اله مجتهدی,,
u14007863207,روژین سلطانی و شرکاء,آذربایجان غربی,ارومیه,استان اذربایجان غربی - شهر ارومیه - خ سرداران، خ امام، پ 555,5713738734,2122870566,320664,1399/09/13,14007863207,17572,روژين سلطاني,,
u10260484992,روشندل وشرکاء,اصفهان,اصفهان,خيابان توحيد مياني، جنب بانک صادرات، کد پستي 8173884886,8173884886,3136265090,86182,1400/03/19,10260484992,27785,فريدون روشندل,,
u10500066625,ریگی وشرکا,سیستان و بلوچستان,زاهدان,خيابان چهارراه رسولي ، روبروي پست بانک,9815634747,3235787,145405,1400/05/10,10500066625,3147,عبدالرحيم متين,,
u10102936060,زرین قلم وشرکا,تهران,تهران,تهران، ميرداماد، خيابان رودبار غربي، بلوار میرداماد- پلاک 41- پاساژ برلیان- طبقه همکف- واحد 5,1911935353,22911174,127030,1399/05/18,10102936060,253174,فضل اله زرين قلم,,
u14005294673,زکیه حیدری برنطین و شرکا,هرمزگان,بندرعباس,بندر عباس، بلوار امام، سه راه دلگشا، مجتمع تجاري کيش، پلاک 23,7917776319,7632222646,144626,1402/05/01,14005294673,16074,زكيه حيدري برنطين,,
u14007805098,زینب حاجیان و شرکاء,تهران,تهران,تهران - سعادت آباد - خیابان بیست و هفتم شرقی - پلاک 1 - طبقه اول - واحد 2,1998817368,2122136213,316075,1399/07/17,14007805098,530699,,,
u14005689626,زینلی علی آبادی و ذاکری‌جزه شرکا,تهران,تهران,تهران، اقدسیه، خیابان پورابتهاج، خیابان سباری، پلاک 48، مجتمع عرش آجودانیه، طبقه اول، واحد 121,1956764950,2126253698,109845,1400/11/01,14005689626,488797,اميرمهدي زينلي علي آبادي,,
u10530287556,سادون و شرکا,فارس,شیراز,شيراز، خيابان کريمخان زند، مقابل خيابان انوري، جنب هتل کوثر، پلاک 2,7135746375,2333370,324060,1400/10/13,10530287556,16539,,,
u14006479185,سارا شهبازیان و طبسی,تهران,تهران,خيابان وليعصر - بالاتر از ميدان ونک - خيابان خدامي - پلاک 8,1994634174,2154578,98872,1400/11/01,14006479185,503856,علي عبداله زاده طبسي,,
u10861003382,سارا غروی وشرکا,قم,قم,خيابان ارم ، کوچه 10، پلاک819,3715794668,912553300,79685,1399/03/31,10861003382,5566,سارا غروي,,
u14007257567,سارو بغزیانس و شرکاء,اصفهان,اصفهان,خیابان خاقانی، کوچه صفوی، خیابان نظر غربی، پلاک 112، طبقه همکف,8175785843,3136255300,412790,1398/12/19,14007257567,59651,سارو بغزيانس,,
u10380343327,سپهری و شرکا,خراسان رضوی,مشهد,خيابان پاسداران ، مقابل هتل باختر ، پلاک 2/38,9137843485,5138542226,203222,1401/07/01,10380343327,18784,محمود سپهري رضائيان,,
u14006259700,ستاریان ، کاظمی و شرکاء,تهران,تهران,يوسف آباد-ميدان سيد جمال الدين اسدآبادي-خيابان سيدجمال الدين اسد آبادي-پلاك 336-طبقه همكف,1436693856,88067799,246865,1399/07/17,14006259700,500166,سلمان ستاريان,,
u14007258705,سجاد معتمدو شرکاء,آذربایجان شرقی,مرند,اذربایجان شرقی-مرند-بخش مرکزي- جنب خوي - کوچه بخششي-بلوار شهيد کسايي- طبقه همکف,5415844453,4142261218,98/404620,1399/12/01,14007258705,2400,,,
u14005678669,سجاد کیاشمشکی و شریک,تهران,تهران,تهران، کوي نصر، بين خيابان 11 و 13، پلاک 206,1447683849,88486185,391305,1402/11/03,14005678669,488555,سجاد كياشمشكي,,
u10380361037,سزاوار و شرکا,خراسان رضوی,مشهد,خيابان امام رضا (ع ) ، هتل بين المللي قصر,9166683174,5138549316,325393,1399/11/08,10380361037,20599,عليرضا سزاوار,,
u14005595728,سعید آسوده و شرکاء,خراسان رضوی,مشهد,مشهد - خیابان امام رضا- امام رضا 26 - پلاک 75/1,9166673138,5138540429,314060,1402/09/08,14005595728,57227,حسین علی زاده,,
u10980092382,سعید آسیته و شرکاء,ایلام,مهران,بازارچه مرزي مهران,6997197577,,204952,1399/07/25,10980092382,256,سعيد آسيته,,
u14007828807,سعید خدابنده سامانی و شرکاء اروند,خوزستان,آبادان,استان خوزستان، شهرستان آبادان، محله احمدآباد، خیابان یک اصلی، خیابان گلستان،پاساژ گلستان، طبقه همکف،‌پلاک 216/003,6318677996,,122558,1400/04/15,14007828807,7072,جواد خدابنده ساماني,,
u14007964428,سعید خوش افکار,قم,قم,قم خیابان اراک نبش کوچه 7,3718665358,,188487,1400/05/20,14007964428,0,مجيد ملاحسيني,,
u14008591735,سعید دلیریان و شرکاء,آذربایجان غربی,منطقه آزاد ماکو,بازرگان - هتل بابک -خیابان شهرک - خیابان امام خمینی - پلاک 1095 - طبقه هشتم - واحد D,5867137454,,418803,1400/11/01,14008591735,4021,سعيد دليريان,,
u14005996135,سعید ربیعی منفرد و شرکا,تهران,تهران,تهران، خیابان ولیعصر (عج)، نرسیده به پارک ساعی، برج سپهر ساعی، پلاک 1036، طبقه همکف، واحد 4 شماره ثابت: 88105128-88103611,1433894145,88104922,296111,1402/08/24,14005996135,495058,سعيد ربيعي منفرد,,
u14005975860,سعید رضاعلی و شرکاء,تهران,تهران,خیابان جمهوری نرسیده به چهار راه استانبول پاساژ گلشن طبقه همکف واحد1,1135936918,66734734,343251,1402/09/28,14005975860,494618,سعيد رضاعلي,,
u14005559947,سعید زاهدی نسب و شرکاء,تهران,تهران,تهران - ميدان آرژانتين - ابتداي خيابان احمد قيصر - جنب بانک اقتصاد نوين - پلاک 25,1513914611,88728220,353993,1402/06/05,14005559947,486053,سعيد زاهدي نسب,,
u14005908609,سعید نخجوانی و شرکاء,آذربایجان شرقی,تبریز,خيابان دارائي - حياط امير - پلاک 54/1,5134838455,4135265774,109273,1402/04/05,14005908609,42632,سعيد نخجواني,,
u14006189050,سعید کزازی و شرکاء,تهران,تهران,خيابان وليعصر (عج)-تقاطع ميرداماد-مرکز خريد اسکان-طبقه زير زمين-پلاک 14,1969613368,2186084134,79475,1400/11/01,14006189050,498734,محمد وليلوقزلباش,,
u10320483672,سلام صالحی و شرکا,تهران,تهران,تقاطع بزرگراه شهید چمران و خیابان ولیعصر، هتل پارسیان استقلال، طبقه همکف، غرفه 37,1999813565,2122660345,327613,1400/10/15,10320483672,397148,محسن باقري,,
u14008471121,سهیل شکرچیان بروجنی و شرکاء,گیلان,منطقه آزاد انزلی,منطقه آزاد تجاری- صنعتی انزلی، مجتمع ونوس، طبقه اول، غرفه 411,4313145617,1344450395,98/308280,1400/09/10,14008471121,3723,سهيل شكرچيان بروجني,,
u14008030832,سهیل متاعی و شرکاء,تهران,تهران,شهرک قدس(غرب)، ایوانک، خیابان سیمای ایران، خیابان شهید مهدی فرحزادی، مجتمع تجاری ارم (پلاتین)، طبقه همکف، واحد 6,1467698648,4433387006,137854,1400/04/26,14008030832,535566,سهيل متاعي,,
u14004832696,سهیل و سروش نجف زاده و شرکا,تهران,تهران,خیابان دکتر شریعتی -ابتدا پاسداران -بین سروستان سوم و چهارم- پلاک 59 -واحد 1,1661917331,2122873745,293476,1401/09/18,14004832696,470601,رضا نجف زاده,,
u14005825818,سولماز طاهری باویل علیایی و شرکا,تهران,تهران,میدان فردوسی.میدان فردوسی،مجتمع تجارت جهانی فردوسی، طبقه همکف، پلاک 37,1145683687,2122827573,10707,1399/01/21,14005825818,491492,سولماز طاهري باويل عليائي,,
u14005635691,سیامک خاکی و شرکاء,تهران,تهران,تهران، فردوسي جنوبي، روبروي صندوق پس انداز بانک ملي، پاساژ نيکان،طبقه دوم واحد 507,1144614568,2133944153,209337,1398/12/20,14005635691,487633,سيامك خاكي,,
u10260593291,سیاوش قانعی و شرکا,اصفهان,اصفهان,آپادانا اول، خیابان شهید قدوسی (آپادانا اول)، بن بست شهریار(19)، پلاک 10، طبقه همکف,8165755763,3116303853,32208,1401/02/10,10260593291,41601,,,
u14007482039,سیاوش نوریان و شرکاء,تهران,تهران,خیابان سعدی شمالی خیابان منوچهری پاساژ علاالدین طبقه 2 پلاک 246,1145955814,33983846,56735,1399/02/25,14007482039,524301,سياوش نوريان,,
u14008198774,سید امیر بهادر تیموریان و شرکاء,تهران,تهران,تهران، ميدان امام خميني، خيابان سعدي جنوبي، پلا14، بلوک 8 غربي، طبقه 2، واحد65,1115619531,2136611421,111675,1400/04/05,14008198774,538689,,,
u14006216387,سید امیر عباس صفوی میرمحله و شرکا منطقه آزاد انزلی,گیلان,منطقه آزاد انزلی,منطقه آزاد انزلی - مجتمع تجاری ونوس- طبقه اول- لاین دریا غرفه شماره409,4313145695,1344451350,221777,1400/06/31,14006216387,3125,عليرضا قربان پوررضامحله,,
u10980117315,سید جواد جاسمی و شرکا,کرمانشاه,قصرشیرین,بازارچه مرزي پرويز خان,6781141134,8318238467,330973,1400/10/18,10980117315,587,,,
u14005828863,سید حسن عطری پور و شرکا قشم,هرمزگان,منطقه آزاد قشم,استان هرمزگان، منطقه آزاد قشم، مجتمع سیتی سنتر1، لاینh، پلاک2299,7951619944,35211061,110032,1400/04/04,14005828863,5503,سيدحسن عطري پور,,
u14006541142,سید حسن مرتضوی شاهرودی,قم,قم,قم - شهر قم - بازار - کوچه انقلاب 6 - خیابان انقلاب - پلاک128-طبقه همکف -کدپستی:3713766157,3713766157,2517732241,144646,1399/05/01,14006541142,14683,سيدحسن مرتضوي شاهرودي,,
u10320111762,سید حسن موجی وشرکا,بوشهر,بوشهر,خيابان دانش آموز ، پاساژ توحيد ، پلاک 19,7513846983,7712521367,341955,1399/11/21,10320111762,5413,سيدحسن موجي,,
u14007864396,سید حسین صحاف رضوی و شرکاء,تهران,تهران,جمالزاده، خیابان شهید علیرضا طوسی(شباهنگ)،‌ کوچه یوسف، پلاک 83 ، ساختمان پویا، طبقه سوم، واحد شماره چهارده,1419754834,66592035,380312,1399/10/25,14007864396,532020,سيدحسين صحاف رضوي,,
u10320537781,سید حسین مرعشی و شرکا,تهران,تهران,خیابان میرزای شیرازی تقاطع خیابان مطهری پلاک 224,1596914851,88559129,98/420272,1399/04/04,10320537781,401807,سيدحسين مرعشي,,
u14006947483,سید حمزه امین فرخانی و شرکاء,تهران,تهران,تهران، میرداماد، خیابان نیک خو، خیابان شهید امیر سهیل تبریزیان، پلاک صفر، مجتمع تجاری رز میرداماد، طبقه همکف، واحد 1,1919993511,2126403537,98/407940,1399/12/01,14006947483,513166,سيدحمزه امين فرخاني,,
u14006073550,سید رضا طاوسی و شرکاء,اصفهان,اصفهان,اصفهان، خيابان سپاه، خيابان حکيم، بازار بزرگ حکيم، ورودي يک، پلاک 185,8147766183,3132120214,288319,1402/08/19,14006073550,56742,مهدي محمديان,,
u14008810469,سید سینا طایفی و شرکا,تهران,تهران,استان تهران - منطقه 14 ، شهرستان تهران ، بخش مركزي ، شهر تهران، شهرك قدس(غرب) ، پاساژ شهرك غرب، خيابان شهيد محمد مهدي فرحزادي ، پلاك 0 ، ساختمان اداري و تجاري سينا ، طبقه همکف واحد16کد پستی:1466813012,1466813012,,410645,1400/12/01,14008810469,551051,سيدسينا طايفي,,
u10320877740,سید صلاح الدین بهبهانی و شرکاء,تهران,تهران,خيابان ميرداماد-ميدان محسني(مادر)-پاساژ محسني-پلاک 52,1911736713,,98/353288,1400/10/10,10320877740,439855,سيدصلاح الدين بهبهاني,,
u14005933840,سید عباس پارسائیان و شرکا,البرز,کرج,کرج سه راه رجایی شهر ساختمان صدف یک،مغازه يک,3133785798,2632702253,175663,1400/05/10,14005933840,30262,سيدمرتضي پارسائيان,,
u14005927381,سید عباس حسینی پارسا قشم,هرمزگان,قشم,استان هرمزگان، منطقه آزاد قشم، بازار فردوسی، لاین عطار2، پلاک2079.,1145683687,7635229608,18962,1399/01/27,14005927381,5549,خالد محيسن نژاد,,
u10260466032,سید عبدالحمید عقدایی و شرکاء,اصفهان,اصفهان,محله سپاه، خیابان حکیم، خیابان سپاه، پلاک 139، ساختمان ملک، طبقه همکف,8147745181,36288730-2,98/209266,1399/09/01,10260466032,25845,رؤيا ذهبيون,,
u10320306045,سید علی توکلی طیاء زواره و شرکاء,تهران,تهران,خيابان مطهري ، خيابان فجر ، کوچه غفاري ، پلاک 84,,,277588,1398/12/20,10320306045,30328,سيد علي توکلي طباء زواره,,
u14007553807,سید قاسم شریفی و شرکاء,تهران,تهران,سعادت‌آباد، بلوار سرو شرقي، ميدان شهيد طهراني مقدم، پلاک6، پاساژ کسري، طبقه اول، واحد 23/1,1998613193,2122074910,205577,1399/06/17,14007553807,525612,سيدقاسم شريفي,,
u14004813172,سید مجتبی حسینی و شرکا,هرمزگان,قشم,بلوار ولي عصر، ميدان امامقلي خان مجتمع تجاري سيتي سنتر1، طبقه همکف، پلاک 1151,7951618945,7635246178,11269,1400/11/01,14004813172,4908,سيدمجتبي حسيني,,
u14006077860,سید مجید میر محمد علی و شرکاء,تهران,تهران,آدرس تهران، خيابان اقدسيه ،نبش کوچه نسيم، طبقه زير بانک سامان ، پلاک 63,1957735609,2126454038,121311,1400/11/01,14006077860,496598,سيد مجيد مير محمد علي,,
u14006267036,سید محسن سید جلالی اقدم و شرکا,تهران,تهران,تهران، خیابان ناصرخسرو، کوچه مروی، پاساژ صفوی، طبقه همکف، پلاک6,1116819395,2133926280,242603,1399/07/10,14006267036,500274,سعيد وليزاده,,
u14007502423,سید محمد اشرفی و شرکاء,تهران,تهران,استان تهران، تهران ، یوسف آباد ، خیابان سیدجمال الدین اسدآبادی ، نبش خیابان 37 پلاک 313.,1434664441,2188618082,459565,1399/02/25,14007502423,524691,سيدمحمد اشرفي,,
u14007658130,سید محمد جواد تهامی و شرکا,قم,قم,آدرس: استان قم‏- شهر قم‏- محله بازار ‏- کوچه انقلاب 2 ‏- خیابان انقلاب‏- طبقه همکف‏- کدپستی: 3713765675,3713765675,2537717374,97/314095,1399/09/08,14007658130,15687,سيدمحمدجواد تهامي,,
u14005467510,سید محمد رضا آل علی و شرکا,تهران,تهران,تجريش، محله فرشته، کوچه مجد، خيابان شب ديز، پلاک 3,1965938414,2191001000,97/38178,1402/02/11,14005467510,483939,,,
u10320837227,سید محمد مثنایی نجیبی و شرکاء,تهران,تهران,ابتداي خ پاسداران - روبروي نگارستان 5- نبش خ گل‌نبي - پلاک 48,1947818315,021-25906,134521,1399/05/27,10320837227,432329,,,
u14006683951,سید مهدی علوی تهرانی و شرکاء,تهران,تهران,تهران-چهار راه اسلامبول-خيابان جمهوري-خيابان فردوسي-پلاک 160-طبقه همکف,1135937547,,250268,1400/07/20,14006683951,507838,سيدمهدي علوي تهراني,,
u10320842056,سید نظیر سرداری و شرکاء,تهران,تهران,ميرداماد، مابين خيابان نفت و ميدان مادر، جنب بانک پاسارگاد، پلاک 139، طبقه اول، واحد 23,1911618889,021-25905,239548,1399/04/03,10320842056,433637,منوچهر بهادراني,,
u10103449169,سیدحسین افتخاری و شرکا,تهران,تهران,خيابان شهيدبهشتي ، بعداز ميرعماد ، پاساژ گلديس ، پلاک282 ، طبقه همکف ، واحد 201,1587775646,2188512386,381047,1400/11/27,10103449169,305344,سيدحسين افتخاري,,
u14007031589,سیدحسین برکچیان و شرکا,خراسان رضوی,مشهد,چهارباغ-کوچه بازار بزرگ-خیابان شهید اندرزگو--پلاک 304-طبقه همکف,9134635479,5132250169,353294,1399/11/01,14007031589,62418,سيد حسين برکچيان,,
u14006470626,سیدصابر شفیعی و شرکا,تهران,تهران,تهران - خیابان ولی عصر- بالاتر از پارک ملت - کوچه پروین - پلاک 48 - واحد 1,1966813147,23390,86189,1400/11/01,14006470626,503674,سيدصابر شفيعي,,
u10700152532,سیدصفوی و شرکا,گلستان,گرگان,گلستان، گرگان، خيابان ولي عصر، عدالت 18، جنب بانک تجارت,4916633377,5531324,400524,1400/12/11,10700152532,6823,سيدعبدالاعلي سيد صفوي,,
u14008647198,سیدعبدالستار حسینی و شرکاء,فارس,شیراز,شیراز - چهار راه زند - ابتدای خیابان سعدی - پلاک 0-طبقه همکف,7135817395,,344533,1400/10/01,14008647198,51241,سيدعبدالستار حسيني,,
u14005270991,سیدمرتضی سلطان تویه و شرکاء,تهران,تهران,میدان تجریش، ابتدای خیابان ولیعصر، نبش شیرینی لادن، پاساژ کیش، فاز 2، پلاک 20,1961835768,2126852665,170019,1402/05/18,14005270991,480080,سيدمرتضي سلطان تؤيه,,
u14008567610,سیده فاطمه زفره و شرکاء,خراسان رضوی,مشهد,خیابان شهید نواب صفوی 7، خیابان شهید نواب صفوی، پلاک 207، طبقه همکف,9166883587,5133691842,295648,1400/08/20,14008567610,69321,سيده فاطمه زفره,,
u14006515691,سیدیوسف سادات‌حسینی و شرکاء,خراسان رضوی,مشهد,مشهد- چهارباغ، خيابان آيت اله شيرازي4، خيابان آيت اله شيرازي، پلاک 20، ساختمان بازار توس(ونک)، طبقه همکف، کد پستي 9134735454,9134735454,5138530400,203091,1399/09/01,14006515691,60496,سيديوسف سادات حسيني,,
u14008046072,سینا پشت کوهی و شرکاء,تهران,تهران,محله اوین، کوچه آسیاب، خیابان شهید کچوئی، پلاک 63 ، طبقه همکف,1983636373,,209260,1400/06/10,14008046072,535804,سينا پشت كوهي,,
u14005575484,سینا درری قابل و شرکاء,خراسان رضوی,مشهد,خراسان رضوي، مشهد، خيابان امام خميني (ارگ)، جنب کنسولگري پاکستان، پلاک 456,9136963143,5132227496,172749,1402/05/21,14005575484,57126,بهناز بامني,,
u10320300263,شادمند و دبیری وشریک,تهران,تهران,تهران، خيابان 15 خرداد، مقابل مسجد امام خميني، جنب بانک رفاه کارگران، سراي اميد، حياط دوم بالاي همکف، پلاک 8,1145678611,33968010-33968103,141237,1399/09/01,10320300263,380618,,,
u10861815259,شاهنده وشرکا,بوشهر,گناوه,خ بسيج ، روبروي هتل خور ، مجتمع مسکوني تجاري عابدي ، ط اول ، پ101,7531863385,7723222659,41693,1399/02/21,10861815259,927,عبدالمحمد شاهنده,,
u10320570010,شاهین اخباری و شرکا,تهران,تهران,خ شهيد بهشتي - پلاک 210,1577957915,88741949,46872,1401/02/20,10320570010,406304,شاهين اخباري,,
u14005783796,شاهین چراغی و شرکاء,تهران,تهران,استان تهران ، شهرستان تهران ، بخش مركزي ، شهر تهران، آرژانتين-ساعي ، خيابان ولي عصر ، خيابان هجدهم ، پلاك 16 ، طبقه دوم,1511736553,2183577777,18843,1400/11/01,14005783796,490622,شاهين چراغي,,
u14007799267,شرف الدین طائی نیا و شرکاء,خراسان رضوی,مشهد,محله ده دی، خیابان امام خمینی 24(آخوند خراسانی 9)، خیابان امام خمینی، پلاک 450، طبقه همکف,9136963147,,227065,1399/09/12,14007799267,65430,شرف الدين طائي نيا,,
u10102926256,شرفی و شرکا,تهران,تهران,چهارراه پاسداران، خیابان شهید کلاهدوز (دولت ) ،خیابان اختیاریه جنوبي ،پلاک 94,1959912345,22554753,73810,1401/03/10,10102926256,252184,عباس شرفي,,
u14008667163,شرک تضامنی حسن ناصری و شرکا,فارس,شیراز,شیراز، خیابان عفیف آباد، ساختمان افراسیابی، طبقه همکف، واحد 8,7183784586,7137381305,98/424066,1400/12/10,14008667163,51292,حسن ناصري,,
u10320496363,شرکت خدمات ارزی و صرافی دی ( سهامی خاص),تهران,تهران,بلوار ميرداماد، بين خيابان نفت شمالي و بزرگراه مدرس، پلاک 239، طبقه اول، واحد 1,1551874784,2174485,109286,1402/04/05,10320496363,399774,,,
u14008178760,شرکت تضامنی حمید شهبازیان و شرکاء,همدان,همدان,شهر همدان، رکنی، خیابان 18 متری رودخانه، خیابان جهاد، پلاک 73، طبقه همکف,6516794119,8138216666,234507,1400/07/01,14008178760,13629,حميد شهبازيان,,
u14007060898,شرکت تضامنی سلیمان قره قول و شرکاء,تهران,تهران,میرداماد، بلوار میرداماد، خیابان شهید امیر سرلشگر علیرضا سنجابی، پلاک 1، ساختمان مادر، طبقه همکف,1911933111,22906946,332493,1400/09/20,14007060898,515164,سليمان قره قول,,
u14008792325,شرکت تضامنی صرافی امید تاجیک و شرکاء,تهران,ورامین,میدان امام خمینی خیابان شهدا پلاک 48 پاساژ بزرگ، پ 26، طبقه همکف، واحد 40,3371793435,2136254001,98/360897,1400/09/20,14008792325,3689,اميد تاجيك,,
u14008632638,شرکت تضامنی صرافی علیرضا مسیبی و شرکاء,تهران,تهران,استان تهران ، شهر تهران ، میدان صادقیه ، خیابان شهید سید محمد موسوی ، خیابان ستارخان - پلاک 757 - پاساژ شب تاب - طبقه همکف واحد36,1451633865,2188850217,394084,1400/11/01,14008632638,547505,احسان افسري,,
u14008729689,شرکت تضامنی صرافی مجید خاکی و شرکاء,یزد,یزد,یزد،محله گازرگاه،کوچه 27 (مسجد حظیره)، خیابان امام خمینی ، پلاک 589 ، طبقه همکف .,8914635868,3536296383,357908,1400/09/20,14008729689,18790,مهديه هنرزاده,,
u10100331409,شرکت تضامنی صرافی محرم زاده وشرکا,البرز,کرج,خيابان شهيد بهشتي، روبروي بازار ملاصدرا، نبش کوچه شريفي، پلاک 1513,3145653136,2614426066,236933,1400/07/27,10100331409,7357,مهران محرم زاده,,
u14008579408,شرکت تضامنی صرافی نادریان و شرکاء,آذربایجان شرقی,تبریز,ولیعصر-کوچه سوگل -خیابان شهریار- پلاک 0 -طبقه همکف,5157678935,4133331866,335738,1400/09/20,14008579408,49103,رضا نادريان,,
u10102943860,شرکت تضامنی لواسانی و شرکا,تهران,تهران,تهران ، خيابان 15 خرداد ، سبزه ميدان ، مرکز طلا و جواهر ايران، پلاک 1/100,1161783343,,442998,1400/11/01,10102943860,253979,احمد نوائي لواساني,,
u14007375556,شرکت تضامنی محمود پیروی و شرکاء,تهران,تهران,تهران بلوار میرداماد خیابان نساء پلاک 139 طبقه اول واحد شماره 38,1911618894,021-89394,96559,1399/03/27,14007375556,522084,محمود پيروي پره ئي,,
u10103993208,شرکت خدمات ارزی و صرافی بانک مسکن ( سهامی خاص),تهران,تهران,خيابان نلسون ماندلا، خيابان ناهيدغربي، پلاک 75,1966913551,2175402000,30949,1401/02/09,10103993208,350312,بانک مسکن,,
u10103044213,شرکت خدمات ارزی و صرافی اقتصادنوین (سهامی خاص),تهران,تهران,تهران، خیابان آفریقا، پائین تر از جهان کودک، ساختمان 239، طبقه دوم ، واحد 14,1517974837,2188875750,399603,1399/10/15,10103044213,266879,پرويز ساويزي,,
u10320840420,شرکت خدمات ارزی و صرافی ایران زمین (سهامی خاص),تهران,تهران,بلوار میرداماد - نبش شمس تبریزی شمالی - پلاک 187 - طبقه همکف,1919913889,2122913887,257127,1399/01/29,10320840420,433371,سيدجلال جليليان,,
u10104047663,شرکت خدمات ارزی و صرافی پاسارگاد(سهامی خاص),تهران,تهران,خیابان نلسون ماندلا، ابتداي تابان شرقي، پلاک2،طبقه همکف,1917635811,,418097,1399/03/03,10104047663,354511,,,
u14004709300,شرکت خدمات ارزی و صرافی خاورمیانه ( سهامی خاص),تهران,تهران,استان تهران، شهر تهران، خیابان شهید بهشتی، خیابان شهید احمد قصیر، خیابان نهم، پلاک1، برج بخارست، طبقه دوم، واحد5,1513746531,22137840,328961,1401/10/14,14004709300,467640,عيسي حامدي,,
u14005895332,شرکت خدمات ارزی و صرافی گردشگری (سهامی خاص),تهران,تهران,خيابان فردوسي، نرسيده به ميدان فردوسي، ساختمان تجارت جهاني فردوسي، پلاک 475 و 473,1145683716,,374371,1399/01/29,14005895332,492953,رضا عدالتي صداقت,,
u10102782470,شرکت خدمات ارزی و صرافی مهر (سهامی خاص),تهران,تهران,مفتح جنوبی، خیابان شهید دکتر مفتح، کوچه شیمی، پلاک 84، طبقه همکف,1573753411,,205955,1400/01/30,10102782470,237356,توسعه عمران و اراضی کشاورزی,,
u10102738849,شرکت شبکه و صرافی صنعت ومعدن (سهامی خاص),تهران,تهران,ولیعصر - خیابان تابان غربی - پلاک 62 - طبقه سوم - واحد 2,1968914317,,220214,1399/05/08,10102738849,232888,بانک صنعت و معدن,,
u10102865943,شرکت صرافی امید سپه (سهامی خاص),تهران,تهران,کشاورز، خیابان شهید محمد شیخلر(ششم)، خیابان دکتر سید حسین فاطمی، پلاک 100، طبقه دوم,1415673743,22269616-22269623,224731,1399/07/01,10102865943,245956,نادر رنجبر,,
u10320743975,شرکت صرافی انصار (سهامی خاص),تهران,تهران,میدان فاطمی ،نبش جویبار، پلاک 41,1415893111,,346596,1400/11/02,10320743975,423264,فنآوران اطلاعات انصار,,
u10103813034,شرکت صرافی پارسیان (سهامی خاص),تهران,تهران,سعادت‌آباد، بلوار فرهنگ، نبش خيابان بيستم شرقي، پلاک چهار، طبقه چهارم,1997845819,,384979,1399/02/07,10103813034,263925,شرکت گروه مالي پارسيان,,
u10104000348,شرکت صرافی تجارت(سهامی خاص),تهران,تهران,بهار شیراز - خیابان بهار شیراز - خیابان دکتر علی شریعتی - پلاک 366 -طبقه همکف,1564968766,2177621013,193529,1399/07/14,10104000348,351682,,,
u10320620052,شرکت صرافی توسعه تعاون ( سهامی خاص),تهران,تهران,خيابان انقلاب، بعد از ميدان فردوسي، نرسيده به لاله‌زار، پلاک 608، کد پستي 1145698111,1145698111,,408282,1399/12/01,10320620052,411448,سعيد قاسمي نراقي,,
u10102682305,شرکت صرافی توسعه صادرات (سهامی خاص),تهران,تهران,تهران، خيابان خالد اسلامبولي، کوچه سيزدهم، پلاک 22,1513753411,2184369000,86717,1399/05/08,10102682305,227071,گروه راهبران اقتصادی آرمان,,
u14005505784,شرکت صرافی حکمت ایرانیان ( سهامی خاص),تهران,تهران,تهران، میدان آرژانتین، خیابان زاگرس، خیابان شهید راشل کوری(خیابان27)، پلاک6، طبقه اول,1514935663,2188776504,98/50996,1402/03/09,14005505784,484910,ناصر محسني,,
u10102906295,شرکت صرافی رفاه (سهامی خاص),تهران,تهران,خيابان وليعصر، نرسيده به پارک ساعي، بالاتر از پمپ بنزين، پلاک 2244، برج نگين، طبقه اول، شماره 101,1433893945,,39010,1400/02/07,10102906295,250139,نيما وطن پور,,
u10102741511,شرکت صرافی سامان (سهامی خاص),تهران,تهران,خيابان خالد اسلامبولي، خيابان هفتم، پلاک 11,1513737911,,334478,1399/12/15,10102741511,233157,شرکت کارگزاري بانک سامان,,
u10102683266,شرکت صرافی سپهر صادرات(سهامی خاص),تهران,تهران,تهران، خيابان فردوسي شمالي، مرکز تجارت جهاني فردوسي، طبقه منفي يک(بانک سنتر)، واحد شماره 9,1145683661,2166340634,346747,1399/05/27,10102683266,227167,,,
u10103689379,شرکت صرافی سرمایه (سهامی خاص),تهران,تهران,تهران، ميدان فردوسي، خيابان سپهبدقرني، پلاک9، پاساژ فرش عباسي، طبقه همکف، واحد 23,1586613131,88349957-75,132838,1399/05/26,10103689379,329598,تجارت الکترونيک سرمايه,,
u10320810830,شرکت صرافی سینا(سهامی خاص),تهران,تهران,خیابان شهید بهشتی پلاک 287 کدپستی 1513618111,1513618111,2188708670,77335,1399/02/17,10320810830,428695,,,
u10320208760,شرکت صرافی شهر(سهامی خاص),تهران,تهران,محله میدان ولی عصر - خیابان انقلاب اسلامی - خیابان ولی عصر - پلاک 1427 - ساختمان کیان پور - طبقه همکف,1591613134,,183000,1399/05/15,10320208760,371719,شرکت سرمایه گذاری شهر آتیه,,
u10320311482,شرکت صرافی فراز اعتماد ( سهامی خاص),تهران,تهران,خيابان مطهري، بين درياي نور و کوه نور، پلاک 229، طبقه همکف,1587618118,88540077,329801,1399/05/28,10320311482,382742,عباس پورخسروي,,
u10103581206,شرکت صرافی ملت(سهامی خاص),تهران,تهران,خيابان آفريقا(نلسون ماندلا)، نبش خيابان نوزدهم، پلاک 54,1517864911,42533000,211911,1399/10/30,10103581206,321010,محسن مشيري,,
u10102875397,شرکت صرافی ملی ایران(سهامی خاص),تهران,تهران,خیابان فردوسی ،بالاتراز خیابان کوشک،نرسیده به میدان فردوسی ،جنب بانک ملت،پلاک270,1131955914,2166758230,328698,1399/01/25,10102875397,246907,جمال امين,,
u10320491320,شرکت صرافی کارآفرین ( سهامی خاص),تهران,تهران,خيابان شهد بهشتي، خيابان احمدقصير، نبش خيابان يکم، شماره6، طبقه هشتم,1513636411,,315109,1399/10/30,10320491320,398864,ليزينگ کارآفرين,,
u10861226543,شفق و شرکا,آذربایجان شرقی,مراغه,خيابان دکتر بهشتي، روبري بانک سپه مرکزي، جنب پاساژ آيينه، پلاک 38,5514834918,4212228711,207270,1401/07/03,10861226543,2433,,,
u14005722078,شمس‌اله مرادی و شرکاء,کرمانشاه,کرمانشاه,ميدان آزادي - خيابان مدرس - مجتمع تجاري زيتون - طبقه دوم -پلاک 2/1,6713776987,8138257181,140010,1402/04/30,14005722078,19644,شمس الله مرادي,,
u14006527168,شهرام ابراهیمی و شریک,تهران,تهران,اســتان تهران، شــهر تهران، بلوار میرداماد، کوچه شنگرف، پــلاك35، ساختمان آفا,1548933111,2175423,58258,1400/11/01,14006527168,504807,صمد نعمتي,,
u10260681327,شهرام گلخندان و شرکا,اصفهان,اصفهان,سپاه، کوچه بازار رنگرزها(4)، خیابان حکیم، پلاک 40، مجتمع پردیس، طبقه همکف، واحد 10,8147748584,3132236227,69054,1401/02/13,10260681327,49763,شهرام گل خندان,,
u10861910840,شهرزاد محمدی محمدی و شرکاء,اصفهان,نائین,محله غدیر، کوچه شماره یک، خیابان شهرداری، پلاک 42، طبقه همکف,8391885360,3146257574,152978,1402/05/07,10861910840,662,محمود محمدي محمدي,,
u10860238939,شهره رنجبر و شرکا,کرمان,کرمان,کرمان، بلوار جمهوري اسلامي، چهارراه فرهنگيان، ساختمان هتل بين‌المللي پارس، طبقه همکف، غرفه صرافي شرکت تضامني شهره رنجبر و شرکاء,7618846117,3412119360,288318,1402/08/19,10860238939,6611,شهره رنجبر,,
u14007796342,شهریار دربانی و شرکاء,تهران,تهران,خیابان فردوسی - نرسیده به میدان فردوسی - کوچه تمدن - مجتمع تجاری و اداری تمدن - طبقه همکف - واحد 6,1131944696,22709696,221354,1399/06/31,14007796342,530489,شهريار درباني,,
u14007743881,شهناز حاجی بدلی و شریک,تهران,تهران,محله میرداماد - خیابان نیک خو - خیابان شهید امیر سهیل تبریزیان - مجتمع تجاری رز میرداماد - طبقه همکف - واحد 23 - کدپستی:1919993488,1919993488,26401607,245551,1399/07/15,14007743881,529239,شهناز حاجي بدلي,,
u10862014670,شکوری و شرکا,آذربایجان غربی,سلماس,ميدان شهيد ابراهيم داهيم ، نرسيده به مجتمع تجاري مادر ، روبروي مشاور اسکان ناصري,5881656356,5247648,195013,1401/06/25,10862014670,615,عبداله شكوري,,
u10220190845,صاحبعلی دولخانی وشرکا,آذربایجان غربی,ارومیه,خیابان مطهری، راسته دوشابچی خانه-پلاک20,5718696857,,420374,1400/12/26,10220190845,13892,,,
u10380394943,صادق النجاه وشرکا,خراسان رضوی,مشهد,خيابان دانشگاه ، بین دانشگاه 17 و 19 ، جنب هتل صدر ، پلاک 311,9138854514,,270753,1401/08/25,10380394943,24055,علي رضا صادق النجاة,,
u14005520550,صادق پرنده افشار و شرکا,کرمان,کرمان,ميدان ارگ ، مغازه پنجم، بعد ازکوچه گلبازخان،,7613983961,3432224094,273174,1399/10/01,14005520550,14081,,,
u10862045014,صادق پور پوریا وشرکاء,گلستان,گرگان,خيابان وليعصر (عج)، عدالت 23، نبش پاساژ ايرانشهر.,4917747986,1732321292,179978,1399/07/05,10862045014,5020,ربابه صادق پورملك ميان,,
u10103889386,صادقی کیوی و شرکا,تهران,تهران,خ فردوسي شمالي ، بالاتر از چهارراه کوشک پلاک 248(274قديم),1131944549,66741117-66709035,48897,1401/02/23,10103889386,343466,عبدالكريم صادقي كيوي,,
u14007087758,صالح مقنی و شرکاء,تهران,تهران,میرداماد، خیابان نساء، پلاک139، مجتمع تجاری پاسارگاد، طبقه اول، واحد40,1911618891,2126404035,420297,1399/12/01,14007087758,515868,محمدباقر تجویدی,,
u10980193852,صالحی قشمی و شرکا,هرمزگان,قشم,خيابان فلسطين، مجتمع فردوسي، طبقه همکف، پلاک 2114,7951125436,7635244416,36224,1400/02/08,10980193852,2984,عبداللطيف صغير قشمي,,
u10720122571,صالحی و شرکا,گیلان,آستارا,خيابان امام، بازار سعيد، طبقه اول، شماره 33,4391734614,1825219904,79990,1401/03/20,10720122571,1093,رامين صالحي,,
u10980272430,صالحیه وشرکا,آذربایجان غربی,مهاباد,خيابان طالقاني شرقي ، چهار راه ميدان آرد,5913799437,,62599,1402/02/30,10980272430,930,,,
u10760334829,صرافی بخشی وشرکا,مازندران,ساری,خيابان فرهنگ ، ابتداي کوي پيوندي ، ساختمان امرالهي طبقه اول,4818867916,3268458-59,54810,1400/03/22,10760334829,5905,,,
u10862122460,صرافی بهزاد غلامی و شرکاء,خوزستان,بهبهان,انتهاي خيابان عدالت، نبش کوچه گلستان، کد پستي 6316845816,6361845816,,41141,1399/02/21,10862122460,2589,بهزاد غلامي,,
u14008641889,صرافی شرکت تضامنی محمدجهان معاضدی و شرکاء,خوزستان,اهواز,استان خوزستان ، شهرستان اهواز، محله کیانپارس، خیابان چهارم غربی (شهید منتظری) ، بلوار شهید چمران ، پلاک 234، طبقه همکف. کد پستی : 6155833389,6155833389,6133377771,401110,1400/11/01,14008641889,50233,محمدجهان معاضدي,,
u14005938693,صرافی فرشید نوبخت و شرکا,تهران,تهران,تهران خیابان شهید بهشتی بین ورودی مدرس وبخارست پلاک 273,1514617611,,344972,1400/09/20,14005938693,493855,صلاح الدين نوبخت,,
u10103711970,صفات و شركا,تهران,تهران,تهران، خيابان ميرداماد، خ رودبار غربي، ميدان مادر، پلاک 51، طبقه همکف,1911935471,2122906980,98/10171,1399/05/15,10103711970,239453,مژگان صفات,,
u10860874663,صفار نژاد وشرکا,خوزستان,اهواز,خیابان آزادگان، بین خیابان امام خمینی و خیابان سیروس، مقابل مرکز مخابرات، پلاک12/10,6193973495,6132236766,100046,1401/04/04,10860874663,22407,داود صفارنژاد,,
u14008708408,طاهر قادری و شرکاء,آذربایجان غربی,پیرانشهر,استان آذربايجان غربي ، شهر پيرانشهر، محله فرهنگيان(2) ، خيابان لاوان پاداش ، خيابان قدس ، پلاك 511 ، طبقه اول- کد پستی 5781717344,5781717344,,410629,1400/12/01,14008708408,925,طاهر قادري,,
u10102559943,طاهری وشرکا,تهران,تهران,تهران، ونک، خيابان دفينه، خيابان شهيد عليرضا دامن‌افشار، پلاک 49، مجتمع آبشار، طبقه اول، واحد5,1969765157,88679344-6,340716,1399/11/21,10102559943,214596,مرضيه طاهري زنگكاني,,
u14008553758,طیب صدیقی و شرکاء,فارس,شیراز,شیراز محله رودکی خیابان ایزدی خیابان سعدی پلاک صفر طبقه همکف,7135817469,,344971,1400/10/01,14008553758,51000,طيب صديقي,,
u10861527558,ظفرکیش و شرکا,هرمزگان,کیش,بازار زيتون ، واحد 81,7941896133,7644424997,333333,1399/11/14,10861527558,4390,,,
u14005397142,عاطفه عباسلو و شرکا,کرمان,سیرجان,استان کرمان، شهرستان سیرجان ،چهارراه‌اشکزری،نبش بلوار دکتر صادقی، جنب نشریه نگارستان ، پلاک 2,7813613989,3442206141,243367,1402/07/15,14005397142,3922,عاطفه عباسلو,,
u10103502711,عباس جوانیان و شرکاء,تهران,تهران,خيابان جمهوري اسلامي، بعد از خيابان سي تير، پلاک548,1135853748,2166702000,199661,1400/06/24,10103502711,310795,عباس جوانيان,,
u14007423790,عباس حبیب پور و شرکاء,تهران,تهران,خيابان آيت اله طالقاني-خيابان شهيد سيد عباس موسوي-پلاك 74-طبقه همكف,1581737616,2188843082,289435,1399/08/20,14007423790,523025,عباس حبيب پور,,
u14008702149,عباس خازنی و شرکاء,تهران,تهران,محله میرداماد، خیابان نیک خو، خیابان شهید امیرسهیل تبریزیان مجتمع تجاری رز میرداماد A10، طبقه 12، واحد 5,1919991997,2126402530,98/398922,1400/11/10,14008702149,548920,عباس خازني,,
u14007891344,عباس قاسمی راد و شرکاء,آذربایجان غربی,ارومیه,ارومیه ، خیابان استادان ، نبش کوچه هشتم ، مجتمع پردیس ، طبقه همکف ، پلاک 15 ، کدپستی 5715843622,5715843622,,201463,1400/06/10,14007891344,0,مدينه قاسمي راد,,
u14008155068,عباس لعلی و شرکاء,همدان,همدان,شهرستان همدان، بخش مرکزی، شهر همدان، میدان جهاد، خیابان بوعلی سینا جنوبی، پلاک 524 طبقه همکف.,6515693369,8138253611,137858,1400/04/26,14008155068,13617,عباس لعلي,,
u14005549919,عباس نخیلی و شریک,فارس,شیراز,چهارراه زند- خيابان سعدي- روبرو سينما حافظ-مغازه هشتم- جنب پلاک 16,7135817349,32222223-4,112256,1402/04/07,14005549919,43385,محمدرضا عطائي كشكولي,,
u10320190276,عباسعلی قاسمی وشرکا,تهران,تهران,خ پاسداران ، پايين ترازفرمانيه، مرکز خريد تجاري کوهستان، پلاک 684، طبقه همکف، واحد21 -,1953775395,22280044,94386,1400/03/26,10320190276,369400,,,
u10320395425,عباسی و شرکا,تهران,تهران,زعفرانیه‏- خیابان مقدس اردبیلی‏- روبروی مرکز خرید پالادیوم‏-پلاک81,1986813153,2126708722,248530,1400/08/08,10320395425,389167,حسين عباسي,,
u14005800190,عبدالامیر صداقت و شرکا,خوزستان,آبادان,آبادان ، خيابان دبستان، بازار مرکزي، طبقه همکف، راهرو اول، پلاک 22,6316898861,6153224879,314663,1402/09/08,14005800190,7165,,,
u14006018046,عبدالباسط قادری و شرکا,کردستان,بانه,بانه- بلوار حبشی- چهارراه صالح آباد- طبقه فوقانی پلیس+10,669198468,8754221062,102813,1400/11/01,14006018046,769,حسن غفوريان,,
u14007231938,عبدالجلیل مزارعی وشرکاء,فارس,شیراز,استان فارس -شهرستان شیراز - بخش مرکزی - شهر شیراز - پارامونت - بلوار کریمخان زند - خیابان انوری - پلاک 0 - مجتمع تجاری مهستان - طبقه همکف - واحد 8 - کدپستی 7135676599,7135676599,7132311143,124065,1399/04/16,14007231938,47585,علي مزارعي,,
u14006932976,عبدالحامد معتمدیان و شرکاء,تهران,تهران,میدان شوش خیابان فدائیان اسلام کوچه نوزدهم پلاک 19 طبقه سوم,1187877884,2155187048,187647,1400/06/01,14006932976,512903,عبدالحامد معتمديان,,
u14006102247,عبدالحمید فخر براهوئی و شرکاء,سیستان و بلوچستان,زاهدان,زاهدان، تقاطع خيابان امام خميني و ازادي، پاساژ فيروزه، طبقه همکف واحد 10,9813688391,5433435586,313807,1399/03/10,14006102247,6867,عبدالحميد فخر براهويي,,
u14007940940,عبدالحمید مدرس و شرکاء,تهران,تهران,تیموری - کوچه اشتری - کوچه مینا - پلاک 2 - طبقه دوم - واحد 3,1458833855,22371438,350021,1399/10/04,14007940940,533762,,,
u10800097033,عبدالرحمن محمودی وشرکا,هرمزگان,بندرعباس,خيابان امام‌خميني ، چهارراه بلوکي ،مجتمع تجاري زيتون ، پلاک 120,7917776878,,182513,1400/06/08,10800097033,6919,عبدالرحمن محمودي,,
u10530302129,عبدالرزاق رنجبر وشرکا,فارس,شیراز,خیابان کریم خان زند، چهارراه زند، ابتدای خیابان سعدی، پلاک8,7135817547,2227258,221900,1401/07/18,10530302129,18046,عليرضا رنجبر,,
u14007631116,عبدالرضا انجامی و شرکاء,تهران,تهران,جردن. بلوار نلسون ماندلا. خیابان عاطفی شرقی. پلاک ۲۴ طبقه اول واحد۱۰۴,1917773587,2122654703,105856,1399/04/03,14007631116,526979,سميرا ماهوتچي,,
u10860456130,عبدالرضا حیدری و شرکا,فارس,لامرد,خیابان بسیج ، روبروی بانک ملی ، پلاک 13,7434153169,,86159,1400/03/19,10860456130,713,,,
u14005491348,عبدالرضا و رضیه محمدپور فلاحیان,فارس,شیراز,خیابان پاسداران ، نبش کلاهدوز ، ساختمان سارا و آیدا,7185695891,7138477509,246973,1402/07/17,14005491348,271042,رضيه محمدپورفلاحيان,,
u14007678450,عبدالرضا وفابخش و شرکاء,تهران,تهران,تهران، بخش مرکزي، شهر تهران، ونک، خيابان دفينه، خيابان شهيد عليرضا دامن افشار، پلاک 61، مجتمع پايتخت، بلوک B، طبقه ششم، واحد 604,1969765697,2188673993,332889,1399/09/21,14007678450,527800,عبدالرضا وفابخش,,
u14006773096,عبدالغفور شابازپور و شرکاء,تهران,تهران,خیابان ولیعصر، خیابان مهرداد، خیابان سایه، پلاک 18، طبقه اول، واحد شماره یک,1967735611,2126207401,36990,1399/02/10,14006773096,509574,عبدالغفور شابازپور,,
u14007783759,عبدالمحمد سانیری و شرکاء,تهران,تهران,محله امانیه - خیابان گلستان - بلوار نلسون ماندلا - پلاک 248 - پاساژ الهیه - طبقه اول - واحد 60,1966743813,2126211756,220418,1399/06/27,14007783759,530179,عبدالمحمد سانيري,,
u10861343983,عبدالناصر احمدی وشرکا,آذربایجان غربی,پیرانشهر,خیابان بهشتی‏- روبروي کلانتري 11 –,5781854981,4444236405,309952,1400/10/01,10861343983,486,عبدالناصر احمدي,,
u10980022100,عبداله آشناور وشرکا,آذربایجان غربی,پیرانشهر,خيابان شهيد دکتر بهشتي ، جنب بانک رفاه ، روبروي هلال احمر ، بازارچه مرزي,5781845356,4444220023,81201,1401/03/20,10980022100,234,کمال آشناور,,
u14000116086,عبداله بهرامی آذر و شرکاء,آذربایجان غربی,بوکان,خیابان انقلاب، ميدان انقلاب، جنب بانک مسکن,5951834468,4446234120,208655,1400/07/03,14000116086,840,عبداله بهرامي آذر,,
u10200239128,عبدیان وشرکا,آذربایجان شرقی,تبریز,خيابان دارائي ، پاساژ امير نو ، سراي امير ، پلاک 16/1، طبقه همکف,5134833719,5245335,198586,1400/06/23,10200239128,18319,احمدرضا عبديان,,
u14006944480,عدنان خواجه حسنی و شرکاء,تهران,تهران,تهران، خیابان شهید سروش الدین تقوی، خیابان فردوسی، پلاک 479، ساختمان مرکز تجارت جهانی فردوسی، طبقه همکف، واحد 18,1145683698,2166340693,313820,1399/09/10,14006944480,513105,فرزانه شهيدي,,
u14002971986,عزیز رحمانی و شرکا,کرمانشاه,قصرشیرین,بازارچه مرزی پرویز خان,6781141139,,236926,1400/07/27,14002971986,639,عزيزخان محمدمرادي,,
u10320846269,عزیزنجف‌زاده وشركا,تهران,تهران,خیابان 15خرداد، روبروی مسجد عرب‌ها، پاساژ بهروز، طبقه 2، واحد 42,1191745436,2155895891,110155,1401/04/14,10320846269,433855,سجاد نجف زاده گجوتي,,
u10103707514,عزیزی قمشه و شرکاء,تهران,تهران,خيابان ميرداماد، ميدان مادر، پلاک 3,1546933371,26409100,420873,1400/12/28,10103707514,332968,,,
u10861382767,عطاا...دلیری وبرادران,آذربایجان شرقی,جلفا,خ پل چوبي ، روبروی بانک تجارت,5441651542,4923022118,399805,1400/12/11,10861382767,280,عطااله دليري,,
u10860147877,عظیمی و شرکا,قم,قم,خيابان ارم ، مقابل حرم مطهر ، پلاک 786,3715796198,37743144,402682,1400/12/14,10860147877,8032,ناصر عظيمي كيا,,
u14007190130,علی آریاپور و شرکاء منطقه آزاد ماکو,آذربایجان غربی,منطقه آزاد ماکو,شهر بازرگان، خیابان امام(ره)، مجتمع آرارات، طبقه همکف، واحد 11، پلاک 1330,5867148651,4434378288,393890,1400/10/20,14007190130,3652,سليمان آرياپور,,
u14006286170,علی ابریشم کار اصفهانی و شرکا,تهران,تهران,تهران، خ شریعتی نرسیده به پل صدر پلاک 1700,1914744714,22609886,388182,1400/11/01,14006286170,500695,علي ابريشم كاراصفهاني,,
u14008561161,علی احمدی رهبریان و شرکا,قم,قم,قم، بلوار بسیج، بسیج 4(رجایی 5)، پلک 1، طبقه همکف,3715815353,,98/406878,1400/11/20,14008561161,16716,علي احمدي رهبريان,,
u10530499750,علی اصغر علیزاده و شرکاء,فارس,شیراز,شيراز-خیابان معالي آباد- بين پزشکان و خلبانان - مجتمع تجاري ثنا- صرافي عليزاده,7187731855,7136342402,104793,1401/04/11,10530499750,37515,,,
u10103662544,علی اصغرجوانیان و شریک,تهران,تهران,خيابان فردوسي، نرسيده به چهارراه استانبول، روبروي‌ سفارت ترکيه، پلاک 164,1135937544,66701212,150459,1400/05/13,10103662544,327689,علي اصغر جوانيان,,
u10320871633,علی امیرمنش و شریک,تهران,تهران,خیابان شهید بهشتی ، خیابان صابونچی ، بین کوچه دوم و چهارم ، پلاک 12,1533612345,9121180871,240743,1401/08/02,10320871633,438769,علي اميرمنش,,
u14006859595,علی امینی و شرکاء,تهران,تهران,تهران، صادقيه، فلکه دوم صادقيه، خيابان ستارخان، پلاک1180، طبقه همکف,1451793453,44245439,188489,1400/05/20,14006859595,511302,فاطمه احمدي,,
u10200397396,علی اکبر عباسی و شرکاء,آذربایجان شرقی,تبریز,شهر تبريز، وليعصر ، خيابان سعدي شمالي ، بلوار وليعصر، پاساژ وليعصر ، پلاك 17 ، طبقه همكف,5157813815,,329820,1399/11/05,10200397396,31558,مهري جعفرنژادعثماونداني,,
u14007777232,علی بختیاری زاده و شرکاء,تهران,تهران,پیچ شمیران - کوچه سعید نفیسی - خیابان انقلاب اسلامی -پلاک 408 - ساختمان تدین - طبقه 5,1148873618,77532781-77536622,190723,1400/06/01,14007777232,530014,شادي عباس پور,,
u10980265861,علی بخشی و شرکا,البرز,کرج,جهانشهر، خيابان شهيدبهشتي ، طبقه اول ، پلاک 1459,4145655354,2612222332,250301,1401/04/03,10980265861,14504,محمود علي بخشي,,
u10862080362,علی پور و شرکاء,هرمزگان,کیش,بازار پانيذ ، طبقه دوم ، واحد 14,7941895648,7644423888,200600,1400/06/24,10862080362,8351,محمود علي پور,,
u10320838344,علی ترکاشوند و شریک,تهران,تهران,نیاوران-تقاطع کامرانیه-روبروی شهر کتاب -پ120,1936975413,22800845,321908,1400/10/11,10320838344,432489,,,
u14005290758,علی جهانگیری موانه و شریک,تهران,تهران,تهران، میرداماد، خیابان شاه‌نظری، پلاک44،طبقه اول ، واحد7,1547935146,2122871717,221380,1399/06/31,14005290758,480630,آيدين هناره,,
u10320846691,علی جوادی و شریک,تهران,تهران,تهران، محله میرداماد، خیابان نیک خو، خیابان شهید امیر سهیل تبریزیان، پلاک صفر، مجتمع تجاری رز میرداماد، طبقه همکف، واحد 30,1919993497,,98/10694,1400/09/07,10320846691,434153,علي جوادي,,
u10320830030,علی زارعی و شریک,تهران,تهران,خيابان ملاصدرا، خ شيخ بهايي، کوي عرفي شيرازي، پلاک 4,1993645543,22343144,373588,1399/12/15,10320830030,431201,پيمان حبيبي,,
u14007811709,علی صیادی زاده و شرکاء,تهران,تهران,تهران - محله کوی نصر- خیابان شهید مهدی ناظریان قمی- خیابان جواد فاضل شمالی - مجتمع تجاری نصر - طبقه اول - واحد 234.2,1446613989,2188243030,325557,1399/08/24,14007811709,530839,ايوب صيادي زاده,,
u14008037176,علی عالی زاده و شرکاء,اردبیل,اردبیل,اردبیل، محله بازاررگران، بلوار آیت اله مروج اردبیلی، بن بست بازار جدید طلافروشان، پاساژ بازار جدید طلافروشان ، طبقه اول، پلاک 117,5614631887,,189427,1400/05/20,14008037176,14258,,,
u10103896910,علی عظیمی وشرکا,تهران,تهران,ميدان فردوسي ، ضلع جنوب شرقي ، پلاک 1,1145693135,66721817,209039,1400/07/03,10103896910,344572,شهروز عظيمي كلخوران,,
u14007419910,علی عینی و شرکا,تهران,تهران,تهران خیابان ولیعصر(عج) خیابان شهید ناصری بلوار نلسون ماندلا پلاک 124 طبقه همکف,1968633933,2188781713,46024,1398/12/14,14007419910,522966,علي عيني,,
u14005848332,علی فرجی دانا و شرکا قشم,هرمزگان,منطقه آزاد قشم,استان هرمزگان، منطقه آزاد قشم، محله اما قلی خان، بلوار دریا،مجتمع سیتی سنتر 1 ، پلاک 1335، طبقه همکف.,7951619438,7635211070,11344,1400/11/01,14005848332,5509,علي فرجي دانا,,
u10861791162,علی قاسمی وشرکا,آذربایجان شرقی,جلفا,خ پل چوبي ، جنب موسسه قوامين ، پاساژ هاشم پور(نیلوفر آبی) ، پ1,5441656638,4142024025,63062,1401/03/02,10861791162,317,علي قاسمي,,
u14006271998,علی لاریجانی فیروز و شركا,تهران,تهران,تهران خيابان فردوسی، نبش خیابان منوچهری، پلاک 221,1145613139,2166727900,152438,1400/05/01,14006271998,500418,رمضان مشايخ فيروزكلائي,,
u14007715476,علی متشکری و شرکاء,تهران,تهران,استان تهران - شهرستان تهران - بخش مرکزی - شهر تهران - محله میرداماد - خیابان نساء - بلوار میرداماد - پلاک 139 - مجتمع پاسارگاد - طبقه همکف - واحد 7,1911618857,2126403796,247144,1399/07/17,14007715476,528591,سعيد محمدپور,,
u10320870248,علی مددخانی و شرکاء,تهران,تهران,آدرس کيلومتر 30 بزرگراه خليج فارس، شهر فرودگاهي امام‌خميني(ره)،ترمينال مسافري شماره يک، سالن پروازهاي خروجي، قبل از سالن ترانزيت,1838143760,2122728344,102122,1400/11/01,10320870248,438875,علي مددخاني,,
u14007098354,علی مصدق‌مقدم و شرکاء,مازندران,ساری,ساري، قارن، کوچه قارن 2، خیابان ایت اله کاشانی(قارن)، پلاک0 ، ساختمان آراد، طبقه اول، واحد1,4818648463,,98/392682,1400/02/01,14007098354,14466,علي مصدق مقدم,,
u14006222563,علی نائیج حقیقی و شرکاء,تهران,تهران,خيابان نيک‌خو، خيابان شهيد امير سهيل تبريزيان، مجتمع رز ميرداماد A9، طبقه 11، واحد 7,1919991989,2126404571,10427,1400/11/01,14006222563,499492,علي نائيج حقيقي,,
u14005747033,علی نیازی و شرکاء,تهران,تهران,خیابان جمهوری بعد از سی تیر جنب ساختمان جعفری پلاک 570,1135835189,66711816,379266,1400/10/30,14005747033,489778,علي نيازي,,
u14007306025,علی ویسی و شرکا,کردستان,بانه,شهرداری، میدان آزادی ، خیابان شهداء ، روبروی بانک سینا,6691918449,,427611,1398/12/28,14007306025,834,علي ويسي,,
u10103392228,علی یزدی و شرکا,تهران,تهران,تهران، بخش مرکزي، تجريش، خيابان شهرداري، کوچه بعثت، پلاک 22، پاساژ قائم، طبقه سوم، واحد 114,1963645814,88208070,208086,1400/09/06,10103392228,302610,علي يزدي,,
u14007623662,علی‌اکبر جلیلی و شرکاء,کرمانشاه,کرمانشاه,استان کرمانشاه-شهرستان کرمانشاه خیابان آیت اله کاشانی میدان آیت اله کاشانی پاساژ حافظ طبقه همکف,6713963448,8337214288,220226,1399/06/27,14007623662,21241,علی اکبر جلیلی,,
u10320711800,علیرضا اسدی کرم و شرکاء,تهران,تهران,خيابان وليعصر - روبروي پارک ملت - بازارچه صفويه - طبقه همکف - واحد 7,1967754383,2122015532,43581,1400/02/14,10320711800,419616,عليرضا اسدي کرم,,
u10220155535,علیرضا جنت دوست و شرکا,آذربایجان غربی,ارومیه,خيابان استاد برزگر ساختمان اکباتان طبقه همکف ، پلاک 3/125,5714638777,441223007,119712,1400/04/19,10220155535,10542,عليرضا جنت دوست,,
u14007628496,علیرضا حسین پور و شرکاء,آذربایجان شرقی,تبریز,استان آذربایجان شرقی - شهر تبریز - بازار - کوچه حیاط امیر - بن بست تیمچه امیر نو - پلاک 17 - طبقه همکف,5134833681,4135246360,214427,1399/06/22,14007628496,46772,علي رضا حسين پور,,
u14005810365,علیرضا حشمتی و شرکاء,تهران,تهران,خيابان جمهوری اسلامي - نرسيده به چهارراه استانبول - نبش کوچه شيرواني - پلاک 476,1135935335,66709207,12654,1400/11/01,14005810365,491171,عليرضا حشمتي,,
u14007738580,علیرضا حمیدی نیا و شرکاء,تهران,تهران,تهران، محله دانشگاه تهران، خيابان دمشق، خيابان ولي‌عصر، پلاک 1586، مجتمع تجاري اداری ايران 252، طبقه سوم، واحد 321,1416794138,2188854103,170055,1399/05/18,14007738580,529141,علي پيشرو,,
u10102515956,علیرضا رجایی و شرکاء,تهران,تهران,خيابان فردوسي ، روبروي سفارت ترکيه واحد170، طبقه اول ، واحد 5 پلاک 150 جديد,1135937558,2166717152,152508,1399/09/01,10102515956,210105,محمدعلي رجائي,,
u14006352432,علیرضا رسول زاده و شرکا منطقه آزاد ارس,آذربایجان شرقی,منطقه آزاد ارس,جلفا، خیابان امام خمینی، خیابان ولایت فقیه، پاساژ امیر، پلاک6 طبقه همکف,5441651455,4133360404,379330,1400/10/10,14006352432,5873,محمد حسن پورگوزلي,,
u14005917752,علیرضا رضازاده و شرکاء,گیلان,رشت,گيلان، رشت، خيابان شيک، راسته زرگرها، پلاک 2686,4133746985,2237642,443331,1400/11/01,14005917752,19847,كامليا رضازاده,,
u14008444929,علیرضا سیری و شرکاء,تهران,تهران,استان تهران ، شهرستان تهران ، بخش مرکزي ، شهر تهران، آرژانتین-ساعی ، خیابان شهید احمد قصیر ، خیابان شهید دکتر بهشتی ، پلاك 283 ، ساختمان نگین آزادي ، طبقه چهارم ، واحد غربی,1513616831,2188482820,190717,1400/06/01,14008444929,543555,كاوه كريمي,,
u14008087962,علیرضا مریمی و شرکاء,خراسان رضوی,مشهد,پایین خیابان - کوچه تاجرها - خیابان نواب صفوی - پلاک 0 - ساختمان امین - طبقه اول - واحد 444,9154665497,5133682367,111385,1400/04/05,14008087962,66895,,,
u14007224007,علیرضا ناظری نسب و شرکا,خراسان رضوی,مشهد,مشهد-خیابان شیرازی2-بازار توس پلاک 219,9134735448,5132228672,77154,1399/03/08,14007224007,63137,عليرضا ناظري نسب,,
u14006046320,علیرضا نصوحی و شرکا,اصفهان,مبارکه,خیابان هفده شهریور-روبروی سه راه منتظری-جنب فرش رضا,8481815447,3152412799,276399,1399/10/01,14006046320,2049,سودابه صادقي دهنوي,,
u14007394554,علیرضا وثوق شریفی و شرکا,گیلان,آستارا,استان گيلان، شهرستان آستارا، بخش مرکزي، شهر آستارا، بازارچه، کوچه بازارچه، کوچه عميدي، پلاک 0، پاساژ عميدي، طبقه اول,4391845680,1344816805,152341,1400/05/01,14007394554,2261,عليرضا وثوق شريفي,,
u10380536522,علیرضا کاظمی و شرکاء,خراسان رضوی,مشهد,خيابان پاسداران ، جنب سينما قدس ، محل ساختمان هتل جم,9137833479,5138556180,311046,1399/10/27,10380536522,38016,هانيه كاظمي,,
u14005920370,علیرضاحداد‌طهرانی و شرکاء,تهران,تهران,خیابان جمهوری -نرسیده به چهارراه استانبول- مقابل خیابان بابی ساندز-پاساژ ارمان- پلاک9,1135856753,66749205,236271,1402/07/09,14005920370,493483,مجيد حدادطهراني,,
u10980021605,عنایتی و شرکاء,آذربایجان غربی,مهاباد,خيابان سيدنظام ، سراي کريم خان ، پلاک 14,5913798359,,22992,1400/01/29,10980021605,1200,پيمان فروزان فر,,
u14006081115,غالب بیاتی و شرکاء,تهران,تهران,چهارراه گلوبندک، سبزه میدان، پاساژ خازنی، پلاک 6/1,1161837583,2155697809,394963,1398/12/07,14006081115,496650,غالب بياتي,,
u10320181895,غلامحسین اسدی وشرکا,تهران,تهران,میدان نوبنیاد، خیابان شهید لنگری، ساختمان یاس، طبقه همکف.,1957975947,2126453038,311047,1399/10/27,10320181895,369012,هادي صدرفضلائي,,
u14005391054,غلامحسین اسکردی و شرکاء,فارس,شیراز,خیابان طالقانی، پاساژ پارس، پلاک 14,7188836117,,367187,1401/11/14,14005391054,42932,محمد اسکردی,,
u14006626581,غلامرضا اسلامی مقدم و شرکا,گلستان,گنبدکاووس,گلستان-شهر گنبد كاووس-ميدان انقلاب-خيابان مطهري-خيابان خيام شمالي-پلاك 0-طبقه همكف,4971713981,,263731,1400/07/20,14006626581,6908,غلامرضا اسلامي مقدم,,
u10320825862,غلامرضا اسماعیل زاده و شرکا,تهران,تهران,"میدان پونک، مجتمع تجاری بوستان, بازار طلا، شبنم یک، پلاک 847",1476895369,2144499201,37707,1399/02/17,10320825862,430763,,,
u14005900008,غلامرضا دادخدایی و شرکاء,تهران,تهران,تهران، خیابان پاسداران ، پایین تر از سه راه اقدسیه، پلاک 780,1454745517,,190715,1399/09/01,14005900008,493008,نسيم زماني مقدم,,
u10320872537,غلامرضا رضوانی نژاد و شرکا,تهران,تهران,خ ولیعصر (عج) روبروی پارک ملت برج تجاری ملت پلاک 2605 طبقه اول واحد 61,1967713196,2122653515,70564,1402/03/03,10320872537,438957,غلامرضا رضواني نژاد,,
u14007523311,غیاثی و یادگارفرد و شرکاء,هرمزگان,بندرعباس,بخش مرکزی - شهر بندرعباس - بازار اوزیها - بلوار طالقانی - کوچه تجارت 5 -پلاک 7 - طبقه همکف,7917797689,7632225444,132608,1400/04/23,14007523311,18320,,,
u14007203974,فائزه بیات و شرکاء,تهران,تهران,داوودیه، کوچه کاظمیان، خیابان دکتر شریعتی، پلاک 1156، طبقه همکف,1913614615,,307784,1400/09/01,14007203974,518582,فائزه بيات,,
u14006911294,فاتح امینی نژاد و شرکاء,کردستان,بانه,استان كردستان - شهرستان بانه - شهر بانه - دبیرستان حجاب - استان کردستان - شهر بانه - دبیرستان حجاب - بلوار شهرداری - خیابان شهيد قادرخانزاده - پاساژ زيتون - طبقه اول - واحد 33 كد پستي:٦٦٩١٩٣٥101,6691935101,34222515,72159,1399/02/29,14006911294,819,فاتح اميني نژاد,,
u14007517310,فاطمه میرزائی و شرکاء,تهران,تهران,ولیعصر، بلوار نلسون ماندلا، خیابان سرو، پلاک 107، طبقه اول,1968958781,88656217-21,65119,1399/02/31,14007517310,525002,فاطمه ميرزائي يزني,,
u10200343273,فتح راضی و شرکا,آذربایجان شرقی,تبریز,خيابان دارائي ، سراي اميرنو، طبقه فوقاني، پلاک 23,5134837969,4115244726,260996,1399/09/14,10200343273,26234,بهروز فتحراضي,,
u14005848288,فخرالدین رضا زهی و شرکاء,سیستان و بلوچستان,زاهدان,خیابان آزادی، جنب بانک ملی، پاساژ براسان، واحد 10 موبایل دوم:0912378807,9813687889,,219133,1399/06/26,14005848288,6741,فخرالدين رضازهي,,
u10610105013,فرجاد و صادقی,کردستان,سنندج,استان کردستان- سنندج- خيابان فردوسي _ نبش هتل کاج _ پلاک 140- پاساژ کورپه _ طبقه همکف _,6613615185,,325556,1399/11/01,10610105013,7252,نادر فرجاد,,
u14008623347,فرحناز فرج زاده خویینی و شرکا,تهران,تهران,تهران، محله ميدان فردوسي ، خيابان شهيد سروش الدين تقوي ، خيابان فردوسي ، پلاك 479 ، ساختمان مركز تجارت جهاني فردوسي ، طبقه همكف ، واحد 78- کد پستی:1145683670,1145683670,2166342426,280171,1400/08/10,14008623347,547370,توحيد وكيل شعاررازليقي,,
u10103360602,فرخ زاده و شرکا,تهران,تهران,خيابان فردوسي ، بالاتر از چهارراه استانبول ، جنب پاساژ فردوسي ، پلاک285,1145818611,33960300,19479,1400/01/26,10103360602,298845,ابراهيم سيفي,,
u14008002450,فرزین رستمی و شرکاء,آذربایجان غربی,ارومیه,استان آذربایجان غربی - شهرارومیه - خیابان حسنی - نرسيده به تقاطع شورا، ساختمان سعيدي، طبقه همکف ، واحد 8,5715856980,4433439963,197817,1400/06/10,14008002450,17678,مقصود رستمي,,
u14007587648,فرهاد شیخ زاده و آذین و شرکاء,تهران,تهران,چهارراه استامبول - خیابان فردوسی - خیابان جمهوری اسلامی - پلاک 372 - ساختمان پروانه - طبقه اول - واحد 346,1144645318,2133987515,165728,1399/05/15,14007587648,526231,فرهاد شيخ زاده,,
u14005631723,فرهاد فروزان و شرکا,اصفهان,اصفهان,اصفهان خیابان ، حکيم نظامي، جنب بانک پارسيان، پاساژ سپاهان، طبقه همکف، مغازه مياني,8175678367,,442978,1400/11/01,14005631723,55702,نرجس ملكي پيكاني,,
u14008737282,فرهاد قادری و شرکاء,تهران,تهران,استان تهران ، شهر تهران، بلوار میرداماد بعد از مسجد الغدیر، مرکز خرید پاسارگاد، پلاک 139، طبقه اول، واحد 24 و کدپستي 1911618888,1911618888,,353315,1400/10/10,14008737282,549570,سميه داور,,
u10320283646,فرهاد قاره و شرکاء,تهران,تهران,خيابان فردوسي ، چهارراه استانبول ، روبروي سفارت ترکيه ، پلاک 154,1135937551,,70671,1400/03/05,10320283646,378841,فرهاد قاره,,
u14005176549,فرهاد قاضی زاده و شرکا,تهران,تهران,نارمک، میدان نبوت، خیابان جانبازان شرقی، پلاک495,1649616314,,414458,1401/12/20,14005176549,477799,فرهاد قاضي زاده اسلامي,,
u10220194630,فرهاد قدرتی و شرکاء,آذربایجان غربی,ارومیه,اروميه-خ امام خميني (ره)، روبروي بانک صادارت مرکزی,5713746975,4432248430,203837,1399/09/01,10220194630,14238,فرهاد قدرتي,,
u14005604416,فرهادنظری و شرکا,آذربایجان غربی,ارومیه,ارومیه خیابان کاشاني، روبروي ساختمان بانک صادرات، پلاک 9,5714615155,4432259797,238427,1402/07/11,14005604416,15928,فرهاد نظری,,
u10861996856,فرهمندی و شرکا چابهار,سیستان و بلوچستان,منطقه آزاد چابهار,مجتمع تجاري صدف ، طبقه اول ، پلاک 629,9971767196,88317650,291504,1400/09/15,10861996856,1278,,,
u10861824554,فروغی وشرکا,اردبیل,مشگین شهر - اردبیل,خيابان امام خمینی روبروي بانک ملي شعبه بازار,,,371751,1399/11/01,10861824554,956,اسحق علي فروغي,,
u10200331720,فضل آذر شربیانی و شرکا,آذربایجان شرقی,تبریز,خ جمهوري اسلامي ، اول بازار امير ، دست راست، تيمچه امير پلاک 125,5134838841,,100757,1399/04/21,10200331720,25133,سيداحمد فضل آذرشربياني,,
u10102860647,فلاطون زاده و شرکا,تهران,تهران,بلوار کشاورز، بين خيابان وفلسطين و ميدان وليعصر، ساختمان 50، واحد5,1476763387,,24360,1400/01/30,10102860647,245400,,,
u10380440943,فنودی و شرکا,خراسان رضوی,مشهد,بلوار سجاد ، حاشيه بزرگمهرشمالي 2 ، نبش پاساژ ولي زاده مقابل هتل آران,9187813711,7618353,31356,1401/02/09,10380440943,28828,غلامرضا قاضي زاده,,
u10860166136,فهمی و شرکا,خوزستان,خرمشهر,ميدان شهداابتداي خيابان شهدا(جنب نانوايي ) پلاک 41,6416754987,6153513206,145401,1400/05/10,10860166136,2595,فاطمه فهمي,,
u10420243522,فواد مجیدی و شرکاء,خوزستان,آبادان,استان خوزستان - شهرستان آبادان - بخش مركزي - شهر آبادان-گمرك-خيابان فرعي 10-خيابان امام-پلاك 284-طبقه همكف,6316814664,,394099,1399/11/01,10420243522,4388,فؤاد مجيدي,,
u10103708330,قاسم‌زاده و شرکا,تهران,تهران,چهاراه استانبول، خیابان جمهوری اسلامی ، خیابان فردوسی ، پلاک 218، طبقه همکف .,1145834557,2133900505,273178,1399/10/01,10103708330,332786,فرهاد قاسم زاده خشگرودي,,
u10530299947,قاسمی فرد وشرکا,فارس,شیراز,چهارراه زند ، حد فاصل کوچه پارک هتل و چهارراه زند,7136615817,2223092 - 2223751,137167,1399/05/28,10530299947,17823,کاظم قاسمي فرد,,
u14007861813,قباد گرگیج و شرکاء منطقه آزاد چابهار,سیستان و بلوچستان,منطقه آزاد چابهار,مجتمع تجاری صدف - طبقه اول - واحد شماره 603,9971767173,5435314131,154865,1400/05/01,14007861813,3401,قباد گرگيج,,
u10220138539,قربان جلیلی و شرکا,آذربایجان غربی,ارومیه,خيابان امام ، روبروي صنایع دستی ، جنب پاساژ نقش جهان، پلاک 573,571371586,4412252825,203349,1401/07/01,10220138539,9007,قربان جليلي,,
u14005760133,قربان نصیری صادقلو و شرکاء,تهران,تهران,خيابان ولي عصر - نرسيده به سه راه توانير - مجتمع تجاري طلوع - پلاک 2490,1434853885,88203131,176335,1402/05/23,14005760133,490119,قربان نصيري صادقلو,,
u10103468100,قربانعلی بیک و شرکا,تهران,تهران,خيابان فردوسي شمالي ، نرسيده به ميدان فردوسي ، سمت راست ، پلاک 579,1145684311,66715326,420749,1400/12/28,10103468100,309074,مهدي قربانعلي بيک,,
u14007654823,قرنی احمد آقائی و شرکاء,آذربایجان غربی,پیرانشهر,استان آذربایجان غربی - شهرستان پیرانشهر - بخش مرکزی - شهر پیرانشهر - محله فلکه 22 بهمن - خیابان 2 خرداد - خیابان قدس - پلاک 41 - طبقه همکف,5781843417,4444238351,158458,1399/05/10,14007654823,849,قرني احمدآقائي,,
u14000162470,كریمی دریک و شرکا,البرز,کرج,نرسيده به ميدان شهدا ، خيابان مظاهري ، مقابل مسجد وليعصر پلاک 265,3134913636,6212209401,81194,1401/03/20,14000162470,16163,وحيد كريمي رزكاني,,
u10240085858,گرده وشرکا,اردبیل,اردبیل,خيابان سي متري طالقاني ، جنب بانک مسکن,5614633654,,317451,1400/10/07,10240085858,5597,محمدصادق گردهء,,
u10862015798,گل لر وشرکاء,آذربایجان غربی,سلماس,خيابان فردوسي ، ميدان شهيد ابراهيم ، زرگر بازار ، پلاک 78,5881656133,,158778,1401/05/24,10862015798,478,نصرت اله گل لر,,
u10103487788,گلپریان و شرکا,تهران,تهران,تهران، خیابان دکتر علی شریعتی، مقابل بلوار میرداماد، پلاک 1135،‌طبقه همکف,1948963615,26711059,290641,1400/08/25,10103487788,312882,نصرت اله گلپريان,,
u10861177920,لاله و شرکا,اردبیل,اردبیل,خيابان کاشاني ، جنب بانک ملي شعبه بازار ، بازار عابدي ، پلاک8,5613694716,3366891,104476,1401/04/11,10861177920,7642,ايرج لالهء,,
u10840429120,لیلا شریف آبادی و شرکا,یزد,یزد,اکبرآباد، کوچه 56(صنعت)، خیابان آیت الله کاشانی، طبقه همکف، صرافی لیلا شریف آبادی و شرکاء,8916785719,3536271441,56863,1402/02/25,10840429120,12381,ليلا شريف آبادي,,
u14003273993,لیلا میرزایی و شرکا منطقه آزاد چابهار,سیستان و بلوچستان,چابهار,مجتمع تجاري ابريشم - طبقه همکف - واحد 502- کد پستي 9971778473,9971778473,7-88102695,127027,1400/04/24,14003273993,1793,,,
u10320723602,مبین صادقی و شرکاء,تهران,تهران,خ پاسداران - نبش گلستان دوم - شماره 351,1666936798,2122557983,412575,1401/12/19,10320723602,421001,سيدمحمدمبين صادقي,,
u10862021083,مجاوری و شرکا,آذربایجان غربی,سلماس,خ حافظ تقاطع فردوسي روبروي مسجد جامع سلماس کدپستی 5881948739,5881948739,4435235295,46857,1401/02/20,10862021083,737,اسفنديار مجاوري شنتال,,
u14005858303,مجتبی رضائی و شرکا,تهران,تهران,تجریش-چیذر-کوچه شهید مهدی چیذری-خیابان شهید سیدمحمد هاشمی علیا-پلاک 21- طبقه همکف,1938993451,,221769,1402/06/18,14005858303,492155,مجتبي رضائي,,
u14007256551,مجتبی قادری و شرکاء,فارس,خنج,بازار قدیم - کوچه 3 توحید - خیابان توحید,7443164596,7152625030,425455,1398/12/27,14007256551,265,مسيح معيني,,
u14006173478,مجتبی یزدان پرست و شرکا,تهران,تهران,خیابان استاد حسن بنا شمالی ، مجیدیه شمالی ، پایین تر از میدان سرباز ، پلاک 573,1671913163,22526080,98/210376,1400/06/10,14006173478,498395,شرمين تقي زاده,,
u10102934793,مجتهدی وشرکا,تهران,تهران,شمیرانات، شهر تجریش، حکمت، کوچه شهید محمد حسن دانیالی، بلوار شهید سیدعلی اندرزگو، پلاک 45، طبقه همکف,1935934186,2126655661,31265,1400/07/03,10102934793,253044,سعيد مجتهدي,,
u10380653413,مجید اصلی و شرکاء,تهران,تهران,بلوار میرداماد، پلاک 139، طبقه همکف، واحد 8,1911618856,,376826,1401/12/21,10380653413,523847,محمد اصلي,,
u14005687206,مجید چکینی و شرکا,تهران,تهران,تهران-سعادت آباد-چهارراه سرو -به سمت ميدان شهرداري-بعد از خيابان بخشايش-پلاک 30-واحد يک,1998893893,2122090055,277439,1400/10/01,14005687206,488733,مجيد چكيني,,
u10861391718,مجید دشتی وشرکا,بوشهر,گناوه,خ بسيج ، روبروی بسیج ، نبش پاساژ آفتاب,7531811111,7723231999,50821,1400/02/12,10861391718,900,,,
u14007520089,مجید رازقی و شرکاء,تهران,تهران,تهران میرداماد میدان مادر بلوار میرداماد پلاک شماره 50 مجتمع تجاری مریم، طبقه همکف واحد شماره 9,1546933956,2122223374,153947,1399/05/08,14007520089,525081,مجيد رازقي,,
u10103462351,مجید رمضانی و شرکا,تهران,تهران,خيابان فردوسي شمالي، بالاتر از چهارراه کوشک، پلاک 443,1145683166,66750745,256581,1401/08/14,10103462351,307344,مجيد رمضاني,,
u14006193272,مجید محمدزاده و شرکاء,تهران,تهران,خیابان کريمخان زند، بين ايرانشهر و خردمند جنوبي، جنب بانک رفاه،پلاک 102، طبقه سوم غربي,1584774838,2122560556,74523,1400/11/01,14006193272,498829,سعيد شيرزادعراقي,,
u10800091967,مجید مفتاحی وشرکا,هرمزگان,بندرعباس,خيابان امام خميني ، پاساژ احمدي,7914614377,2227446,63057,1401/03/02,10800091967,6412,مجيد مفتاحي,,
u10800089406,مجید میرزا اسماعیلی وشرکا,هرمزگان,بندرعباس,بلوار امام حدفاصل ميادين ابوذر و شهدا هفده‌شهريور، کوچه هاله، هتل ناز,7914613811,2223344,352737,1399/12/01,10800089406,6156,مجيد ميرزااسماعيلي,,
u14005443157,محبوب سعادتی و برادران,تهران,تهران,بازار، کوچه بازار کفاش ها، خيابان پانزده خرداد، پلاک 832 طبقه همکف,1161763338,2155572811,23510,1400/11/01,14005443157,483277,ایرج سعادتی,,
u14006811663,محبوبه اشراقی و شرکاء,تهران,تهران,تهران، ونک، خیابان زاینده رود غربی، خیابان شهید عباس‌ شیرازی، پلاک127، طبقه همکف,1991633171,2154583,98/205930,1400/06/10,14006811663,510283,محبوبه اشراقي,,
u14002956130,محسن پورشرف و شرکاء,کرمانشاه,کرمانشاه,محله بازار ‏- کوچه قاسمیان ‏- خیابان مدرس‏- ساختمان مرکزی تجاری پارسیان‏- شماره 26 ‏- طبقه زیرزمین‏,6713816266,8342224290,102233,1400/10/18,14002956130,638,محمد پورشرف,,
u10220194912,محسن جباری و شرکاء,آذربایجان غربی,ارومیه,خیابان دانشکده، مرکز خرید دانشکده، طبقه همکف، جنب آسانسور ضلع شرقی، پلاک 9,5715914411,4433470049,329817,1399/04/01,10220194912,14262,محسن جباري,,
u14006482791,محسن خندان و شرکا,فارس,شیراز,استان فارس ، شهرستان شيراز ، بخش مركزي ، شهر شيراز، محله معالي آباد ، بلوار دوستان ، بلوار دكترشريعتي ، پلاك 0 ، ساختمان نغمه ، طبقه همكف ، واحد 1,7187739494,7136230497,420374,1400/11/01,14006482791,45635,محسن خندان,,
u14005741739,محسن ذوالفقاری و شرکا,قم,قم,استان قم ، شهر قم، بازار ، کوچه انقلاب 4 ، خیابان انقلاب ، پلاك 28 ، طبقه همکف,3713765848,,269703,1400/08/10,14005741739,14095,الهه السادات تهامي,,
u14006067029,محسن رجائی و شرکا,اصفهان,کاشان,اصفهان، کاشان، خیابان بابا افضل ، بازار زرگرها، پلاک 2244,8713814987,3155458420,296099,1402/08/24,14006067029,6058,زهره رجائي,,
u14006459872,محسن سیف الدین و شرکا,تهران,تهران,تهران، خيابان پاسداران، خيابان گلستان دهم، پلاک 44، طبقه اول,1668635911,2122768500,221753,1399/07/01,14006459872,503461,نسو مسقطي,,
u10630130834,محسن شریفی وشرکا,کرمان,کرمان,خيابان کاظمي ، نرسيده به اداره دارايي,7613859579,2223502,403001,1400/12/14,10630130834,6815,,,
u10320200423,محسن صحرانورد وشرکا,تهران,تهران,بلوارفردوس غربي ، بهارجنوبي ، کوچه ارم شرقي ، مجتمع هايپراستار ، شماره18,1484684447,,86074,1400/03/19,10320200423,369889,محسن صحرانورد,,
u14007394252,محسن صفری و شرکاء,البرز,کرج,جهان شهر خیابان بوستان (شهید جعفر محمدی) بلوار شهید بهشتی پلاک 195 طبقه همکف,3145616813,2634218567,425377,1398/12/27,14007394252,33834,محسن صفري,,
u14006790375,محسن ولی بک حبیبی و شرکاء,تهران,تهران,تهران-خميدان فردوسي، خيابان شهيد سروش الدين تقوي، پلاک 479، ساختمان مرکز تجارت جهاني، طبقه همکف ، واحد 11,1145683729,22806973,194774,1399/09/01,14006790375,509932,اميد حبيبي,,
u14005219517,محسن کاویانی و علی حیدری,تهران,تهران,تجریش، فرمانیه، کوچه شهید محمد حاتم خانی، خیابان شهید محمدرضا پاشاظهری، پلاک 29، طبقه اول، واحد 14,1953835118,2126140210,158722,1399/09/01,14005219517,478879,محسن کاویانی,,
u14006853074,محمد رضوی و شرکا,تهران,تهران,تهران، سه راه کوشک، خیابان فردوسی، خیابان سروش‌الدین تقوی، پلاک 425، ساختمان اردهالی، طبقه همکف,1145633911,66340170,235716,1400/07/10,14006853074,511276,زهير رضوي,,
u14006887943,محمد اسعد محمدی و شرکاء,کرمانشاه,کرمانشاه,بلوار نوبهار، بلوار سی متری اول، مجتمع تجاری نوبهار پلازا، طبقه اول،‌پلاک 13,6714658274,8338386766,203887,1399/09/01,14006887943,20539,عبدالرحمن مارابي,,
u14008115891,محمد افتخاری و رمضانی و شرکاء,تهران,تهران,استان تهران - شهر تهران - محله جمالزاده - خیابان آزادی - خیابان توحید - پلاک 37 - ورودی شمالی - طبقه اول - واحد 10,1419913466,2166928112,152857,1400/05/01,14008115891,537099,محمد افتخاري,,
u14005743988,محمد امیدی کیا و شرکا,مرکزی,اراک,خیابان امام خمینی ، نبش خیابان امیر کبیر، روبروی بازار,3813813558,8632228757,398708,1402/11/08,14005743988,13515,محمد اميدي كيا,,
u10102578274,محمد بهزاد راد وشرکاء,تهران,تهران,چهارراه اسلامبول ، خیابان جمهوری اسلامی ، خیابان فردوسی ، پلاک 166 ، طبقه همکف .,1135937543,,27533,1399/02/07,10102578274,216468,محمد بهزاد راد,,
u14005591266,محمد بهگوی و شریک,تهران,تهران,تهران، صادقیه، خیابان ستارخان، نرسیده به فلکه اول، بین پاساژ کیمیا و شبنم، پلاک 1152,1451793788,49124,207981,1402/06/18,14005591266,486670,محمد بهگوي,,
u14006289440,محمد بهکیا و شرکاء,خراسان رضوی,مشهد,خيابان آيت اله بهجت، روبروي درب باغ نادري، جنب هتل امير،‌ پلاک 576,9143613187,5132283150,316078,1399/09/10,14006289440,59824,محمد بهكيا,,
u10980142878,محمد جلالی و شرکا,کردستان,مریوان,ميدان امام حسين، بلوار مرزبان، پايين‌تر از زندان مرکزي، روبروی استادیوم ورزشی زاگرس .,6671937114,8713237302,330954,1400/10/18,10980142878,918,,,
u14005702575,محمد جنگجو خانکندی و شرکا,گیلان,آستارا,استان گیلان ، شهرستان آستارا ، بخش مرکزي ، شهر آستارا، محله کوي بندر ، خیابان (بندر) ، خیابان معلم ، پلاك 0، طبقه همکف- کد پستی:4391844619,4391844619,1344812020,221772,1400/11/01,14005702575,2136,محمد جنگجوخانكندي,,
u14006629527,محمد حسین جودکی و شرکا,تهران,تهران,تهران ، خیابان انقلاب، کوچه آذرنوش، پلاک559، طبقه 1، واحد 3,1581915516,88313633,197827,1399/09/01,14006629527,506873,فاطمه جودكي,,
u14005533051,محمد خانگاه و شرکاء قشم,هرمزگان,قشم,بخش مركزي ، شهر درگهان، بازار ، خيابان بازار ، خيابان اصلي ، مجتمع زمرد ، 56F ، طبقه همكف ، واحد 89,7951356665,7635265686,127300,1400/11/01,14005533051,5330,احمد خانگاه,,
u14006812149,محمد خضرزاده و شرکاء,تهران,تهران,تهران، ميدان فردوسي، خيابان فردوسي، نبش کوچه ضرابي، پلاک 282، طبقه همکف,1131955711,2166744516,224591,1399/07/01,14006812149,510296,محمد خضرزاده,,
u14005872174,محمد دربانی و شرکاء,تهران,تهران,خيابان فردوسي شمالي، نرسيده به ميدان فردوسي، کوچه تمدن، مجتمع تمدن، طبقه همکف، پلاک 285,1131944519,2122712748,380324,1402/10/25,14005872174,492428,شكوفه رستم آبادي,,
u10320318757,محمد درخشان نژاد و شرکا,تهران,تهران,خيابان فاطمي، ميدان فاطمي، ساختمان فاطمي، پلاک 101,1431663685,88991195-7,169150,1400/05/30,10320318757,380841,محمد درخشان نژاد,,
u14005888476,محمد رستمی و شرکا,تهران,تهران,کاووسيه، بلوار نلسون ماندلا، کوچه بابک مرکزي، پلاک 10، طبقه پنجم، واحد 17,1917713844,2188876455,390176,1399/11/01,14005888476,492827,ميثم زين الديني,,
u14006669295,محمد رضا مقدم فر و شرکاء,گلستان,گرگان,گرگان - جاده ناهارخوران - بين عدالت 81 و عدالت 83 - جنب مجتمع تنديس,4917968859,1732128271,321042,1399/11/01,14006669295,12034,محمدرضا مقدم فر,,
u10320265653,محمد زاغی و شرکاء,تهران,تهران,خيابان مطهري ، نرسيده به سهر‌وردي ،پلاک 122,1581835315,2188342541,359308,1399/12/05,10320265653,376728,محمد زاغي,,
u10610038412,محمد صالح گودرزی و شرکا,کردستان,مریوان,خیابان جمهوری جنب مسجد جامع پلاک 48,,08753220444-3222249,371239,1399/02/20,10610038412,654,محمدصالح گودرزي,,
u14006043459,محمد صالحی و شرکاء بانه,کردستان,بانه,خیابان شهدا، روبروی شرکت نفت، کوچه درنا 2، پلاک 13، طبقه اول,6691933384,087-34223360,359461,1402/10/10,14006043459,772,محمد صالحي,,
u14007286160,محمد علی رسولی و شرکاء,تهران,تهران,بازار، کوچه گذر لوطی صالح، کوچه بازار حمام چال، پلاک 83، ساختمان ملت، طبقه اول، واحد 75,1163786339,2155602882,13470,1399/01/22,14007286160,520253,مهدي احمدبكي,,
u14005831006,محمد فرج پور و شرکاء,مازندران,آمل,شهر آمل، دفاع مقدس ، خيابان آفتاب بيست و هفتم [دفاع مقدس] ، بلوار امام خميني ، پلاك 95 ، طبقه همكف,4615735616,1144154045,121632,1399/04/15,14005831006,7119,محمد فرج پور,,
u10980142464,محمد فرجمندی و شرکا,هرمزگان,بندرلنگه,استان هرمزگان، بندر لنگه، خيابان انقلاب، پاساژ اشکنان، پلاک9,7971643956,,163567,1400/05/24,10980142464,1307,نرگس فرجمندي,,
u14008499092,محمد محسنی نیا و شرکا,خراسان رضوی,مشهد,چهارباغ، خیابان شوکت الدوله، خیابان شهید اندرزگو، پاساژ خاوران، طبقه همکف، واحد شماره 46,9134614199,5132257303,98/215742,1400/06/20,14008499092,68969,سيدصابر افسريان محصل,,
u14007676862,محمد محسنی و شرکاء,تهران,تهران,استان تهران - شهرستان تهران - شهر تهران - محله شهید قندی - نیلوفر - خیابان شهید علیرضا یوسفی - خیابان شهید دکتر بهشتی - پلاک 213 - ساختمان مهرگان - طبقه همکف - کدپستی :1533667811,1533667811,2188753335,195229,1399/06/07,14007676862,527768,,,
u14005597107,محمد هادی اوجی و شرکاء,فارس,شیراز,چهاراه زند، ابتداي خ سعدی، روبروي سينما حافظ،,7135817374,7132234001,96529,1402/03/27,14005597107,43528,محسن فروغان گران سايه,,
u14007553811,محمد کرمی وشرکاء,تهران,تهران,حافظ - خیابان حافظ - بلوار کریم خان زند - پلاک 280- مجتمع تجاری الماس - طبقه همکف - واحد 76,1598737994,,299674,1399/08/27,14007553811,525613,محمد كرمي,,
u10260413698,محمد کریمیان و شرکا,اصفهان,اصفهان,خيابان نظر شرقي ، کوچه جوهری، خیابان نظر شرقی، پلاک 121، پلاک قدیمی 127، طبقه همکف,8173664351,,180432,1399/09/01,10260413698,20506,محمد كريميان,,
u10260565990,محمدآرائی وشرکا,اصفهان,اصفهان,خ مير ، چهارراه قشقاقي ، مقابل بانک اقتصاد نوين، پ93,8164663935,3136612125,24068,1401/02/02,10260565990,38943,محمد آرائي,,
u10820083783,محمدامین دقوقی و شرکا,همدان,همدان,خ بوعلي جنب برج آريان شماره402,6515694976,8138274240,334479,1399/11/15,10820083783,8640,محمدامين دقوقي,,
u14005817190,محمدتقی سمندر و شرکا,فارس,شیراز,فارس، شهرستان شیراز، بخش مرکزي، شهر شيراز، ملاصدرا، خيابان ارديبهشت غربي، خيابان ملاصدرا، پلاک 0، طبقه همکف,7134693336,7132352897,241246,1402/07/14,14005817190,44089,محمدباقر سمندر,,
u10980216952,محمدرضا انصاری و شرکا منطقه آزاد چابهار,سیستان و بلوچستان,منطقه آزاد چابهار,مجتمع تجاري پرديس ، طبقه اول، واحد 21,9971765951,,365721,1399/12/10,10980216952,1580,,,
u10980145068,محمدرضا حیات‌لو و شرکا,آذربایجان غربی,خوی,بين خيابان طالقاني - کوچه بازار قنادان - مغازه دوم - راسته جواديه - پلاک 42,5813868195,4436250712,86209,1400/03/19,10980145068,2385,محمدرضا حياتلو,,
u14004735766,محمدرضا سروری و شرکاء,تهران,تهران,خيابان يوسف اباد(اسدابادي) بين خ 11و خ13 شماره 79,1433663115,2188109101,141380,1401/05/10,14004735766,468235,طاهره سروري,,
u14007354824,محمدرضا سلطانی و شرکاء,تهران,تهران,تهران، ونک، خیابان ونک،کوچه نرگس، پلاک1، طبقه2، واحد2,1991833554,2188091162,425600,1398/12/27,14007354824,521673,محمدرضا سلطاني,,
u10260681857,محمدرضا عراقی نواز و شرکاء,اصفهان,اصفهان,اول چهار باغ بالا،مجتمع تجاري سي و سه ،طبقه دوم ،واحد 22,8173697545,7865469-0311,256577,1401/08/14,10260681857,49781,سيدمحمدرضا عراقي نواز,,
u10320874110,محمدرضا قراخانلو و شرکا,تهران,تهران,خيابان سهروردي شمالي - چهارراه زينالي - پلاک 415,1569613136,2188413838,221521,1400/07/13,10320874110,439221,محمد زند,,
u10320860205,محمدرضا قنبری نایینی و شرکاء,تهران,تهران,خیابان وليعصر(عج) – مجتمع تجاری اسکان – طبقه همکف – پلاک 3 - کد پستي :1969613314,1969613314,2122583631,406875,1399/12/01,10320860205,436749,محمدرضا قنبري نائيني,,
u14007562566,محمدرضا مرادی و شرکاء,تهران,تهران,تهران، بخش مرکزي، شهر تهران، سعادت‌آباد، خيابان شانزدهم شرقي، خيابان علامه طباطبائي شمالي، پلاک 85، ساختمان سايه، طبقه همکف (جنب بانک سپه),1997863318,,170215,1399/05/18,14007562566,525770,محمدرضا مرادي,,
u10861967357,محمدعلی برادران صنعتگر و شرکاء,گیلان,بندرانزلی,ميدان امام خميني ، روروي بانک سپه,4314693484,,324065,1400/10/13,10861967357,3124,محمدعلي برادران صنعتگر,,
u10660111823,محمدمرادمحمدی وشرکا,کرمانشاه,کرمانشاه,خيابان مدرس ، بازار زرگرها ، پاساژ کورش ، طبقه تحتاني پلاک 3,1066011182,7213985,222268,1400/07/13,10660111823,11159,,,
u14006578902,محمدهادی مومنین و شرکا,تهران,تهران,محله داوودیه، خیابان شهید آلن آبکار شاه نظری، خیابان نازآفرین،پلاک 12 ، ساختمان مرکز خرید پویا، طبقه همکف، واحد 4.,1545944517,2126642971,379279,1400/11/01,14006578902,505898,احمد اميربيكي يزدي,,
u10102569061,محمدی زرین وشرکا,تهران,تهران,شريعتي ، ايستگاه داوديه ، جنب کوچه احمديه ، پلاک 1287، طبقه همکف,1948633812,22896919,38845,1401/02/13,10102569061,215527,محمدرضا مشهدي غلامحسين محمدي,,
u14005559003,محمدی معین و شرکا,قم,قم,محله ارم ، خیابان مرعشی نجفی (محله ارم)، پاساژ برلیان، طبقه همکف .,3715799795,2536709237,120049,1399/04/12,14005559003,310178,,,
u10380510946,محمود شکری و شرکاء,خراسان رضوی,مشهد,سناباد، خيابان دانشگاه، خيابان گلستان غربي (دانشگاه 25)، پلاك 230، ساختمان قائم المهدي، طبقه همكف,9138814416,5138418404,251932,1402/07/21,10380510946,35635,محمود شكري,,
u10380522617,محمود صحرابیگی و شرکا,خراسان رضوی,مشهد,خيابان امام خميني، سه راه دارايي، نبش امام‌خميني 30، پلاک 514,1111111111,5118549057,139945,1402/04/03,10380522617,36722,محمود صحرابگي,,
u10980164256,محمود فدائی حسینی و شرکا,هرمزگان,قشم,درگهان-پاساژ دو دلفین-طبقه اول-لاین رز9پلاکA2259,7951359877,7635270912,292091,1400/09/16,10980164256,2939,محمود فدائي حسيني,,
u14003500814,محمود فرسوده و شرکاء,فارس,گراش,استان فارس- شهرستان گراش، خ امام‌خمينی، روبروی مجتمع تجاری گراش سنتر,7441666193,0782-2230316,86617,1400/11/01,14003500814,1271,فضل اله ملكي,,
u14007955122,محمود فلاح اشتری و شرکاء,تهران,تهران,تهران -خیابان وزرا - بین کوچه سوم و پنجم - پلاک 33,1513643413,88700250,317379,1399/10/24,14007955122,534073,,,
u10380544000,محمود یعقوبی وشرکا,خراسان رضوی,مشهد,خیابان پاسداران-بین پاسداران1و3-پلاکهای 57و59,9137734994,5132283900,314045,1402/09/08,10380544000,38762,محمود يعقوبي,,
u14008547187,محمودرضا زارع و شرکاء,فارس,شیراز,محله عفیف آباد، کوچه مروج پور، خیابان عفیف آباد، طبقه همکف,7183793638,,98/359527,1400/10/10,14008547187,50979,محمودرضا زارع,,
u14005983843,مختار خواجه حسنی و شرکا,کرمان,کرمان,کرمان، خیابان مالک اشتر ، جنب خدمات شهرداری,7617741919,3432444464,17869,1401/11/01,14005983843,14398,آرش خواجه حسني,,
u10260462710,مختارزاده وشرکا,اصفهان,اصفهان,خيابان دروازه دولت ، ابتدای چهار باغ پائين ، پاساژ بهار 2/1,8147713145,2222225,141942,1401/05/09,10260462710,25509,,,
u10700116751,مداح وشرکا,گلستان,گنبدکاووس,خيابان طالقاني شرقي، نبش خيام شمالي، کد پستي 13998 ـ 49717,4971713998,1722293722,340688,1399/11/21,10700116751,3615,,,
u10780102810,مددی وشرکا,مرکزی,اراک,شهر اراک، محله خیابان ملک،کوچه توسطی، خیابان شهید رجایی، پلاک 430، ساختمان ارسباران، طبقه همکف,3813996715,8632247727,293109,1400/09/16,10780102810,6866,,,
u10102574665,مرتضوی تهرانی و شرکا,تهران,تهران,تهران، شهر تهران ، آرارات ، خیابان حکیم اعظم ، خیابان شهید حجت ا.. عباس شیرازی ، پلاک 179، ساختمان شیراز ، طبقه همکف. کد پستی : 1991643544,1991643544,,264046,1399/07/25,10102574665,216107,سيداحمد مرتضوي طهراني,,
u14006300117,مرتضی عباسی و شرکاء,تهران,تهران,خیابان خالد اسلامبولی،نبش کوچه یکم ، برج ستاره، طبقه همکف تجاری ، واحد 17,1513633338,2188105441,149193,1400/05/05,14006300117,500951,مرتضي عباسي,,
u10800164787,مرتضی کریمی و شریک,تهران,تهران,بلوار میرداماد، جنب مترو، نبش خیابان سهیل تبریزیان، مجتمع تجاری اداری رز میرداماد، طبقه 5 واحد 505‏/8‏-3آ,1919913661,,352226,1399/04/11,10800164787,504305,مرتضي كريمي,,
u14003219920,مردان نوبخت و شرکا منطقه آزاد چابهار,سیستان و بلوچستان,منطقه آزاد چابهار,مجتمع تجاری پردیس طبقه همکف پلاک 11,9971765769,,54811,1400/02/22,14003219920,1780,فرشاد صالحي تپوك,,
u14007074955,مریم اسمعیلی و شرکا,تهران,تهران,تهران - خیابان فردوسی - سه راه منوچهری - کوچه صبح امروز- خیابان فردوسی - پلاک 353- طبقه همکف,1145615515,66342728,427993,1398/12/28,14007074955,515520,سيدعلي موسوي,,
u14007322337,مریم پیروز نژاد و شرکاء کیش,هرمزگان,منطقه آزاد کیش,جزیره کیش، مجتمع خدماتی بازار هرمز، طبقه اول، واحد N123,7941658822,,149186,1400/05/05,14007322337,13534,عباس پيروزنژاد,,
u10530301449,مریم دشتی زاده وشرکاء,تهران,تهران,تهران، میدان فردوسی، خیابان شهید سروش الدین تقوی، خیابان فردوسی، پلاک 479، ساختمان مرکز تجارت جهانی فردوسی، طبقه همکف، واحد 33,1145683700,66340517,118794,1400/01/09,10530301449,511738,مريم دشتي زاده,,
u10500027613,مزارزئی وشرکا,سیستان و بلوچستان,ایرانشهر,ایرانشهر تقاطع خ طالقانی و فردوسی هتل اسلامی,9913885718,5437233975,63021,1400/08/11,10500027613,512,قادربخش مزارزائي,,
u10861758234,مزارزئی وشرکا,سیستان و بلوچستان,ایرانشهر,محله طالقانی، کوچه طالقانی17، بن بست ایمان، پلاک 0 طبقه همکف,9913866537,5456242078,420770,1400/07/17,10861758234,1462,محمدرفيق مزارزئي,,
u10980023115,مزدا مقیمی و شرکا,مازندران,قائم شهر,خيابان مدرس، مقابل بانک ملي ايران، مجتمع آمين، شماره 24,476481358,1232216402,93121,1402/03/23,10980023115,4319,مزدا مقيمي,,
u14005564719,مژگان نصرالهی اولقی و شرکاء,تهران,تهران,خیابان دولت، چهارراه قنات، کوی گرجی، پلاک 13,1943683841,,13489,1402/01/22,14005564719,486134,مژگان نصرالهي اولقي,,
u10320819160,مستانه محبتی و شرکاء,تهران,تهران,ولیعصر،‌کوچه لادن،‌ خیابان ولیعصر، پلاک 3005، طبقه اول,1961733114,26232136,397496,1400/09/16,10320819160,430007,مستانه محبتي,,
u10200379589,مسعود دمنابی و شرکا,آذربایجان شرقی,تبریز,تربيت، خيابان تربيت، خيابان امام خميني، پلاک 58، ساختمان سهند، طبقه همکف،,5133838851,4135548221,134469,1399/05/26,10200379589,29831,مسعود دمنابي,,
u10102927943,مسعود رضایی و شرکا,تهران,تهران,خ وليعصر،تقاطع خ طالقاني ،مجتمع اداري و تجاري نور تهران،طبقه همکف سوم،واحد 8061و8062,1416794398,88383800,273628,1400/06/08,10102927943,252352,رامين مطلوب,,
u14005213657,مسعود مفیدی فرد و شرکا,آذربایجان شرقی,تبریز,خيابان دارائي پاساژ امير نو طبقه همکف پلاک 1,5134833687,,64897,1402/02/31,14005213657,40717,مسعود مفيدي فرد,,
u14007954690,مسعود هاشمی و شرکاء,فارس,شیراز,استان فارس - شهرستان شیراز - بخش مرکزی - شهر شیراز - محله شهرداری -بلوار کریم خان زند - خیابان سعدی - طبقه همکف,7136614459,7132238068,375969,1399/10/09,14007954690,49460,مسعود هاشمي,,
u10220155968,مسعود و کاوه محمدی و شرکا,آذربایجان غربی,ارومیه,بازار بزرگ سراي حاج ابراهيم پلاک12,5713653556,4412245895,66690,1401/03/06,10220155968,10582,,,
u10320204581,مشیرزاده و شرکاء,تهران,تهران,خيابان امام خمینی،فردوسی جنوبی،جنب بانک اقتصاد نوین،پلاک 51-کد پستی:1144813745,1144813745,33987313,284208,1400/09/07,10320204581,370525,,,
u10320833261,مصطفی اقبال بهبهانی و شرکاء,تهران,تهران,خیابان ولیعصر ، نبش میرداماد ، ساختمان اسکان، طبقه اول اداري ، واحد 6,1969613398,2188886367,300520,1400/09/22,10320833261,431939,,,
u14005792479,مصطفی بهمنی نژاد و شرکاء,تهران,تهران,خیابان دکتر علی شریعتی، پایین تر از بلوار میرداماد، پلاک 1150، ساختمان 2000، طبقه همکف,1546815131,41317,58209,1400/11/01,14005792479,490835,فرشيد حق دوست,,
u14007377047,مصطفی بینش و شرکاء,آذربایجان شرقی,بناب,آذربایجان شرقی مطهری کوچه مسجد اولیاء، خیابان مطهری پلاک 770 طبقه همکف,1688872574,,27825,1399/02/03,14007377047,1738,مصطفي بينش,,
u14006902140,مصطفی رنجبر و شرکاء,تهران,تهران,میدان فردوسی، خیابان شهید سروش الدین تقوی، خیابان فردوسی، پلاک 487، ساختمان مرکز تجارت جهانی فردوسی، طبقه همکف,1145683739,2166343534,166492,1400/05/10,14006902140,512220,مصطفي رنجبرقره شيران,,
u14007490046,مصطفی فهد و شرکاء,تهران,تهران,تهران خیابان ولیعصر (عج)، خیابان آیت اله طالقانی، پلاک 1574 مجتمع نور، طبقه 2 واحد 8063,1416794411,2188227405,246874,1399/07/17,14007490046,524484,علي مهرچيان,,
u14006166837,مصطفی محمودی و شرکاء,آذربایجان غربی,پیرانشهر,بلوار بهشتي-خيابان شورا-جنب امور صنفی ، پلاک 36.,5781953358,4444234780,227819,1399/07/01,14006166837,769,مصطفي محمودي,,
u10862130406,ملاعلیلو وشرکا,آذربایجان غربی,خوی,بازار، بازار حاجي بابا، روبروي مسجد حاجي بابا,5813848578,,393397,1400/12/07,10862130406,1516,اسماعيل ملاعليلو,,
u10102948981,منصور زرین قلم وشرکا,تهران,تهران,ميدان تجريش، خيابان وليعصر، جنب پمب بنزين باغ فردوس، پلاک 3071,1961833966,212326,24722,1400/01/31,10102948981,254529,منصور زرين قلم,,
u10102843505,منصورزاده و شریک,تهران,تهران,پیچ شمیران،خیابان انقلاب اسلامی ، خیابان بهار جنوبی ، پلاک 37، برج بهار ، طبقه اول ، واحد 266.,1561635714,77616232-77617379,263891,1400/08/18,10102843505,243665,,,
u10103384394,منصوری و شرکا,تهران,تهران,خيابان جمهوري ، مقابل سفارت انگليس ، پاساژ معتمد ، پلاک 15,1135936651,66711353,190935,1400/06/15,10103384394,301368,حسن منصوري,,
u14006965214,منوچهر شادفر و شرکاء,تهران,تهران,تهران، گاندی، کوچه هجدهم، خیابان گاندی جنوبی، پلاک104،طبقه همکف,1517914918,88285481,98/278977,1400/08/10,14006965214,513370,شيده باقري,,
u10103931933,مهدی اژدری و شرکاء,تهران,تهران,استان تهران - منطقه 19 ، شهر تهران، محله داووديه ، خيابان نساء ، بلوار ميرداماد ، پلاك -139 ، مجتمع پاسارگاد ، طبقه همكف ، واحد 13,1911618944,,398917,1401/12/28,10103931933,342135,مهدي اژدري خانكهداني,,
u14005874518,مهدی حاجی کریمی و شرکاء,تهران,تهران,تهران، ميدان ونک، خيابان شهيد عباس شيرازي، خيابان دانشور، پلاک 226 طبقه همکف,1991775761,2188623515,238394,1402/07/11,14005874518,492484,سمانه عبائي كوپائي,,
u14003676666,مهدی ضرغام پور و شرکاء,تهران,تهران,تهران، بخش مرکزي، شهر تهران، محله ميدان ولي عصر، بلوار کريم خان زند، خيابان شهيد استاد نجات‌الهي، پلاک 192، طبقه اول,1598785914,2188913603,186567,1401/06/25,14003676666,444177,مهدي ضرغام پور,,
u10980255449,مهدی فرازیان و شرکا,آذربایجان غربی,چالدران,چهار راه مرکزی، خیابان سعدی شمالی(ساحلی),5871813647,4434262569,350700,1400/11/05,10980255449,173,مهدي فرازيان,,
u10530366115,مهدی محمدپورفلاحان و شرکا,فارس,شیراز,معالي آباد ، خيابان اصلي ، جنب پاساژ گاندي ، روبروي کلانتري گلدشت,7187746943,6244654,310820,1399/10/27,10530366115,24608,,,
u10862118379,مهدی ملاحی مسنی و شرکا,هرمزگان,قشم,بازار ستاره، طبقه زيرين، لاين مرواريد، پلاک 143، کد پستي 7951917367,7951917367,07635240305 - 6,346592,1400/11/02,10862118379,2563,ابراهيم عاشوري مسني,,
u14005610990,مهدی ملک زاده و شرکاء,تهران,تهران,استان تهران - شهرستان تهران - بخش مرکزي - شهر تهران-محله جهاد-خیابان 1/6-میدان سلماس-پلاك -3-طبقه همکف-,1431753114,2142451000,58025,1402/04/13,14005610990,487123,مرتضي باهو,,
u14005629969,مهدی نخیلی و شرکاء,فارس,شیراز,شیراز ، خیابان کریم خان زند ، چهارراه زند ، جنب کتابسرای زند,7136615859,32241250,224013,1402/07/01,14005629969,43617,مهدي نخيلي,,
u14006457112,مهرجان سنجرانی و شرکا,سیستان و بلوچستان,زابل,هيرمند، پایانه ی مرزی میلک ، سالن تجاري شماره يک، جنب بانک ملي ، داخل سالن,9858113169,5432220743,98/394919,1400/10/30,14006457112,1893,محمدحسين سنجراني,,
u10460111441,مهرجو و شرکا,زنجان,زنجان,خ امام ، پاساژ تهران ، طبقه همکف پلاک 35,4518613863,3235086,296470,1399/10/15,10460111441,7821,محسن مهرجو,,
u14006481640,مهرداد افضلی و شرکا,تهران,تهران,خیابان فردوسی شمالی ، مرکز تجارت جهانی فردوسی ، پلاک 60,1145683784,2166340630,443313,1400/11/01,14006481640,503916,ميترا موسوي,,
u14007158557,مهرداد رضی و شرکاء,تهران,تهران,سه راه منوچهری، خیابان منوچهری، خیابان فردوسی، پلاک329، طبقه همکف,1145613413,2166741861,136890,1399/04/26,14007158557,517450,مهرداد رضي,,
u10320482405,مهرداد گرامیان‌نیک و شرکا,تهران,تهران,بلوار میرداماد، روروی بانک مرکزی، مجتمع تجاری اداری رز، طبقه همکف، پلاک 25,1919993511,,287083,1398/12/23,10320482405,397342,رومينا گراميان نيك,,
u10320858396,مهرداد لقازی آشتیانی و شرکاء,تهران,تهران,ميدان فاطمي ،کوچه کامران ،پلاک 32,1781773533,88932260,283329,1400/09/07,10320858396,436345,مهرداد لقازي آشتياني,,
u14007778193,مهسا زمانیان و شرکاء,تهران,تهران,محله شهید قندی - نیلوفر - خیابان شهید دکتر بهشتی - خیابان پاکستان - پلاک 27 - طبقه همکف,1531815719,42825000,98/235699,1399/10/06,14007778193,530032,مهسا زمانيان,,
u14007426760,مهناز حیدری و شرکاء,تهران,تهران,بخش مرکزی، شهر تهران، قبا، کوچه شهید سید کمال الدین کامروا، خیابان پاسداران، پلاک 88، طبقه همکف،,1947843791,2140222949,98/381203,1398/12/21,14007426760,523098,منصور رهنما,,
u10320254721,مهیار زاهدی و شرکاء,تهران,تهران,خیابان دکتر بهشتی (عباس اباد) چهارراه قائم مقام فراهانی نبش کوچه ایزد پلاک 196,1586777115,89320,110029,1399/04/04,10320254721,374506,مهيار زاهدي,,
u14005460947,میثم ارشادی و شرکا,تهران,تهران,محله کاووسیه، خیابان شهید مصطفی والی نژاد، پلاک 20-، طبقه همکف,1969853871,,280154,1400/08/10,14005460947,483757,ميثم ارشادي,,
u14007504011,میرابوالفضل هاشمی مجاوری و شرکاء,تهران,تهران,تهران، خیابان شهید مطهری، کوچه دوم، خیابان کوه نور، پلاک 11، طبقه همکف,1587643416,2141183,325108,1399/09/17,14007504011,524719,ميرابوالفضل هاشمي مجاوري,,
u10102589168,میرلشکری و شرکاء,تهران,تهران,خیابان پاسداران، خیابان بوستان ششم، پلاک 263، طبقه همکف,1666613368,2127150,224600,1399/04/25,10102589168,217574,تورج ميرلشكري,,
u14006417872,میلاد رحیمی و شرکاء,تهران,تهران,خیابان پاسداران، خیابان نارنجستان هشتم، پلاک 23، مجتمع اداری تجاری پارک سنتر فرمانیه، طبقه بیستم، واحد شماره 2003,1957614069,2140227139,98/138732,1399/04/27,14006417872,502520,میلاد رحیمی,,
u14005640180,میلاد مهدیان پور و شریک,تهران,تهران,تهران ، خيابان سهروردي شمالي، کوچه باغ ، پلاک 248 کد پستی :1738853713,1738853713,2188741617,348780,1402/10/03,14005640180,487742,غلامرضا مهديان پور,,
u14007753639,نادر قویدل و شرکاء,تهران,تهران,محله بهجت آباد- خیابان مجلسی- خیابان ولی عصر - پلاک 1947 - طبقه همکف,1595643113,,375926,1400/10/20,14007753639,529507,نادر قويدل,,
u14007658164,ناصر رنجبری و شرکاء منطقه آزاد ماکو,آذربایجان غربی,منطقه آزاد ماکو,منطقه آزاد ماکو، شهر بازرگان، محله گمرک، خیابان امام (ره)، خيابان شمس تبريزي، پلاک 1245، طبقه همکف,5867146535,4434378048,251795,1399/07/21,14007658164,3761,بهمن عليزاده اولنلري,,
u14004847680,ناصر زرین قلم و شرکاء,تهران,تهران,خيابان وليعصر-روبروي درب پارک ملت- ساختمان صورتی- پلاک2663,1967755873,2122021414,127645,1403/04/18,14004847680,470939,ناصر زرين قلم,,
u14007550804,ناصر صفرزاده و شرکاء,تهران,تهران,خیابان فردوسی بالاتر از چهارراه استانبول نرسیده به خیابان منوچهری پلاک 303 طبقه همکف,1145818733,02133947520-3,223925,1399/07/01,14007550804,525578,ناصر صفرزاده,,
u14005790750,ناصر قاسمی راد و شرکاء,تهران,تهران,بلوار میرداماد- جنب مسجد الغدیر- مجتمع پاسارگاد - پلاک 139 - واحد 13,1911615611,,147103,1402/05/02,14005790750,490804,ناصر قاسمي راد,,
u14008692084,ناصر وفابخش و شرکا,تهران,تهران,استان تهران ، شهر تهران ، محله میرداماد ، خیابان نساء ، بلوار میرداماد، پلاک139، مجتمع پاسارگاد، طبقه همکف، واحد5,1911618859,2172428000,308042,1400/08/20,14008692084,548719,مرضيه غلامي پورشربياني,,
u10320129350,ناصرافشار و شرکاء,تهران,تهران,خیابان ملاصدرا، انتهاي خیابان شيراز شمالي ، ساختمان ایران سکنا، پلاک 234,1991818514,2188059201,37515,1399/02/17,10320129350,367127,محمدرضا افشار,,
u10680049140,نافیان دهکردی وشرکا,چهارمحال و بختیاری,شهرکرد,خيابان ملت ، جنب بانک صادرات شعبه 94,8816843919,,400280,1400/12/11,10680049140,5241,عزيزالله نافيان دهكردي,,
u10861992662,ناقدی نیا وشرکا کیش,هرمزگان,کیش,بلوار ساحل ، مجتمع تجاري ديپلمات ،طبقه همکف ،واحد 19و 20,7941763133,7644461001,91409,1399/04/11,10861992662,8150,علی محمدی فرجاد,,
u10861650547,نانوازاده وشرکا,آذربایجان غربی,مهاباد,خيابان جمهوري اسلامي، نبش کوچه محمد جاني، پلاک 388,5916775869,222222222,256582,1401/08/14,10861650547,1464,صلاح الدين نانوازاده,,
u10861758842,نریمان بختیاری و شرکا,کرمانشاه,قصرشیرین,بازارچه مرزي پرويز ، جنب بانک ملي شعبه بازارچه,6781141119,8354342053,108429,1399/04/31,10861758842,550,سردار محمدي,,
u10320789907,نساء شعبانی وشرکاء,تهران,تهران,خیابان ولیعصر-نبش خیابان زعفرانیه- پلاک2892,1988615895,2122716486,464053,1398/12/26,10320789907,426086,نساء شعباني اشليكي,,
u14007573790,نسیم فرهمندی و شرکاء,تهران,تهران,پاسداران، کوچه تنگستان سوم، خیابان پاسداران، پلاک 744، طبقه همکف واحد شماره یک,1954746113,2126114997,288322,1399/08/19,14007573790,525975,ابراهيم فرهمندي,,
u14006008362,نعمت اسماعیل زاده بازرگانی و شرکا منطقه آزاد ماکو,آذربایجان غربی,منطقه آزاد ماکو,آذربايجان غربي، منطقه آزاد ماکو،ذ بازرگان، خيابان امام خميني(ره)، پلاک 1220,5867146485,,379370,1400/10/10,14006008362,3467,نعمت اسماعيل زاده بازرگاني,,
u14005555388,نورمحمدی و شرکا,تهران,تهران,تهران، میدان فاطمی، ضلع جنوب شرقی، پلاک 4/1,1415893341,88908000,320558,1402/09/12,14005555388,485989,علي نورمحمدي,,
u10660103679,نوری و شرکا,کرمانشاه,کرمانشاه,استان کرمانشاه‏- شهر کرمانشاه‏- کوچه حوری آباد‏- کوچه سنگتراشها - پلاک 24 ‏- طبقه همکف,6713759457,8337291747,21695,1400/01/30,10660103679,10353,محمدعلي نوري مهرباني,,
u10861666488,هادوی و شرکا,فارس,جهرم,خيابان 22 بهمن ، مقابل بانک مسکن,7413643615,7154223248,47909,1401/02/20,10861666488,8926,علي اكبر هادوي,,
u14006217320,هادی محمدخانی و شرکاء,تهران,تهران,تهران- خ طالقانی- بعد از چهارراه مفتح - پلاک166 - طبقه اول,1571833417,2157648000,98/214184,1400/06/10,14006217320,499363,اميرهوشنگ خليلي اقدم,,
u14005612364,هادی منتظری و شرکا,قم,قم,قم ، خیابان سمیه ، جنب بانک ملی ، نبش رجائی ، پلاک 3,3715815989,2537733322,236327,1402/07/10,14005612364,140024,هادی منتظری,,
u14006818368,همت همتی و شرکاء,تهران,تهران,خيابان آيت اله طالقاني، خيابان ولي‌عصر، پلاک 1574، مجتمع نور تهران، طبقه دوم، واحد 8100,1416794178,2188226070,321385,1400/09/20,14006818368,510436,همت همتي,,
u14003122600,هوشنگ عباس زاده و شرکاء منطقه آزاد ماکو,آذربایجان غربی,بازرگان,بلوار امام ، پلاک 21 مجتمع آرارات، طبقه همکف، پلاک 12,5867146938,,402875,1399/03/10,14003122600,442,تارويردي فيض زاده,,
u10102590582,هوشنگ مصلحت‌لای و شرکا,تهران,تهران,تهران، خيابان مطهري، نبش خيابان لارستان، پلاک 418,1596843131,2141286,86638,1400/11/01,10102590582,217718,هوشنگ مصلحت لای,,
u14005518270,هومن سلطانی زاده و شرکاء,تهران,تهران,خيابان مطهري - خيابان ميرزاي شيرازي - پلاک 193,1586683118,88341337,273181,1399/10/01,14005518270,485238,هومن سلطاني زاده,,
u10861072880,واعظ زاده و شرکا,قم,قم,خ انقلاب(چهار مردان) پلاک67,3715795389,7834988,149090,1401/05/16,10861072880,8825,سيدمحمدرضا هاشمي,,
u10260619468,وحید آرایی و شرکا,اصفهان,اصفهان,خيابان سپه، روبروي بانک تجارت مرکزي، داخل پاساژ مثقالي، دست چپ,8146833338,3132239941,293501,1401/09/18,10260619468,44070,وحيد آرائي,,
u14006839066,وحید حمل کاری وشرکا,آذربایجان شرقی,تبریز,خاقانی، خیابان کهنه بازار، خیابان امام خمینی،‌ مجتمع کامپیوتری کبود، پلاک 231، بلوک 3a، طبقه زیرزمین,5136914575,33333350,402361,1399/05/20,14006839066,44979,علي صميمي اصل,,
u10320189377,وحید وطنی و شرکاء,تهران,تهران,تجريش، قيطريه ، خيابان شهيد برادران سليماني غربي ، بلوار شهيد سيد علي اندرزگو ، ساختمان تجاری اداری حکمت، طبقه همكف,1938836153,,98/320006,1399/12/03,10320189377,369798,وحيد وطني,,
u14006283143,وحید کرمیان و شرکاء,گیلان,آستارا,استان گيلان، شهر آستارا، خيابان شهيد حاجي عباسي، پاساژ عميدي، طبقه همکف، پلاک21,4391845689,,323924,1399/09/01,14006283143,2189,وحيد كرميان,,
u14007516493,ولی‌اله رسول‌پناه وشرکاء,تهران,تهران,تهران، ميدان فردوسي، خيابان پارس، خيابان انقلاب اسلامي، پلاک 796، طبقه همکف،,1131963766,66747818,57136,1399/02/25,14007516493,524972,رضا رسول پناه,,
u14003294050,وکیل پاکدل جانیار و شریک,اردبیل,بیله سوار,اردبیل-شهرستان بیله سوار-خیابان گمرک - بازارچه بین المللی گمرک - فاز 1 - غرفه 16,5671663165,9144520071,299244,1400/09/22,14003294050,581,وكيل پاكدل جانيار,,
u14008140394,ویدا شجیع و شرکاء,گلستان,گرگان,استان گلستان شهر گرگان، محله گرگانپارس، خیابان ولیعصر، خیابان عدالت18، پلاک صفر، مجتمع فردیس، طبقه همکف,4916633381,1732220100,140052,1400/04/11,14008140394,12880,ويدا شجيع,,
u14006109414,کارآموزی و شرکاء,کرمان,کرمان,بلوار جمهوری اسلامی، امام جمعه بیستم، کوچه شمالی یکم، کوچه والفجر نوزدهم، واحد شماره 10، طبقه ششم 09391412054,7619636778,3432435513,142599,1400/04/30,14006109414,14492,,,
u10320831450,کاظم حیدرزاده و شرکا,تهران,تهران,خيابان پانزده خرداد ،سبزه ميدان،پاساژ تهران پلاک1/18,1161837597,2155574010,105490,1399/04/25,10320831450,431117,كاظم حيدرزاده,,
u10320845103,کاظم محمودی و شرکا,تهران,تهران,تهران مقدس اردبيلي، نبش خ ب ، پلاک 152,1165979661,8598045-0511,251944,1400/08/10,10320845103,356752,كاظم محمودي,,
u14007885075,کافی مکری جتری و شرکاء,آذربایجان غربی,ارومیه,ارومیه - شیرپزخانه - خیابان شیرپزخانه -کوچه جلال اوغلو - پلاک ۷۵ - طبقه همکف,5718694954,4432378321,359916,1399/10/10,14007885075,17584,قهرمان مكري جتري,,
u14006486022,کامبیز نبی زاده و شرکاء,تهران,تهران,میدان فردوسي - کوچه تمدن - خیابان فردوسی- پلاک صفر-مجتمع تجاري و اداری تمدن - طبقه اول - واحد5,1131944749,2166747853,76246,1400/11/01,14006486022,504036,هاشم محمودي گنبدي,,
u14006328356,کامران سلطانی زاده و شرکاء,تهران,تهران,تهران- خیابان شریعتی - روبروی متروی شریعتی- نبش کوچه زرین - پاساژ مینا - طبقه زیر همکف - پلاک 1,1948845383,,102047,1400/11/01,14006328356,501283,كامران سلطاني زاده,,
u14007913969,کامران کاظمیان و شرکاء,تهران,تهران,چهاراه اسلامبول، کوچه شیروانی، خیابان جمهوری اسلامی، پلاک 446 ، ساختمان نوین، طبقه همکف، واحد 14,1135935843,2166766403,110024,1400/04/04,14007913969,533171,كامران كاظميان,,
u14003092211,کاوه ابراهیمی و شرکاء,کردستان,بانه,بلوار آزادي -پاساژ ياس-طبقه اول -پلاک 29,6691915967,8754236050,158472,1402/05/10,14003092211,444,كاوه ابراهيمي,,
u10320810430,کثیری و شریک,تهران,تهران,كوي نصر خیابان ششم خیابان نصر پلاک 49 طبقه همکف,1446863119,3-88487001,163589,1400/05/24,10320810430,428671,منصوره كثيري,,
u14005521167,کرامت نظریان و شریک,فارس,شیراز,خیابان ستارخان ، کوچه 4 ، مجتمع هامون ، پلاک جی 25,7183716538,7136481650,301981,1402/08/28,14005521167,43297,كرامت نظريان,,
u10220191111,کریم پور جلیل ریحانی و شرکا,آذربایجان غربی,ارومیه,خ خيام جنوبي- پائین تر از میدان خیام-مجتمع خیام بزرگ سمت راست درب ورودی صرافی ریحانی,5714617995,4432255690,380580,1400/11/27,10220191111,13917,کريم پور جلیل ریحانی,,
u14008230270,کریم جعفری و شرکاء,آذربایجان غربی,ارومیه,آدرس صرافی: ارومیه ، ایالت، کوچه شهید عادل نجفی، خیابان خیام شمالی، پلاک 20، طبقه همکف,5713715663,4432221814,98/203082,1400/06/10,14008230270,17867,كريم جعفري,,
u10500077289,کریم ریگی و شرکا,سیستان و بلوچستان,زاهدان,چهارراه رسولي، خيابان امير معزي، کوچه مطهري پلاک 4,9815635355,3221629,373439,1399/12/15,10500077289,4308,حميد ريگي,,
u10861721122,کریمی و شرکا,گلستان,بندرترکمن,خيابان جمهوري اسلامي ، روبروي شرکت فرهنگيان ، کوچه جمهوري هشتم ، جنب عينک‌آيريس,4891714766,4229596-4227767,158239,1400/05/20,10861721122,770,,,
u10102877346,کلاهی وشرکا,تهران,تهران,خیابان فردوسی شمالی، بالاتر از خیابان شهید تقوی، پلاک 479، ساختمان مرکزی تجارت جهانی، طبقه همکف، واحد 56,1145683680,66717128,111646,1400/04/05,10102877346,247102,محمد كلاهي علمداري,,
u10320222399,کلهر و شرکاء,تهران,تهران,استان تهران ، شهرستان تهران ، بخش مرکزي ، شهر تهران، میدان فردوسی ، خیابان انقلاب اسلامی ، خیابان فردوسی ، پلاك 6 ، طبقه همکف,1145693148,66711743,32803,1401/04/11,10320222399,372910,فريدون كلهر,,
u10861171579,کمائی و شرکاء,خوزستان,بندرماهشهر,بندر امام خمینی(سربندر)، 700دستگاه، خیابان سعیدی، کوچه قناری، مجتمع تجاری مسکونی خسروی، طبقه همکف، پلاک18,6356165971,6152238647,286004,1400/09/09,10861171579,7189,رضا كمائي,,
u14005534506,کورش اسکندری قانع و شریک,مازندران,تنکابن,ضلع شمالی میدان کریم آبادمجتمع تجاری کوروش کدپستی 46819344866,4681934486,1154286000,427601,1401/11/18,14005534506,3017,كورش اسكندري قانع,,
u14005620181,کیوان اردوخانی و شرکاء,تهران,تهران,تهران، بخش مرکزی ، شهر تهران ، محله ایرانشهر، میدان فردوسی، خیابان سپهبد قرنی، پلاک 19، ساختمان عباسی،طبقه همکف.کد پستی:1581613183,1581613183,88306341,99821,1400/11/01,14005620181,487301,كيوان اردوخاني,,
u10103663146,کیومرث امیریان و شرکا,تهران,تهران,ميدان تجريش ، خيابان شهرداري، جنب بانک صادرات، پلاک 113,1989917367,22705556,306473,1401/09/27,10103663146,328253,كيومرث اميريان,,
u10320824540,کیومرث بند عبدی,تهران,تهران,میدان هفت تیر-خیابان قائم مقام فراهانی-خیابان فجر-پلاک8,1589613356,88708950,317999,1401/10/06,10320824540,430431,,,
u14007453152,کیومرث حیاتی و شرکا,کرمانشاه,قصرشیرین,قصرشیرین دهستان فتح آباد پاسگاه مرزی پرویز خان خیابان اصلی کوچه پاسگاه طبقه همکف,6781141118,8338359803,420708,1398/12/24,14007453152,777,كيومرث حياتي,,
u14007252919,کیومرث رشادتمند و شرکاء,تهران,تهران,تهران، شهرک قدس، درختی،خیابان گلبرگ دوم غربی، خیابان بهارستان، پلاک 19، طبقه همکف,1468833140,2188591200,67113,1399/03/01,14007252919,519629,كيومرث رشادتمند,,
u10800096700,یادگار فرد وشرکا,هرمزگان,بندرعباس,خيابان امام موسي صدر ، پاساژ درياي جنوب ، پلاک 5,83575-7913,2229821-2235657,367397,1399/12/11,10800096700,6885,فرزان يادگارفرد,,
u14007900047,یاسر کردی و شرکاء,آذربایجان غربی,مهاباد,مهاباد، كوچه ((ماوراني)) ، خيابان صلاح الدين ايوبي غربی ، پلاك 202 ، طبقه همكف,5916835533,88,120055,1400/04/12,14007900047,2578,ياسر كردي,,
u14008649867,یحیی دهقانی و شرکا,یزد,میبد,استان یزد، شهر میبد، محله شهرک شهدا، کوچه فرعی(5)، بلوار مدرس، پلاک 4، طبقه همکف و کدپستي8964179433 آدرس: میبد-خیابان شهید فاضلی-کوچه ارمغان 5- پلاک 214- کد پ 8961934353,8964179433,3538417000,281559,1400/08/20,14008649867,1705,ابوالفضل دهقاني فيروزآبادي,,
u14006574120,یداله بخشی و شرکاء,بوشهر,دشتستان - برازجان,استان بوشهر- برازجان، نجف آباد، بلوار پاسداران،‌بن بست 8 پاسداران,7561635598,7734232533,236703,1399/07/10,14006574120,2461,يداله بخشي,,
u14007421668,یعقوب توکلی و شرکاء,آذربایجان شرقی,تبریز,آذربايجان شرقي، تبريز، بخش مرکزي، بازار، کوچه بازار کفاشها، خيابان شهيد مدني اول، پلاک 0، پاساژ اميرنو، طبقه همکف,5134833667,4135251745,38205,1399/02/11,14007421668,46272,زهرا توكلي,,
u14007600369,یعقوب نوری و شرکاء,تهران,تهران,تهران، بخش مرکزي، شهر تهران، چهار راه منوچهري، خيابان منوچهري، خيابان فردوسي، پلاک 327، طبقه همکف,1145613411,2166346573,10663,1399/05/10,14007600369,526412,,,
u14005810764,یوسف جهانبانی و پسران و شرکاء,فارس,شیراز,فارس، شيراز، خيابان قصرالدشت، نرسيده به چهارراه ملاصدرا، مجتمع پارس، طبقه اول، پلاک 1/18,7154735835,,320557,1402/09/12,14005810764,44072,احمد زال,,
test,محمد مجاهد,تهران,تهران,تهرانپارس,1234,12345,123456,01/01/99,1234567,12345678,محمد تولایی,,
